{
"type": "FeatureCollection",
"name": "0203",
"crs": { "type": "name", "properties": { "name": "urn:ogc:def:crs:OGC:1.3:CRS84" } },
"features": [
{ "type": "Feature", "properties": { "fid": 1.0, "cat": 2, "VULNERABIL": 2, "CLAVE_ACUI": "0203", "NOM_ACUIF": "EL DESCANSO" }, "geometry": { "type": "MultiPolygon", "coordinates": [ [ [ [ -116.864493809877445, 32.263920596689751 ], [ -116.863601405097754, 32.263913091159324 ], [ -116.863061530243201, 32.263872447069033 ], [ -116.86245045438173, 32.263851485878092 ], [ -116.861809632977739, 32.263756065852689 ], [ -116.861505250098702, 32.263640714610275 ], [ -116.860725621849411, 32.26319782788255 ], [ -116.860510724161827, 32.263143464697499 ], [ -116.860287491369789, 32.263332659244632 ], [ -116.860183484216975, 32.263657300575915 ], [ -116.859921346186709, 32.264983098640386 ], [ -116.859715900790775, 32.265251809476034 ], [ -116.859019298986865, 32.265179993492602 ], [ -116.858229605456827, 32.264808684491989 ], [ -116.856735307253416, 32.26397819333166 ], [ -116.855649471380957, 32.263374694048345 ], [ -116.855241036306182, 32.263147684463462 ], [ -116.854487432414743, 32.262634312427032 ], [ -116.854355354107255, 32.262450639010609 ], [ -116.854223276330856, 32.262266965452284 ], [ -116.853959122371165, 32.261899617909961 ], [ -116.853958471494806, 32.261591309952294 ], [ -116.853957990412397, 32.261363430147831 ], [ -116.85448100043692, 32.259595914835451 ], [ -116.85459321696446, 32.259125823575843 ], [ -116.854593896445138, 32.258699581310175 ], [ -116.854482651882847, 32.258560755079742 ], [ -116.853962832657544, 32.258339140321937 ], [ -116.853827639040304, 32.258240880402361 ], [ -116.85371655353002, 32.258003950103969 ], [ -116.853693053416507, 32.257763738281085 ], [ -116.853693762387792, 32.257321709186613 ], [ -116.85369447134353, 32.256879680061139 ], [ -116.85371279471839, 32.256624293655982 ], [ -116.853796885564876, 32.256316548683046 ], [ -116.853898691709801, 32.25613229934855 ], [ -116.854289693674616, 32.255580213365526 ], [ -116.854433239492081, 32.255431531981912 ], [ -116.854712120361981, 32.255289771903293 ], [ -116.854966975931191, 32.255235938593508 ], [ -116.855877420265401, 32.25512647294854 ], [ -116.856102330922781, 32.255128420758908 ], [ -116.85624147118692, 32.255246980080273 ], [ -116.856215332243366, 32.255414403060698 ], [ -116.855954207709146, 32.256077150698538 ], [ -116.855933951067712, 32.256300397870845 ], [ -116.856100547759794, 32.256679470602215 ], [ -116.856358801291648, 32.256997755455039 ], [ -116.857397402193456, 32.258104006923773 ], [ -116.857667591171264, 32.258432451161497 ], [ -116.857889858140965, 32.258858944475676 ], [ -116.85793719199863, 32.259139776877106 ], [ -116.857935815069894, 32.26002383494567 ], [ -116.857977186071068, 32.260299586254604 ], [ -116.858171628747783, 32.260702367508657 ], [ -116.858408034107711, 32.261002017627995 ], [ -116.859316827440409, 32.261997599761074 ], [ -116.859441083296545, 32.262096687317815 ], [ -116.85956533942273, 32.26219577475154 ], [ -116.85981625640288, 32.262125012967857 ], [ -116.859926195714976, 32.261825750038177 ], [ -116.860188324422239, 32.260499951274724 ], [ -116.860358029751779, 32.260165233766827 ], [ -116.860887862257201, 32.25992901664651 ], [ -116.861475061547893, 32.259926279017122 ], [ -116.862945496544228, 32.260221586234721 ], [ -116.863185062848544, 32.260276237262154 ], [ -116.863464858498347, 32.260320037908649 ], [ -116.863735541353392, 32.260332948948935 ], [ -116.864221204904339, 32.260326684828087 ], [ -116.864376765300563, 32.260312712337409 ], [ -116.864552968014806, 32.260275412347383 ], [ -116.864686927764964, 32.260229511219237 ], [ -116.86514956839801, 32.261148822742328 ], [ -116.865793470839932, 32.262428318948075 ], [ -116.866523829989205, 32.263879612963237 ], [ -116.865774679386277, 32.263895148951164 ], [ -116.865109645151236, 32.263912114110219 ], [ -116.864493809877445, 32.263920596689751 ] ] ] ] } },
{ "type": "Feature", "properties": { "fid": 2.0, "cat": 3, "VULNERABIL": 1, "CLAVE_ACUI": "0203", "NOM_ACUIF": "EL DESCANSO" }, "geometry": { "type": "MultiPolygon", "coordinates": [ ] } },
{ "type": "Feature", "properties": { "fid": 3.0, "cat": 1, "VULNERABIL": 1, "CLAVE_ACUI": "0203", "NOM_ACUIF": "EL DESCANSO" }, "geometry": { "type": "MultiPolygon", "coordinates": [ [ [ [ -116.85624147118692, 32.255246980080273 ], [ -116.856102330922781, 32.255128420758908 ], [ -116.855877420265401, 32.25512647294854 ], [ -116.854966975931191, 32.255235938593508 ], [ -116.854712120361981, 32.255289771903293 ], [ -116.854433239492053, 32.255431531981912 ], [ -116.854289693674616, 32.255580213365526 ], [ -116.853898691709801, 32.25613229934855 ], [ -116.853796885564876, 32.256316548683046 ], [ -116.85371279471839, 32.256624293655982 ], [ -116.85369447134353, 32.256879680061139 ], [ -116.853693762387792, 32.257321709186613 ], [ -116.853693053416507, 32.257763738281085 ], [ -116.85371655353002, 32.258003950103969 ], [ -116.853827639040304, 32.258240880402361 ], [ -116.853962832657544, 32.258339140321937 ], [ -116.854482651882847, 32.258560755079742 ], [ -116.854593896445138, 32.258699581310175 ], [ -116.85459321696446, 32.259125823575843 ], [ -116.85448100043692, 32.259595914835451 ], [ -116.853957990412397, 32.261363430147831 ], [ -116.853958471494806, 32.261591309952294 ], [ -116.85395762206872, 32.26159346555621 ], [ -116.853959122371165, 32.261899617909961 ], [ -116.854223276330856, 32.262266965452284 ], [ -116.854355354107255, 32.262450639010609 ], [ -116.854487432414743, 32.262634312427032 ], [ -116.855241036306182, 32.263147684463462 ], [ -116.855649471380957, 32.263374694048345 ], [ -116.856735307253416, 32.26397819333166 ], [ -116.858229605456827, 32.264808684491989 ], [ -116.859019298986865, 32.265179993492602 ], [ -116.859715900790775, 32.265251809476034 ], [ -116.859921346186709, 32.264983098640386 ], [ -116.860183484216975, 32.263657300575915 ], [ -116.860287491369789, 32.263332659244632 ], [ -116.860510724161827, 32.263143464697499 ], [ -116.860725621849411, 32.26319782788255 ], [ -116.861505250098702, 32.263640714610275 ], [ -116.861809632977739, 32.263756065852689 ], [ -116.86245045438173, 32.263851485878092 ], [ -116.863061530243201, 32.263872447069033 ], [ -116.863601405097754, 32.263913091159324 ], [ -116.864493809877445, 32.263920596689751 ], [ -116.865109645151236, 32.263912114110219 ], [ -116.865774679386277, 32.263895148951164 ], [ -116.866523829989205, 32.263879612963237 ], [ -116.874190426248489, 32.279113878569383 ], [ -116.846769356629139, 32.310870677185427 ], [ -116.762985812109079, 32.311708933745628 ], [ -116.684752885653367, 32.303385872047919 ], [ -116.614236757780006, 32.223478013254422 ], [ -116.673639810660674, 32.210865282206946 ], [ -116.703093829329816, 32.212398226787641 ], [ -116.703088134861133, 32.212629265805504 ], [ -116.703067516320715, 32.212893753942758 ], [ -116.703024102192472, 32.21321668954851 ], [ -116.702956349345371, 32.213613721427983 ], [ -116.702865348435594, 32.214045189977618 ], [ -116.702665299390191, 32.215267185048774 ], [ -116.7024922842362, 32.216324014899016 ], [ -116.702149948368017, 32.216976106347595 ], [ -116.700950235400597, 32.217588959723479 ], [ -116.699578694180332, 32.217812361278312 ], [ -116.694377862566554, 32.218241925393507 ], [ -116.692869220997807, 32.218404030545685 ], [ -116.691029746033664, 32.218731070938361 ], [ -116.689910564358158, 32.219036173208359 ], [ -116.686527150446821, 32.220132904316891 ], [ -116.685598903868339, 32.220448590212911 ], [ -116.68465054461339, 32.220825110995484 ], [ -116.684223995909932, 32.221047316532101 ], [ -116.683181790136373, 32.221707753966967 ], [ -116.682731499134505, 32.221889300298663 ], [ -116.681672353444554, 32.222076078987122 ], [ -116.680609579066811, 32.222161353123958 ], [ -116.676709103276721, 32.222372452667734 ], [ -116.675676219921158, 32.222442538765272 ], [ -116.674791420632204, 32.22255418105054 ], [ -116.674756582297476, 32.222558576752597 ], [ -116.674475698406226, 32.222654265856733 ], [ -116.674084544201648, 32.222984780338166 ], [ -116.673982582702905, 32.223121524105494 ], [ -116.673897917947016, 32.22342914791578 ], [ -116.673878929940287, 32.22373186679323 ], [ -116.673874984218472, 32.22483693100579 ], [ -116.673891810466031, 32.225139742215198 ], [ -116.673974279140168, 32.225447797058024 ], [ -116.674075265454135, 32.225585064139679 ], [ -116.674464067631661, 32.225917588325345 ], [ -116.674708496036743, 32.226004481044662 ], [ -116.675460358784434, 32.226077454230271 ], [ -116.676290019930121, 32.226094804691925 ], [ -116.679409909190554, 32.226102756285307 ], [ -116.680508344350272, 32.226075091586587 ], [ -116.682514481604841, 32.225938065462095 ], [ -116.684281951954972, 32.225769965625105 ], [ -116.690523961017348, 32.225122357667885 ], [ -116.691407749474152, 32.225017957762276 ], [ -116.692291538554286, 32.224913551356806 ], [ -116.694298268270643, 32.224586897981531 ], [ -116.695397448954495, 32.224329069505977 ], [ -116.698520201612865, 32.2234524956001 ], [ -116.699386382368473, 32.223249893971911 ], [ -116.700305841804152, 32.223181036679492 ], [ -116.70075317863369, 32.223285274475522 ], [ -116.701921300538174, 32.223840572350149 ], [ -116.702213017074428, 32.224076370426431 ], [ -116.702406231730492, 32.224621469907113 ], [ -116.702390534669519, 32.225164385904563 ], [ -116.702124058417809, 32.227152893848555 ], [ -116.701833672198674, 32.227725607841371 ], [ -116.700745010138249, 32.228409760162869 ], [ -116.699480158507725, 32.228814396420901 ], [ -116.694666113279652, 32.230018440505873 ], [ -116.693335599864596, 32.230407633383507 ], [ -116.691940647408202, 32.231019925210006 ], [ -116.691569236048878, 32.231292211831608 ], [ -116.691278375171137, 32.231505443908368 ], [ -116.689582697831014, 32.233158901155619 ], [ -116.689195140815258, 32.233604488578521 ], [ -116.689082255424111, 32.234030453529066 ], [ -116.689308551505363, 32.234193388177239 ], [ -116.690430731134697, 32.234514402399576 ], [ -116.690477491173866, 32.234527778457952 ], [ -116.690889282583754, 32.234564306528156 ], [ -116.69093510311555, 32.234554328549727 ], [ -116.691642029293433, 32.234400384383221 ], [ -116.692305586710972, 32.234129679967303 ], [ -116.694649408788251, 32.233030290854899 ], [ -116.695402407111672, 32.232785157705898 ], [ -116.696572610686857, 32.232740612256563 ], [ -116.697491338315629, 32.232922107229442 ], [ -116.700608568284167, 32.233813589267726 ], [ -116.70148557679174, 32.233979733447661 ], [ -116.702461014420436, 32.233863632870786 ], [ -116.702977482299531, 32.233531634056597 ], [ -116.704412202197432, 32.232098401166773 ], [ -116.70478584289063, 32.231623979683654 ], [ -116.705094803701314, 32.230843255363808 ], [ -116.705162538065352, 32.230202357287801 ], [ -116.705169673715758, 32.227992223984906 ], [ -116.705249212805739, 32.227391947701364 ], [ -116.705431235582225, 32.227096369724457 ], [ -116.70561325717479, 32.226800791464669 ], [ -116.706053780388331, 32.22655655761006 ], [ -116.706942368169464, 32.226268397657385 ], [ -116.707745501646585, 32.226007942697059 ], [ -116.708179286165617, 32.2258450848189 ], [ -116.708233574220444, 32.225824703038235 ], [ -116.708819534838796, 32.225518211719333 ], [ -116.709168548864639, 32.225263607415535 ], [ -116.710211310523547, 32.224381941620194 ], [ -116.71054229656977, 32.224162812419046 ], [ -116.711044147750727, 32.224021879427035 ], [ -116.711430093446481, 32.224039675532509 ], [ -116.712729327041416, 32.22426365014325 ], [ -116.713085508443498, 32.224256001904159 ], [ -116.713448449542867, 32.223996342955168 ], [ -116.713610754363728, 32.223633050490768 ], [ -116.714005229381144, 32.222197344263726 ], [ -116.714095997025524, 32.221803443194524 ], [ -116.714125111815804, 32.221400945399928 ], [ -116.714075937568794, 32.221219849680047 ], [ -116.713817344637192, 32.220777233804483 ], [ -116.713833844421984, 32.22059121230663 ], [ -116.714169432932209, 32.22016572762108 ], [ -116.714632341729086, 32.219743912375037 ], [ -116.715544657945145, 32.218972414595143 ], [ -116.716456958752559, 32.21820091004934 ], [ -116.716955753273879, 32.217748720565972 ], [ -116.717458877636759, 32.217181520465388 ], [ -116.717678834931604, 32.216823425464042 ], [ -116.718202174013442, 32.215719515350685 ], [ -116.718398125739483, 32.215401960181062 ], [ -116.718789233810341, 32.215023946885871 ], [ -116.719152007564659, 32.214801482440642 ], [ -116.720453834266337, 32.214141320839055 ], [ -116.720694987198073, 32.214005812697792 ], [ -116.720860315366792, 32.213892000330809 ], [ -116.720954822004813, 32.213812067344541 ], [ -116.721008681568151, 32.213756158268595 ], [ -116.721066366649822, 32.213667275619073 ], [ -116.721088276304812, 32.213600637965179 ], [ -116.721111608269936, 32.213493757802958 ], [ -116.721128811994205, 32.213336863693151 ], [ -116.745032976541182, 32.214580964198078 ], [ -116.834012599536109, 32.192453491307575 ], [ -116.841819936889124, 32.190511960878354 ], [ -116.843787337561295, 32.190022707231584 ], [ -116.844373104685985, 32.190629917463163 ], [ -116.844940510720548, 32.191287788615398 ], [ -116.845603546111164, 32.192051447502529 ], [ -116.846998108229002, 32.193597720271796 ], [ -116.848197747861562, 32.194927811176029 ], [ -116.848872561646971, 32.195818326026284 ], [ -116.849240130602311, 32.196665906738033 ], [ -116.84942740129064, 32.197097729516052 ], [ -116.849545206432296, 32.198034936865227 ], [ -116.84954011425377, 32.201129168357497 ], [ -116.849562576300684, 32.201985071746826 ], [ -116.849672493131024, 32.202885056860481 ], [ -116.849739774122355, 32.203099950974071 ], [ -116.849807055867217, 32.203314846448194 ], [ -116.850325104761211, 32.204420544825922 ], [ -116.850471625125437, 32.204840199035537 ], [ -116.850577075582194, 32.205382823792377 ], [ -116.850637332207882, 32.205692888156491 ], [ -116.850682433803854, 32.206092121918132 ], [ -116.850727536425055, 32.206491361290631 ], [ -116.850982790017596, 32.209364879247715 ], [ -116.851084904089461, 32.210183663154787 ], [ -116.85130617607409, 32.211131137528376 ], [ -116.851520165426621, 32.211665888256405 ], [ -116.852297523595382, 32.21321391450865 ], [ -116.852475762076466, 32.213718175541018 ], [ -116.852530168112764, 32.214523370450003 ], [ -116.85242964965353, 32.215169387974271 ], [ -116.851906141409231, 32.217378939755669 ], [ -116.851853299270815, 32.21806560719515 ], [ -116.852034887231483, 32.218717980179605 ], [ -116.852130230007134, 32.219060504843185 ], [ -116.852578694291836, 32.219795118435478 ], [ -116.854394651887745, 32.222228401769407 ], [ -116.854855200843772, 32.222891979983153 ], [ -116.855188415993922, 32.223555410649787 ], [ -116.855203883082581, 32.223839591988003 ], [ -116.854942842439911, 32.224502341090698 ], [ -116.854946418934475, 32.224756062674004 ], [ -116.855224154114623, 32.225277347611915 ], [ -116.855617345736988, 32.225768317744084 ], [ -116.857174539482386, 32.227538215304456 ], [ -116.857567782956011, 32.228008881898823 ], [ -116.857845690385176, 32.228435439905596 ], [ -116.857848711041953, 32.228546759516277 ], [ -116.857849454092275, 32.228574142949618 ], [ -116.857589108292458, 32.228794865866526 ], [ -116.857539202098451, 32.228897988004093 ], [ -116.857566653183753, 32.229158502051739 ], [ -116.857655775753926, 32.229427542795946 ], [ -116.858007151893077, 32.230327566829587 ], [ -116.858044235019435, 32.230422551425725 ], [ -116.858181100874674, 32.230701794054262 ], [ -116.858366502817873, 32.2309300787811 ], [ -116.858431344840795, 32.231009918189464 ], [ -116.858651970317965, 32.231170852702427 ], [ -116.859431315484429, 32.231613753677799 ], [ -116.859646138357576, 32.231668118760631 ], [ -116.859869294774526, 32.231478924184543 ], [ -116.85997326593224, 32.231154281357384 ], [ -116.860235304148929, 32.229828475805817 ], [ -116.860482570523828, 32.229483693458732 ], [ -116.861374443374686, 32.2292005113976 ], [ -116.861887862624783, 32.229170627382203 ], [ -116.862401281546781, 32.229140741280183 ], [ -116.866301324006216, 32.229144926900929 ], [ -116.86748309908306, 32.229267955783094 ], [ -116.869098018772505, 32.229837965483021 ], [ -116.870223283578738, 32.230529237017379 ], [ -116.871277319962289, 32.231814619988356 ], [ -116.872590262924433, 32.232658229427336 ], [ -116.873089345405972, 32.23290201855977 ], [ -116.874079260354151, 32.233253366100762 ], [ -116.874887166058969, 32.233472259310794 ], [ -116.875400561098445, 32.233569636344058 ], [ -116.876398600865329, 32.233647610955188 ], [ -116.877503503605695, 32.233712419866606 ], [ -116.878082906506435, 32.23374011389248 ], [ -116.881723447464353, 32.233522570054866 ], [ -116.882239933276963, 32.233526737931435 ], [ -116.883034813519785, 32.233623913140953 ], [ -116.884126351739269, 32.233910498187875 ], [ -116.884853677209748, 32.234181315949165 ], [ -116.887971477519116, 32.236173261869524 ], [ -116.888368781544912, 32.236403453496813 ], [ -116.888745569700092, 32.236637294178088 ], [ -116.889482640911325, 32.237027426551691 ], [ -116.889832658963329, 32.23721458285965 ], [ -116.890519489743383, 32.237588310893479 ], [ -116.890902989348774, 32.237758350826894 ], [ -116.879893197536305, 32.245554920234959 ], [ -116.878899429550302, 32.2450721737493 ], [ -116.878323835386126, 32.244807540545601 ], [ -116.877657925048126, 32.24455656414144 ], [ -116.876997980360798, 32.244427628932606 ], [ -116.876183652726027, 32.244414056805354 ], [ -116.875117378155963, 32.244506776333189 ], [ -116.874324271293318, 32.244671927223031 ], [ -116.873842871497686, 32.244804534980211 ], [ -116.873336076724939, 32.245007805437943 ], [ -116.872749904532768, 32.245255528694614 ], [ -116.872227377633763, 32.245499826985039 ], [ -116.871903604098236, 32.245715676008736 ], [ -116.871644611230494, 32.245940062152471 ], [ -116.871367209593942, 32.246217421083209 ], [ -116.871029375699237, 32.246657325666241 ], [ -116.870705602866295, 32.247192949858984 ], [ -116.87006300095851, 32.248225609042912 ], [ -116.869823647902663, 32.248671692503322 ], [ -116.869588499200987, 32.249158768965607 ], [ -116.869371064592656, 32.249530992974009 ], [ -116.869085263219702, 32.249949378840753 ], [ -116.868958322107034, 32.250133266327431 ], [ -116.868744041399694, 32.250490266388901 ], [ -116.868605337594929, 32.250834474633166 ], [ -116.868515648657294, 32.250744246928299 ], [ -116.868400758764167, 32.250684178375209 ], [ -116.868226578341663, 32.250619496297304 ], [ -116.868040084283322, 32.250591819706365 ], [ -116.867890234720761, 32.250606339861392 ], [ -116.867734402313559, 32.250672856663371 ], [ -116.86766474827688, 32.250762872196752 ], [ -116.867644371153915, 32.250845964496328 ], [ -116.867664555400012, 32.251040886137211 ], [ -116.867693904449794, 32.251182531522566 ], [ -116.867694390720771, 32.251281319217355 ], [ -116.867684174737136, 32.251350870951228 ], [ -116.867648481204171, 32.251442722202924 ], [ -116.867586246641807, 32.251579992324977 ], [ -116.867325696441526, 32.251911242142199 ], [ -116.867155138000925, 32.252128079227646 ], [ -116.867037805380704, 32.252314362134662 ], [ -116.867001896958371, 32.252408760901915 ], [ -116.866978925746665, 32.252548272512428 ], [ -116.8669672421358, 32.252704847679226 ], [ -116.866965588218505, 32.252824802396582 ], [ -116.866991480488608, 32.25320128167764 ], [ -116.866971306048939, 32.253499771657239 ], [ -116.866918158007024, 32.253777204745006 ], [ -116.866738415636632, 32.254327475524256 ], [ -116.866426302310543, 32.255091484152551 ], [ -116.865665536315575, 32.25563021957862 ], [ -116.863237600805078, 32.257349558876612 ], [ -116.864362718816253, 32.259585276793764 ], [ -116.864686927764964, 32.260229511219237 ], [ -116.864552968014806, 32.260275412347383 ], [ -116.864376765300563, 32.260312712337409 ], [ -116.864221204904339, 32.260326684828087 ], [ -116.863735541353392, 32.260332948948935 ], [ -116.863464858498347, 32.260320037908649 ], [ -116.863185062848544, 32.260276237262154 ], [ -116.862945496544228, 32.260221586234721 ], [ -116.861475061547893, 32.259926279017122 ], [ -116.860887862257201, 32.25992901664651 ], [ -116.860358029751779, 32.260165233766827 ], [ -116.860188324422239, 32.260499951274724 ], [ -116.859926195714976, 32.261825750038163 ], [ -116.85981625640288, 32.262125012967857 ], [ -116.85956533942273, 32.26219577475154 ], [ -116.859441083296545, 32.262096687317815 ], [ -116.859316827440409, 32.261997599761074 ], [ -116.858408034107711, 32.261002017627995 ], [ -116.858171628747783, 32.260702367508657 ], [ -116.857977186071068, 32.260299586254604 ], [ -116.857935815069894, 32.26002383494567 ], [ -116.85793719199863, 32.259139776877106 ], [ -116.857889858140965, 32.258858944475676 ], [ -116.857667591171264, 32.258432451161497 ], [ -116.857397402193456, 32.258104006923773 ], [ -116.856358801291648, 32.256997755455039 ], [ -116.856100547759794, 32.256679470602215 ], [ -116.855933951067712, 32.256300397870845 ], [ -116.855954207709146, 32.256077150698538 ], [ -116.856215332243366, 32.255414403060698 ], [ -116.85624147118692, 32.255246980080273 ] ], [ [ -116.672442018024284, 32.227714311451706 ], [ -116.672610710995471, 32.227836532147336 ], [ -116.673259513855555, 32.228169733127963 ], [ -116.673434468410775, 32.228210779822959 ], [ -116.673602116939946, 32.228069131960517 ], [ -116.673666659850909, 32.22782573134365 ], [ -116.673800210064627, 32.226831509607592 ], [ -116.673799162779957, 32.22656764230441 ], [ -116.673660727495786, 32.226330483389788 ], [ -116.673557191837403, 32.226291045741853 ], [ -116.673464010365763, 32.226255551993653 ], [ -116.672715617503641, 32.226147529473778 ], [ -116.672684433134421, 32.226143028241374 ], [ -116.672481456900229, 32.226149268220951 ], [ -116.672313810197693, 32.226290914651649 ], [ -116.672277291027086, 32.22648702697817 ], [ -116.672274515184569, 32.227260571485893 ], [ -116.672303584566677, 32.227477151105376 ], [ -116.672442018024284, 32.227714311451706 ] ], [ [ -116.723437508474404, 32.238855356955895 ], [ -116.723658525945325, 32.23947152453195 ], [ -116.723704740406134, 32.239982440350971 ], [ -116.723699388340037, 32.241750546556936 ], [ -116.723751712565274, 32.242215806686318 ], [ -116.724001245966278, 32.242618914411402 ], [ -116.72430539822048, 32.242729521885252 ], [ -116.725475242482602, 32.242842576111919 ], [ -116.725833419638974, 32.24285688525152 ], [ -116.726335066664603, 32.242810612365687 ], [ -116.726693527483505, 32.242730199097792 ], [ -116.727864692830593, 32.242401204649134 ], [ -116.728145612862775, 32.242295248646293 ], [ -116.728215512714527, 32.242212518482766 ], [ -116.728285412439291, 32.242129788278767 ], [ -116.728204206835485, 32.24199937281778 ], [ -116.72768545114117, 32.241556226503675 ], [ -116.727538680675337, 32.241390149074114 ], [ -116.727372505200094, 32.241058268539518 ], [ -116.727281882190411, 32.240750231000625 ], [ -116.727025153274909, 32.239644602746047 ], [ -116.72695847379066, 32.239316319353698 ], [ -116.726904028362469, 32.23888995882745 ], [ -116.726892928315763, 32.238609155784793 ], [ -116.726895573155929, 32.237725102066712 ], [ -116.726920171483428, 32.237484970686801 ], [ -116.727032318553455, 32.237248411306197 ], [ -116.727167930193275, 32.237150600599918 ], [ -116.727688636282011, 32.236930708770046 ], [ -116.727824307262864, 32.236812600190582 ], [ -116.727936733433282, 32.236481319891148 ], [ -116.727961671392038, 32.236126171005296 ], [ -116.727965622705057, 32.234800089741846 ], [ -116.727907104540975, 32.234404166513862 ], [ -116.727630070530694, 32.233882605831695 ], [ -116.727292827592123, 32.233533441643281 ], [ -116.725996078417509, 32.232425561738644 ], [ -116.725694664656018, 32.232076470915473 ], [ -116.725584797919808, 32.231555268323476 ], [ -116.725729256172329, 32.231159784464651 ], [ -116.726121254341606, 32.230497589189731 ], [ -116.726513246798291, 32.229835392598524 ], [ -116.726717392468473, 32.229440036617603 ], [ -116.726886094329501, 32.228919436933623 ], [ -116.726922952581816, 32.228571079363029 ], [ -116.726926256968795, 32.22746601043572 ], [ -116.726915329940056, 32.227127698197663 ], [ -116.726861033193131, 32.226653976764474 ], [ -116.726794393791735, 32.226315544070829 ], [ -116.726537710048902, 32.225209912554241 ], [ -116.726411381639309, 32.224871350441397 ], [ -116.726078531181741, 32.224397025302409 ], [ -116.7257293603504, 32.224057979368943 ], [ -116.724432763933692, 32.222950082605969 ], [ -116.724095542682861, 32.222611058170045 ], [ -116.723818422570943, 32.222136848605494 ], [ -116.723759756183696, 32.221798431538254 ], [ -116.723763097972238, 32.220693361718759 ], [ -116.723692418283889, 32.220380289966592 ], [ -116.723359239634917, 32.220024357856957 ], [ -116.722953950899154, 32.219828954109815 ], [ -116.721395792129243, 32.219272990976158 ], [ -116.720954404026273, 32.219173913618704 ], [ -116.72045273944461, 32.219267526164117 ], [ -116.720177461843747, 32.219500336512567 ], [ -116.719394487875704, 32.220493170376024 ], [ -116.719202502578881, 32.220812427064416 ], [ -116.719089554764508, 32.221309460754675 ], [ -116.719120187398715, 32.221700252437593 ], [ -116.719376092689174, 32.223026912898618 ], [ -116.719466526397795, 32.223382316826012 ], [ -116.719632641384337, 32.223714208345484 ], [ -116.719706077911681, 32.223773571735919 ], [ -116.719779514534522, 32.223832935083664 ], [ -116.720298808395199, 32.224055100523344 ], [ -116.720457621108963, 32.224173852890921 ], [ -116.720679452680031, 32.224505866216553 ], [ -116.720837542897698, 32.224861418590223 ], [ -116.721353473723823, 32.226188648519489 ], [ -116.721487042589587, 32.226757267761471 ], [ -116.721594425917147, 32.228083595478019 ], [ -116.721614260777102, 32.229409730035918 ], [ -116.721599436155273, 32.234272028192237 ], [ -116.721643181965561, 32.235588065480613 ], [ -116.721862159516036, 32.236867276581201 ], [ -116.722131240377465, 32.237378683454189 ], [ -116.723167985117541, 32.238486032930901 ], [ -116.723437508474404, 32.238855356955895 ] ] ] ] } },
{ "type": "Feature", "properties": { "fid": 5.0, "cat": 4, "VULNERABIL": 2, "CLAVE_ACUI": "0203", "NOM_ACUIF": "EL DESCANSO" }, "geometry": null },
{ "type": "Feature", "properties": { "fid": 6.0, "cat": 5, "VULNERABIL": 2, "CLAVE_ACUI": "0203", "NOM_ACUIF": "EL DESCANSO" }, "geometry": { "type": "MultiPolygon", "coordinates": [ [ [ [ -116.866426302310543, 32.255091484152551 ], [ -116.866738415636632, 32.254327475524256 ], [ -116.866918158007024, 32.253777204745006 ], [ -116.866971306048939, 32.253499771657239 ], [ -116.866991480488608, 32.25320128167764 ], [ -116.866965588218505, 32.252824802396582 ], [ -116.8669672421358, 32.252704847679226 ], [ -116.866978925746665, 32.252548272512428 ], [ -116.867001896958371, 32.252408760901915 ], [ -116.867037805380704, 32.252314362134662 ], [ -116.867155138000925, 32.252128079227646 ], [ -116.867325696441526, 32.251911242142199 ], [ -116.867586246641807, 32.251579992324977 ], [ -116.867648481204171, 32.251442722202924 ], [ -116.867684174737136, 32.251350870951228 ], [ -116.867694390720771, 32.251281319217355 ], [ -116.867693904449794, 32.251182531522566 ], [ -116.867664555400012, 32.251040886137211 ], [ -116.867644371153915, 32.250845964496328 ], [ -116.86766474827688, 32.250762872196752 ], [ -116.867734402313559, 32.250672856663371 ], [ -116.867890234720761, 32.250606339861392 ], [ -116.868040084283322, 32.250591819706365 ], [ -116.868226578341663, 32.250619496297304 ], [ -116.868400758764167, 32.250684178375209 ], [ -116.868515648657294, 32.250744246928299 ], [ -116.868605337594929, 32.250834474633166 ], [ -116.868697725021889, 32.250977989864495 ], [ -116.868741885705447, 32.251071185219566 ], [ -116.868884915046422, 32.251285729231029 ], [ -116.869006829297589, 32.251387021514233 ], [ -116.869159525016016, 32.251459598742507 ], [ -116.869477389492758, 32.251526232631853 ], [ -116.869672532991387, 32.251605720505225 ], [ -116.86982099512052, 32.25169653758762 ], [ -116.870005025015075, 32.251832228923384 ], [ -116.870211953811534, 32.252006295968677 ], [ -116.870510116362354, 32.252199536670979 ], [ -116.869347554541861, 32.253022803275741 ], [ -116.868608281806686, 32.253546318278531 ], [ -116.867869104643859, 32.254069765601869 ], [ -116.866426302310543, 32.255091484152551 ] ] ] ] } },
{ "type": "Feature", "properties": { "fid": 8.0, "cat": 8, "VULNERABIL": 3, "CLAVE_ACUI": "0203", "NOM_ACUIF": "EL DESCANSO" }, "geometry": { "type": "MultiPolygon", "coordinates": [ [ [ [ -116.86982099512052, 32.25169653758762 ], [ -116.869672532991387, 32.251605720505225 ], [ -116.869477389492758, 32.251526232631853 ], [ -116.869159525016016, 32.251459598742507 ], [ -116.869006829297589, 32.251387021514233 ], [ -116.868884915046422, 32.251285729231029 ], [ -116.868741885705447, 32.251071185219566 ], [ -116.868697725021889, 32.250977989864495 ], [ -116.868605337594929, 32.250834474633166 ], [ -116.868744041399694, 32.250490266388901 ], [ -116.868958322107034, 32.250133266327431 ], [ -116.869085263219702, 32.249949378840753 ], [ -116.869371064592656, 32.249530992974009 ], [ -116.869588499200987, 32.249158768965607 ], [ -116.869823647902663, 32.248671692503322 ], [ -116.87006300095851, 32.248225609042912 ], [ -116.870705602866295, 32.247192949858984 ], [ -116.871029375699237, 32.246657325666241 ], [ -116.871367209593942, 32.246217421083209 ], [ -116.871644611230494, 32.245940062152471 ], [ -116.871903604098236, 32.245715676008736 ], [ -116.872227377633763, 32.245499826985039 ], [ -116.872749904532768, 32.245255528694614 ], [ -116.873336076724939, 32.245007805437943 ], [ -116.873842871497686, 32.244804534980211 ], [ -116.874324271293318, 32.244671927223031 ], [ -116.875117378155963, 32.244506776333189 ], [ -116.876183652726027, 32.244414056805354 ], [ -116.876997980360798, 32.244427628932606 ], [ -116.877657925048126, 32.24455656414144 ], [ -116.878323835386126, 32.244807540545601 ], [ -116.878899429550302, 32.2450721737493 ], [ -116.879893197536305, 32.245554920234959 ], [ -116.871869930273022, 32.251236586261278 ], [ -116.870510116362354, 32.252199536670979 ], [ -116.870211953811534, 32.252006295968677 ], [ -116.870005025015075, 32.251832228923384 ], [ -116.86982099512052, 32.25169653758762 ] ] ] ] } },
{ "type": "Feature", "properties": { "fid": 9.0, "cat": 10, "VULNERABIL": 2, "CLAVE_ACUI": "0203", "NOM_ACUIF": "EL DESCANSO" }, "geometry": { "type": "MultiPolygon", "coordinates": [ [ [ [ -116.889832658963329, 32.23721458285965 ], [ -116.889482640911325, 32.237027426551691 ], [ -116.888745569700092, 32.236637294178088 ], [ -116.888368781544912, 32.236403453496813 ], [ -116.887971477519116, 32.236173261869524 ], [ -116.884853677209748, 32.234181315949165 ], [ -116.884126351739269, 32.233910498187875 ], [ -116.883034813519785, 32.233623913140953 ], [ -116.882239933276963, 32.233526737931435 ], [ -116.881723447464353, 32.233522570054866 ], [ -116.878082906506435, 32.23374011389248 ], [ -116.877503503605695, 32.233712419866606 ], [ -116.876398600865329, 32.233647610955188 ], [ -116.875400561098445, 32.233569636344058 ], [ -116.874887166058969, 32.233472259310794 ], [ -116.874079260354151, 32.233253366100762 ], [ -116.873089345405972, 32.23290201855977 ], [ -116.872590262924433, 32.232658229427336 ], [ -116.871277319962289, 32.231814619988356 ], [ -116.870223283578738, 32.230529237017372 ], [ -116.869098018772505, 32.229837965483021 ], [ -116.86748309908306, 32.229267955783094 ], [ -116.866301324006216, 32.229144926900929 ], [ -116.862401281546781, 32.229140741280183 ], [ -116.861887862624783, 32.229170627382203 ], [ -116.861374443374686, 32.2292005113976 ], [ -116.860482570523828, 32.229483693458732 ], [ -116.860235304148929, 32.229828475805817 ], [ -116.85997326593224, 32.231154281357384 ], [ -116.859869294774526, 32.231478924184543 ], [ -116.859646138357576, 32.231668118760631 ], [ -116.859431315484429, 32.231613753677799 ], [ -116.858651970317965, 32.231170852702427 ], [ -116.858431344840795, 32.231009918189464 ], [ -116.858366502817873, 32.2309300787811 ], [ -116.858181100874674, 32.230701794054262 ], [ -116.858044235019435, 32.230422551425725 ], [ -116.858007151893077, 32.230327566829587 ], [ -116.857655775753926, 32.229427542795946 ], [ -116.857566653183753, 32.229158502051739 ], [ -116.857539202098451, 32.228897988004093 ], [ -116.857589108292458, 32.228794865866526 ], [ -116.857849454092275, 32.228574142949618 ], [ -116.857848711041953, 32.228546759516277 ], [ -116.857845690385176, 32.228435439905596 ], [ -116.857567782956011, 32.228008881898823 ], [ -116.857174539482386, 32.227538215304456 ], [ -116.855617345736988, 32.225768317744077 ], [ -116.855224154114623, 32.2252773476119 ], [ -116.854946418934475, 32.224756062674004 ], [ -116.854942842439911, 32.224502341090698 ], [ -116.855203883082581, 32.223839591988003 ], [ -116.855188415993922, 32.223555410649787 ], [ -116.854855200843772, 32.222891979983153 ], [ -116.854394651887745, 32.222228401769407 ], [ -116.852578694291836, 32.219795118435478 ], [ -116.852130230007134, 32.219060504843185 ], [ -116.852034887231483, 32.218717980179605 ], [ -116.851853299270815, 32.21806560719515 ], [ -116.851906141409231, 32.217378939755669 ], [ -116.85242964965353, 32.215169387974271 ], [ -116.852530168112764, 32.214523370450003 ], [ -116.852475762076466, 32.213718175541018 ], [ -116.852297523595382, 32.21321391450865 ], [ -116.851520165426621, 32.211665888256405 ], [ -116.85130617607409, 32.211131137528376 ], [ -116.851084904089461, 32.210183663154787 ], [ -116.850982790017596, 32.209364879247715 ], [ -116.850727536425055, 32.206491361290631 ], [ -116.850682433803854, 32.206092121918132 ], [ -116.850637332207882, 32.205692888156491 ], [ -116.850577075582194, 32.205382823792377 ], [ -116.850471625125437, 32.20484019903553 ], [ -116.850325104761211, 32.204420544825922 ], [ -116.849807055867217, 32.203314846448194 ], [ -116.849739774122355, 32.203099950974071 ], [ -116.849672493131024, 32.202885056860481 ], [ -116.849562576300684, 32.201985071746826 ], [ -116.84954011425377, 32.201129168357497 ], [ -116.849545206432296, 32.198034936865227 ], [ -116.84942740129064, 32.197097729516052 ], [ -116.849240130602311, 32.196665906738033 ], [ -116.848872561646971, 32.195818326026284 ], [ -116.848197747861562, 32.194927811176029 ], [ -116.846998108229002, 32.193597720271796 ], [ -116.845603546111164, 32.192051447502521 ], [ -116.844940510720548, 32.191287788615398 ], [ -116.844373104685985, 32.190629917463163 ], [ -116.843787337561295, 32.190022707231584 ], [ -116.88719469949794, 32.179228154589389 ], [ -116.887616786010113, 32.179888286028152 ], [ -116.88823405068382, 32.18099226145209 ], [ -116.888848496721096, 32.182377713495782 ], [ -116.890403944103738, 32.185528572545202 ], [ -116.891959498373623, 32.188679411129307 ], [ -116.892780795392795, 32.190491664026446 ], [ -116.893502274116784, 32.192647193388154 ], [ -116.893711638288011, 32.193914272566325 ], [ -116.89396662681277, 32.197663584151194 ], [ -116.893967184273009, 32.197671780627338 ], [ -116.894031672600775, 32.198551829697976 ], [ -116.893999013497194, 32.199257283627176 ], [ -116.893918478558419, 32.199713029966489 ], [ -116.893753694061729, 32.200313895697398 ], [ -116.893506921320053, 32.200787272300026 ], [ -116.89328677864853, 32.201183802101291 ], [ -116.891723179662463, 32.204608236598297 ], [ -116.891322231243336, 32.2055348105851 ], [ -116.891014805245064, 32.206434400507383 ], [ -116.890787772834258, 32.206904260673355 ], [ -116.890633473724662, 32.2071644079953 ], [ -116.890362297784947, 32.207546814180958 ], [ -116.890033526031772, 32.207986307067635 ], [ -116.889208422379298, 32.209230497739206 ], [ -116.889049108180714, 32.209470725446259 ], [ -116.888933288129422, 32.209661214551446 ], [ -116.888819894542124, 32.209870647167186 ], [ -116.888676829285956, 32.210079829300469 ], [ -116.888561378787699, 32.210218717853415 ], [ -116.888458044245752, 32.210308751200486 ], [ -116.888310310063872, 32.210421049229993 ], [ -116.888051675711225, 32.210574382453352 ], [ -116.88764508017519, 32.21085512699014 ], [ -116.887325612254017, 32.211101988565581 ], [ -116.887275080245132, 32.211159411302937 ], [ -116.887230013898815, 32.211237520410933 ], [ -116.887210689820776, 32.211318663827221 ], [ -116.887202151865026, 32.211368616811107 ], [ -116.887194682718885, 32.211457344448839 ], [ -116.887202401263465, 32.211503255648338 ], [ -116.887222970710368, 32.211530604801709 ], [ -116.887245867581015, 32.211545588868773 ], [ -116.887308982437787, 32.211574302768639 ], [ -116.887140299790218, 32.211718243816506 ], [ -116.886804992172145, 32.212022476035528 ], [ -116.885949330549977, 32.212798823961549 ], [ -116.885242029154441, 32.21345183685942 ], [ -116.8816499450583, 32.21649915515583 ], [ -116.880689827678296, 32.217384573887458 ], [ -116.88066062657802, 32.217420898135217 ], [ -116.87985284111322, 32.218425715870616 ], [ -116.879424764921737, 32.219166728157404 ], [ -116.879302315803386, 32.219486983427331 ], [ -116.879220842164287, 32.219910355492217 ], [ -116.879219901462349, 32.220621848438199 ], [ -116.879245837288565, 32.221129802434689 ], [ -116.879313778115346, 32.221397682477864 ], [ -116.879425284698939, 32.221656019794949 ], [ -116.879594742019265, 32.221922119735261 ], [ -116.880094180900784, 32.222542142099506 ], [ -116.880500615756389, 32.223010639369392 ], [ -116.881058800752228, 32.223427333854353 ], [ -116.88178008323564, 32.223845273380419 ], [ -116.88339380535345, 32.224632145143282 ], [ -116.884427703157414, 32.225045905690912 ], [ -116.886059122587866, 32.22555723438839 ], [ -116.891754622865975, 32.227090985869168 ], [ -116.893547071354547, 32.227573677536149 ], [ -116.895956699422669, 32.228150577490617 ], [ -116.898001334277907, 32.228785402176527 ], [ -116.90002956725526, 32.229513331760842 ], [ -116.901526644325202, 32.230235223704973 ], [ -116.890902989348774, 32.237758350826894 ], [ -116.890519489743383, 32.237588310893479 ], [ -116.889832658963329, 32.23721458285965 ] ] ] ] } },
{ "type": "Feature", "properties": { "fid": 10.0, "cat": 13, "VULNERABIL": 2, "CLAVE_ACUI": "0203", "NOM_ACUIF": "EL DESCANSO" }, "geometry": { "type": "MultiPolygon", "coordinates": [ [ [ [ -116.672277291027086, 32.22648702697817 ], [ -116.672313810197693, 32.226290914651649 ], [ -116.672481456900229, 32.226149268220951 ], [ -116.672684433134421, 32.226143028241374 ], [ -116.672715617503641, 32.226147529473778 ], [ -116.673464010365763, 32.226255551993653 ], [ -116.673557191837403, 32.226291045741853 ], [ -116.673660727495786, 32.226330483389788 ], [ -116.673799162779957, 32.22656764230441 ], [ -116.673800210064627, 32.226831509607592 ], [ -116.673666659850909, 32.227825731343643 ], [ -116.673602116939946, 32.228069131960517 ], [ -116.673434468410775, 32.228210779822959 ], [ -116.673259513855555, 32.228169733127963 ], [ -116.672610710995471, 32.227836532147336 ], [ -116.672442018024284, 32.227714311451706 ], [ -116.672303584566677, 32.227477151105376 ], [ -116.672274515184569, 32.227260571485893 ], [ -116.672277291027086, 32.22648702697817 ] ] ] ] } },
{ "type": "Feature", "properties": { "fid": 11.0, "cat": 12, "VULNERABIL": 3, "CLAVE_ACUI": "0203", "NOM_ACUIF": "EL DESCANSO" }, "geometry": { "type": "MultiPolygon", "coordinates": [ [ [ [ -116.885242029154441, 32.21345183685942 ], [ -116.885949330549977, 32.212798823961549 ], [ -116.886804992172145, 32.212022476035528 ], [ -116.887140299790218, 32.211718243816506 ], [ -116.887308982437787, 32.211574302768639 ], [ -116.887371231007293, 32.211596725733521 ], [ -116.887431005019508, 32.21160767798451 ], [ -116.887478277710869, 32.211602685514627 ], [ -116.8875194977999, 32.211588193421733 ], [ -116.887572454705236, 32.21155074318829 ], [ -116.887609907461098, 32.211514595807174 ], [ -116.887669845156125, 32.211443632168915 ], [ -116.887740061635, 32.211360110095441 ], [ -116.88780166884672, 32.211305236872036 ], [ -116.887970571128633, 32.211179479815129 ], [ -116.888150945983625, 32.21104819056049 ], [ -116.88832071901696, 32.210934125820174 ], [ -116.888469170733202, 32.210842916387286 ], [ -116.888643315533145, 32.210751072837731 ], [ -116.888899702456584, 32.210596065537516 ], [ -116.889121409204833, 32.210450951665628 ], [ -116.889362172264171, 32.210272614070441 ], [ -116.889968578853598, 32.20982621799758 ], [ -116.890253271312247, 32.209610283471775 ], [ -116.890385123486524, 32.209545542235396 ], [ -116.890494675927414, 32.209520747898274 ], [ -116.890602037283827, 32.2095155969918 ], [ -116.89073243866288, 32.209550083234227 ], [ -116.890820251991173, 32.209599170157979 ], [ -116.89091478851978, 32.209747366710232 ], [ -116.890951398599242, 32.209948156566185 ], [ -116.890957430160867, 32.210179262787769 ], [ -116.890931105008718, 32.210437419811655 ], [ -116.890914770854195, 32.210737403277129 ], [ -116.890906136018643, 32.21105722904008 ], [ -116.890903877953974, 32.211503905560029 ], [ -116.890892143232534, 32.211768262040792 ], [ -116.890895585639441, 32.211950166838761 ], [ -116.890914507038303, 32.212092302608532 ], [ -116.890967684048007, 32.212255258936956 ], [ -116.891041525767278, 32.212347598186064 ], [ -116.891179194053109, 32.212435525115339 ], [ -116.891442997109237, 32.212466987865156 ], [ -116.89162041869929, 32.21242098020997 ], [ -116.891815525505379, 32.21230274551904 ], [ -116.891968911341664, 32.212135422708116 ], [ -116.892489600821747, 32.21147281644545 ], [ -116.892672843375436, 32.211290295049686 ], [ -116.893007289562135, 32.21110113561042 ], [ -116.893301827418611, 32.211013428882083 ], [ -116.89434188904039, 32.210793285592324 ], [ -116.894660309349362, 32.21069544691985 ], [ -116.895106210798431, 32.210459013980568 ], [ -116.895424791715939, 32.210219091302314 ], [ -116.896465590400155, 32.209335880737115 ], [ -116.896897593033557, 32.209065600928994 ], [ -116.897872813963602, 32.208687506434366 ], [ -116.898698704377068, 32.208417537977255 ], [ -116.901242769244291, 32.207727558541912 ], [ -116.901858255751108, 32.207574064036287 ], [ -116.90233968293218, 32.207485243047238 ], [ -116.902707201101919, 32.207437470209072 ], [ -116.90290081144758, 32.207400721613148 ], [ -116.903156069001739, 32.207321173801311 ], [ -116.903336133619618, 32.207239008597824 ], [ -116.903428626188258, 32.207172835427393 ], [ -116.903564827011323, 32.207035273262555 ], [ -116.904219182509479, 32.207052586607631 ], [ -116.904451563030051, 32.207683724282823 ], [ -116.904511124685868, 32.207838932893743 ], [ -116.904634169522978, 32.208110302739058 ], [ -116.904763269925766, 32.208331481118464 ], [ -116.90491994201453, 32.208573508367728 ], [ -116.904996697496017, 32.208679175429971 ], [ -116.905109637176523, 32.208930694599815 ], [ -116.905157125709891, 32.209117415115955 ], [ -116.905157773410735, 32.209277021684265 ], [ -116.905120655225531, 32.209411184212051 ], [ -116.905010663059485, 32.209636623664814 ], [ -116.904796696500327, 32.209957318567135 ], [ -116.904527282359282, 32.210228771476217 ], [ -116.904145971033614, 32.210593613504166 ], [ -116.901842551537584, 32.212822633047004 ], [ -116.901241078131591, 32.213431089233637 ], [ -116.900515983985997, 32.214283014864563 ], [ -116.900125277937548, 32.214830416371065 ], [ -116.899694697453242, 32.215482408075701 ], [ -116.898573821748954, 32.217230836916286 ], [ -116.898440737405991, 32.217457918092741 ], [ -116.898231197334766, 32.2179906685299 ], [ -116.898145821488669, 32.218448342862303 ], [ -116.898113813389728, 32.219023804603061 ], [ -116.898142142607639, 32.219935760628189 ], [ -116.898336441960041, 32.220636752280186 ], [ -116.89857752467843, 32.221038039440288 ], [ -116.898844117004757, 32.221376416796787 ], [ -116.900159772210756, 32.22255442931575 ], [ -116.900837589386668, 32.223086345595796 ], [ -116.901581066070165, 32.223519263766477 ], [ -116.9021172521674, 32.223755790502047 ], [ -116.903042563443677, 32.224037920085649 ], [ -116.903668306898851, 32.224219722189211 ], [ -116.904781992923674, 32.224439169221441 ], [ -116.905614404711955, 32.224579753381683 ], [ -116.906768437591339, 32.224685957367541 ], [ -116.909104481696843, 32.22486898826314 ], [ -116.901526644325202, 32.230235223704973 ], [ -116.90002956725526, 32.229513331760842 ], [ -116.898001334277907, 32.228785402176527 ], [ -116.895956699422669, 32.228150577490617 ], [ -116.893547071354547, 32.227573677536149 ], [ -116.891754622865975, 32.227090985869168 ], [ -116.886059122587866, 32.22555723438839 ], [ -116.884427703157414, 32.225045905690912 ], [ -116.88339380535345, 32.224632145143282 ], [ -116.88178008323564, 32.223845273380419 ], [ -116.881058800752228, 32.223427333854353 ], [ -116.880500615756389, 32.223010639369392 ], [ -116.880094180900784, 32.222542142099506 ], [ -116.879594742019265, 32.221922119735261 ], [ -116.879425284698939, 32.221656019794949 ], [ -116.879313778115346, 32.221397682477864 ], [ -116.879245837288565, 32.221129802434689 ], [ -116.879219901462349, 32.220621848438199 ], [ -116.879220842164287, 32.219910355492217 ], [ -116.879302315803386, 32.219486983427331 ], [ -116.879424764921737, 32.219166728157404 ], [ -116.87985284111322, 32.218425715870616 ], [ -116.88066062657802, 32.217420898135217 ], [ -116.8816499450583, 32.21649915515583 ], [ -116.885242029154441, 32.21345183685942 ] ], [ [ -116.890289239274281, 32.215928470791575 ], [ -116.890435648509651, 32.215781439130517 ], [ -116.890582052891091, 32.21563441169662 ], [ -116.890777479294272, 32.215255695138339 ], [ -116.8907638479171, 32.215008731160879 ], [ -116.890504812059007, 32.214234948983069 ], [ -116.890419480832023, 32.21405388950609 ], [ -116.890280301776599, 32.213982727738674 ], [ -116.89016680532734, 32.21406212751284 ], [ -116.889776331860645, 32.214503820896908 ], [ -116.889579207772883, 32.214638965163317 ], [ -116.889049769797467, 32.214827944426006 ], [ -116.888490553018912, 32.214962768691549 ], [ -116.886410301911596, 32.215402949858969 ], [ -116.886136661763715, 32.215467824648364 ], [ -116.885863021228985, 32.215532698843901 ], [ -116.885389306887589, 32.215698032685467 ], [ -116.885259853855743, 32.215804476807094 ], [ -116.885129454510206, 32.216135883188954 ], [ -116.885149196780063, 32.216257685741802 ], [ -116.885371727995221, 32.216494691125163 ], [ -116.885669888620171, 32.216711467094626 ], [ -116.885724080924192, 32.216747380022618 ], [ -116.886838784996314, 32.217486076551623 ], [ -116.887153361011173, 32.217669645811405 ], [ -116.887166827227588, 32.217677503920612 ], [ -116.887528783127976, 32.217796228148693 ], [ -116.890289239274281, 32.215928470791575 ] ] ] ] } },
{ "type": "Feature", "properties": { "fid": 12.0, "cat": 9, "VULNERABIL": 2, "CLAVE_ACUI": "0203", "NOM_ACUIF": "EL DESCANSO" }, "geometry": { "type": "MultiPolygon", "coordinates": [ [ [ [ -116.720177461843747, 32.219500336512567 ], [ -116.72045273944461, 32.219267526164117 ], [ -116.720954404026273, 32.219173913618704 ], [ -116.721395792129243, 32.219272990976158 ], [ -116.722953950899154, 32.219828954109815 ], [ -116.723359239634917, 32.220024357856964 ], [ -116.723692418283889, 32.220380289966592 ], [ -116.723763097972238, 32.220693361718759 ], [ -116.723759756183696, 32.221798431538254 ], [ -116.723818422570943, 32.222136848605494 ], [ -116.724095542682861, 32.222611058170045 ], [ -116.724432763933692, 32.222950082605969 ], [ -116.7257293603504, 32.224057979368943 ], [ -116.726078531181741, 32.224397025302409 ], [ -116.726411381639309, 32.224871350441397 ], [ -116.726537710048902, 32.225209912554241 ], [ -116.726794393791735, 32.226315544070829 ], [ -116.726861033193131, 32.226653976764474 ], [ -116.726915329940056, 32.22712769819767 ], [ -116.726926256968795, 32.22746601043572 ], [ -116.726922952581816, 32.228571079363029 ], [ -116.726886094329501, 32.228919436933623 ], [ -116.726717392468473, 32.229440036617603 ], [ -116.726513246798291, 32.229835392598524 ], [ -116.726121254341606, 32.230497589189731 ], [ -116.725729256172329, 32.231159784464651 ], [ -116.725584797919808, 32.231555268323476 ], [ -116.725694664656018, 32.232076470915473 ], [ -116.725996078417509, 32.232425561738644 ], [ -116.727292827592123, 32.233533441643281 ], [ -116.727630070530694, 32.233882605831695 ], [ -116.727907104540975, 32.234404166513862 ], [ -116.727965622705057, 32.234800089741846 ], [ -116.727961671392038, 32.236126171005296 ], [ -116.727936733433282, 32.236481319891148 ], [ -116.727824307262864, 32.236812600190582 ], [ -116.727688636282011, 32.236930708770046 ], [ -116.727167930193275, 32.237150600599918 ], [ -116.727032318553455, 32.237248411306197 ], [ -116.726920171483428, 32.237484970686801 ], [ -116.726895573155929, 32.237725102066712 ], [ -116.726892928315763, 32.238609155784793 ], [ -116.726904028362469, 32.23888995882745 ], [ -116.72695847379066, 32.239316319353698 ], [ -116.727025153274909, 32.239644602746047 ], [ -116.727281882190411, 32.240750231000625 ], [ -116.727372505200094, 32.241058268539518 ], [ -116.727538680675337, 32.241390149074114 ], [ -116.72768545114117, 32.241556226503675 ], [ -116.728204206835485, 32.24199937281778 ], [ -116.728285412439291, 32.242129788278767 ], [ -116.728215512714527, 32.242212518482766 ], [ -116.728145612862775, 32.242295248646286 ], [ -116.727864692830593, 32.242401204649134 ], [ -116.726693527483505, 32.242730199097792 ], [ -116.726335066664603, 32.242810612365687 ], [ -116.725833419638974, 32.242856885251513 ], [ -116.725475242482602, 32.242842576111919 ], [ -116.72430539822048, 32.242729521885252 ], [ -116.724001245966278, 32.242618914411402 ], [ -116.723751712565274, 32.24221580668631 ], [ -116.723699388340037, 32.241750546556936 ], [ -116.723704740406134, 32.239982440350971 ], [ -116.723658525945325, 32.23947152453195 ], [ -116.723437508474404, 32.238855356955895 ], [ -116.723167985117541, 32.238486032930901 ], [ -116.722131240377465, 32.237378683454189 ], [ -116.721862159516036, 32.236867276581201 ], [ -116.721643181965561, 32.235588065480613 ], [ -116.721599436155273, 32.234272028192237 ], [ -116.721614260777102, 32.229409730035918 ], [ -116.721594425917147, 32.228083595478019 ], [ -116.721487042589587, 32.226757267761471 ], [ -116.721353473723823, 32.226188648519489 ], [ -116.720837542897698, 32.224861418590208 ], [ -116.720679452680031, 32.224505866216553 ], [ -116.720457621108963, 32.224173852890921 ], [ -116.720298808395199, 32.224055100523344 ], [ -116.719779514534522, 32.223832935083664 ], [ -116.719706077911681, 32.223773571735919 ], [ -116.719632641384337, 32.223714208345484 ], [ -116.719466526397795, 32.223382316826012 ], [ -116.719376092689174, 32.223026912898618 ], [ -116.719120187398715, 32.221700252437593 ], [ -116.719089554764508, 32.221309460754675 ], [ -116.719202502578881, 32.220812427064416 ], [ -116.719394487875704, 32.220493170376024 ], [ -116.720177461843747, 32.219500336512567 ] ] ] ] } },
{ "type": "Feature", "properties": { "fid": 13.0, "cat": 16, "VULNERABIL": 4, "CLAVE_ACUI": "0203", "NOM_ACUIF": "EL DESCANSO" }, "geometry": { "type": "MultiPolygon", "coordinates": [ [ [ [ -116.89016680532734, 32.21406212751284 ], [ -116.890280301776599, 32.213982727738674 ], [ -116.890419480832023, 32.21405388950609 ], [ -116.890504812059007, 32.214234948983069 ], [ -116.8907638479171, 32.215008731160879 ], [ -116.890777479294272, 32.215255695138339 ], [ -116.890582052891091, 32.21563441169662 ], [ -116.890435648509651, 32.215781439130517 ], [ -116.890289239274281, 32.215928470791575 ], [ -116.887528783127976, 32.217796228148693 ], [ -116.887166827227588, 32.217677503920612 ], [ -116.887153361011173, 32.217669645811405 ], [ -116.886838784996314, 32.217486076551623 ], [ -116.885724080924192, 32.216747380022618 ], [ -116.885669888620171, 32.216711467094626 ], [ -116.885371727995221, 32.216494691125163 ], [ -116.885149196780063, 32.216257685741795 ], [ -116.885129454510206, 32.216135883188954 ], [ -116.885259853855743, 32.215804476807094 ], [ -116.885389306887589, 32.215698032685467 ], [ -116.885863021228985, 32.215532698843901 ], [ -116.886136661763715, 32.215467824648364 ], [ -116.886410301911596, 32.215402949858969 ], [ -116.888490553018912, 32.214962768691549 ], [ -116.889049769797467, 32.214827944426006 ], [ -116.889579207772883, 32.214638965163317 ], [ -116.889776331860645, 32.214503820896908 ], [ -116.89016680532734, 32.21406212751284 ] ] ] ] } },
{ "type": "Feature", "properties": { "fid": 14.0, "cat": 11, "VULNERABIL": 2, "CLAVE_ACUI": "0203", "NOM_ACUIF": "EL DESCANSO" }, "geometry": { "type": "MultiPolygon", "coordinates": [ [ [ [ -116.718398125739483, 32.215401960181062 ], [ -116.718202174013442, 32.215719515350685 ], [ -116.717678834931604, 32.216823425464042 ], [ -116.717458877636759, 32.217181520465388 ], [ -116.716955753273879, 32.217748720565972 ], [ -116.716456958752559, 32.21820091004934 ], [ -116.715544657945145, 32.218972414595143 ], [ -116.714632341729086, 32.219743912375037 ], [ -116.714169432932209, 32.22016572762108 ], [ -116.713833844421984, 32.22059121230663 ], [ -116.713817344637192, 32.220777233804483 ], [ -116.714075937568794, 32.221219849680047 ], [ -116.714125111815804, 32.221400945399928 ], [ -116.714095997025524, 32.221803443194524 ], [ -116.714005229381144, 32.222197344263726 ], [ -116.713610754363728, 32.223633050490768 ], [ -116.713448449542867, 32.223996342955168 ], [ -116.713085508443498, 32.224256001904159 ], [ -116.712729327041416, 32.22426365014325 ], [ -116.711430093446481, 32.224039675532495 ], [ -116.711044147750727, 32.224021879427035 ], [ -116.71054229656977, 32.224162812419046 ], [ -116.710211310523547, 32.224381941620194 ], [ -116.709168548864639, 32.225263607415535 ], [ -116.708819534838796, 32.225518211719333 ], [ -116.708233574220444, 32.225824703038235 ], [ -116.708179286165617, 32.2258450848189 ], [ -116.707745501646585, 32.226007942697059 ], [ -116.706942368169464, 32.226268397657385 ], [ -116.706053780388331, 32.22655655761006 ], [ -116.70561325717479, 32.226800791464669 ], [ -116.705431235582225, 32.227096369724457 ], [ -116.705249212805739, 32.227391947701364 ], [ -116.705169673715758, 32.227992223984906 ], [ -116.705162538065352, 32.230202357287801 ], [ -116.705094803701314, 32.230843255363808 ], [ -116.70478584289063, 32.231623979683654 ], [ -116.704412202197432, 32.232098401166773 ], [ -116.702977482299531, 32.23353163405659 ], [ -116.702461014420436, 32.233863632870786 ], [ -116.70148557679174, 32.233979733447661 ], [ -116.700608568284167, 32.233813589267726 ], [ -116.697491338315629, 32.232922107229442 ], [ -116.696572610686857, 32.232740612256563 ], [ -116.695402407111672, 32.232785157705898 ], [ -116.694649408788251, 32.233030290854899 ], [ -116.692305586710972, 32.234129679967303 ], [ -116.691642029293433, 32.234400384383221 ], [ -116.69093510311555, 32.234554328549727 ], [ -116.690889282583754, 32.234564306528156 ], [ -116.690477491173866, 32.234527778457952 ], [ -116.690430731134697, 32.234514402399576 ], [ -116.689308551505363, 32.234193388177225 ], [ -116.689082255424111, 32.234030453529066 ], [ -116.689195140815258, 32.233604488578521 ], [ -116.689582697831014, 32.233158901155619 ], [ -116.691278375171137, 32.231505443908368 ], [ -116.691569236048878, 32.231292211831608 ], [ -116.691940647408202, 32.231019925210006 ], [ -116.693335599864596, 32.230407633383507 ], [ -116.694666113279652, 32.230018440505873 ], [ -116.699480158507725, 32.228814396420901 ], [ -116.700745010138249, 32.228409760162869 ], [ -116.701833672198674, 32.227725607841371 ], [ -116.702124058417809, 32.227152893848555 ], [ -116.702390534669519, 32.225164385904563 ], [ -116.702406231730492, 32.224621469907113 ], [ -116.702213017074428, 32.224076370426431 ], [ -116.701921300538174, 32.223840572350149 ], [ -116.70075317863369, 32.223285274475522 ], [ -116.700305841804152, 32.223181036679492 ], [ -116.699386382368473, 32.223249893971911 ], [ -116.698520201612865, 32.2234524956001 ], [ -116.695397448954495, 32.224329069505977 ], [ -116.694298268270643, 32.224586897981531 ], [ -116.692291538554286, 32.224913551356799 ], [ -116.691407749474152, 32.225017957762276 ], [ -116.690523961017348, 32.225122357667885 ], [ -116.684281951954972, 32.225769965625105 ], [ -116.682514481604841, 32.225938065462095 ], [ -116.680508344350272, 32.226075091586587 ], [ -116.679409909190554, 32.226102756285307 ], [ -116.676290019930121, 32.226094804691925 ], [ -116.675460358784434, 32.226077454230271 ], [ -116.674708496036743, 32.226004481044662 ], [ -116.674464067631661, 32.225917588325345 ], [ -116.674075265454135, 32.225585064139679 ], [ -116.673974279140168, 32.225447797058024 ], [ -116.673891810466031, 32.225139742215198 ], [ -116.673874984218472, 32.22483693100579 ], [ -116.673878929940287, 32.22373186679323 ], [ -116.673897917947016, 32.22342914791578 ], [ -116.673982582702905, 32.223121524105494 ], [ -116.674084544201648, 32.222984780338166 ], [ -116.674475698406226, 32.222654265856733 ], [ -116.674756582297476, 32.222558576752597 ], [ -116.674791420632204, 32.22255418105054 ], [ -116.675676219921158, 32.222442538765279 ], [ -116.676709103276721, 32.222372452667742 ], [ -116.680609579066811, 32.222161353123958 ], [ -116.681672353444554, 32.222076078987122 ], [ -116.682731499134505, 32.221889300298663 ], [ -116.683181790136373, 32.221707753966967 ], [ -116.684223995909932, 32.221047316532101 ], [ -116.68465054461339, 32.220825110995484 ], [ -116.685598903868339, 32.220448590212911 ], [ -116.686527150446821, 32.220132904316891 ], [ -116.689910564358158, 32.219036173208359 ], [ -116.691029746033664, 32.218731070938361 ], [ -116.692869220997807, 32.218404030545685 ], [ -116.694377862566554, 32.218241925393507 ], [ -116.699578694180332, 32.217812361278312 ], [ -116.700950235400597, 32.217588959723479 ], [ -116.702149948368017, 32.216976106347595 ], [ -116.7024922842362, 32.216324014899016 ], [ -116.702665299390191, 32.215267185048774 ], [ -116.702865348435594, 32.214045189977618 ], [ -116.702956349345371, 32.213613721427983 ], [ -116.703024102192472, 32.21321668954851 ], [ -116.703067516320715, 32.212893753942758 ], [ -116.703088134861133, 32.212629265805504 ], [ -116.703093829329816, 32.212398226787641 ], [ -116.70426654854684, 32.212459261364579 ], [ -116.706192081524861, 32.212559476393864 ], [ -116.706776263913099, 32.212589880368149 ], [ -116.706554528784878, 32.212962271800365 ], [ -116.706311329819385, 32.213411206913257 ], [ -116.70608154862559, 32.213767045900759 ], [ -116.705619128606486, 32.214483149201797 ], [ -116.705414985817455, 32.214859865954573 ], [ -116.705313383975962, 32.215519292720366 ], [ -116.70534355224811, 32.21603525372042 ], [ -116.705597817631713, 32.217803969489069 ], [ -116.705693290049325, 32.218199257732067 ], [ -116.705717583789976, 32.218299841519638 ], [ -116.706022223530283, 32.218845195341373 ], [ -116.706337657575517, 32.219128399651993 ], [ -116.707505053249861, 32.219904659875212 ], [ -116.70784463043428, 32.220106726963117 ], [ -116.70826191715102, 32.220273452182703 ], [ -116.708518462743413, 32.220309564311592 ], [ -116.709298387903232, 32.220311360272277 ], [ -116.709555192164856, 32.220266281585211 ], [ -116.709973685674555, 32.220054120487333 ], [ -116.710314727859753, 32.219796111536134 ], [ -116.711487750258385, 32.218804224921257 ], [ -116.711817038184392, 32.218485293004079 ], [ -116.712180705830789, 32.217988836791939 ], [ -116.712370943678991, 32.217598546031141 ], [ -116.71289504575364, 32.216273644491302 ], [ -116.713091277325773, 32.215873217457464 ], [ -116.713482929058742, 32.215329460265551 ], [ -116.713846198886813, 32.21495309067889 ], [ -116.715149788170407, 32.213740448825021 ], [ -116.715854174178602, 32.213062343345158 ], [ -116.720947684265468, 32.213327436837915 ], [ -116.721128811994205, 32.213336863693151 ], [ -116.721111608269936, 32.213493757802958 ], [ -116.721088276304812, 32.213600637965179 ], [ -116.721066366649822, 32.213667275619073 ], [ -116.721008681568151, 32.213756158268595 ], [ -116.720954822004813, 32.213812067344541 ], [ -116.720860315366792, 32.213892000330809 ], [ -116.720694987198073, 32.214005812697792 ], [ -116.720453834266337, 32.214141320839055 ], [ -116.719152007564659, 32.214801482440642 ], [ -116.718789233810341, 32.215023946885871 ], [ -116.718398125739483, 32.215401960181062 ] ] ] ] } },
{ "type": "Feature", "properties": { "fid": 15.0, "cat": 15, "VULNERABIL": 1, "CLAVE_ACUI": "0203", "NOM_ACUIF": "EL DESCANSO" }, "geometry": { "type": "MultiPolygon", "coordinates": [ [ [ [ -116.715149788170407, 32.213740448825021 ], [ -116.713846198886813, 32.21495309067889 ], [ -116.713482929058742, 32.215329460265551 ], [ -116.713091277325773, 32.215873217457464 ], [ -116.71289504575364, 32.216273644491302 ], [ -116.712370943678991, 32.217598546031134 ], [ -116.712180705830789, 32.217988836791932 ], [ -116.711817038184392, 32.218485293004079 ], [ -116.711487750258385, 32.218804224921257 ], [ -116.710314727859753, 32.219796111536134 ], [ -116.709973685674555, 32.220054120487333 ], [ -116.709555192164856, 32.220266281585211 ], [ -116.709298387903232, 32.220311360272277 ], [ -116.708518462743413, 32.220309564311592 ], [ -116.70826191715102, 32.220273452182703 ], [ -116.70784463043428, 32.220106726963117 ], [ -116.707505053249861, 32.219904659875212 ], [ -116.706337657575517, 32.219128399651993 ], [ -116.706022223530283, 32.218845195341373 ], [ -116.705717583789976, 32.218299841519638 ], [ -116.705693290049325, 32.218199257732067 ], [ -116.705597817631713, 32.217803969489069 ], [ -116.70534355224811, 32.21603525372042 ], [ -116.705313383975962, 32.215519292720366 ], [ -116.705414985817455, 32.214859865954573 ], [ -116.705619128606486, 32.214483149201797 ], [ -116.70608154862559, 32.213767045900759 ], [ -116.706311329819385, 32.213411206913257 ], [ -116.706554528784878, 32.212962271800365 ], [ -116.706776263913099, 32.212589880368149 ], [ -116.715854174178602, 32.213062343345158 ], [ -116.715149788170407, 32.213740448825021 ] ] ] ] } },
{ "type": "Feature", "properties": { "fid": 16.0, "cat": 18, "VULNERABIL": 4, "CLAVE_ACUI": "0203", "NOM_ACUIF": "EL DESCANSO" }, "geometry": null },
{ "type": "Feature", "properties": { "fid": 17.0, "cat": 19, "VULNERABIL": 4, "CLAVE_ACUI": "0203", "NOM_ACUIF": "EL DESCANSO" }, "geometry": null },
{ "type": "Feature", "properties": { "fid": 18.0, "cat": 14, "VULNERABIL": 4, "CLAVE_ACUI": "0203", "NOM_ACUIF": "EL DESCANSO" }, "geometry": { "type": "MultiPolygon", "coordinates": [ [ [ [ -116.901241078131591, 32.213431089233637 ], [ -116.901842551537584, 32.212822633047004 ], [ -116.904145971033614, 32.210593613504166 ], [ -116.904527282359282, 32.210228771476217 ], [ -116.904796696500327, 32.209957318567135 ], [ -116.905010663059485, 32.209636623664814 ], [ -116.905120655225531, 32.209411184212051 ], [ -116.905157773410735, 32.209277021684265 ], [ -116.905157125709891, 32.209117415115955 ], [ -116.905109637176523, 32.208930694599815 ], [ -116.904996697496017, 32.208679175429971 ], [ -116.90491994201453, 32.208573508367728 ], [ -116.904763269925766, 32.208331481118464 ], [ -116.904634169522978, 32.208110302739058 ], [ -116.904511124685868, 32.207838932893743 ], [ -116.904451563030051, 32.207683724282823 ], [ -116.904219182509479, 32.207052586607631 ], [ -116.905196051385289, 32.207078433212395 ], [ -116.905591045561749, 32.20707872470738 ], [ -116.905591266921789, 32.207078728924948 ], [ -116.908185366357486, 32.20708063924571 ], [ -116.908853648288513, 32.207097794077505 ], [ -116.909167155324411, 32.207121370083016 ], [ -116.909582910085746, 32.207170432172603 ], [ -116.909888390494658, 32.207224558903022 ], [ -116.910146629665121, 32.207312086223105 ], [ -116.910926022232431, 32.207754671501384 ], [ -116.911176569178167, 32.207869866756454 ], [ -116.91156639159756, 32.20796486153305 ], [ -116.911872733403243, 32.207985372893788 ], [ -116.912912505605973, 32.207986093338882 ], [ -116.913080171817711, 32.207976036845572 ], [ -116.913167636637738, 32.207960956704191 ], [ -116.913219844318149, 32.207942786427211 ], [ -116.913275565847059, 32.207916976231246 ], [ -116.91345064062439, 32.207812165975852 ], [ -116.913526650531097, 32.207762177814267 ], [ -116.913606043593845, 32.207704471660051 ], [ -116.913690673992249, 32.207652301218175 ], [ -116.913744028409951, 32.207625564474938 ], [ -116.913845252427564, 32.207590472460048 ], [ -116.913954172105804, 32.207562142905807 ], [ -116.914085251062389, 32.207541006524423 ], [ -116.914241845375699, 32.207515589861963 ], [ -116.914339327126896, 32.207504081415046 ], [ -116.914405693365197, 32.207504759561068 ], [ -116.914500904805692, 32.207514641911793 ], [ -116.914575619171686, 32.20752865931783 ], [ -116.914666561482576, 32.207552795023972 ], [ -116.914731794981208, 32.207569528300361 ], [ -116.914804320650347, 32.207580431492183 ], [ -116.914860307044421, 32.20758461629427 ], [ -116.914934204360563, 32.207583519258812 ], [ -116.915123968001012, 32.207572323230963 ], [ -116.915333972503547, 32.207549891939578 ], [ -116.915648424859768, 32.207515019662203 ], [ -116.915777109726861, 32.207487316392047 ], [ -116.915976223443806, 32.207425821434569 ], [ -116.916107918597987, 32.207376858820091 ], [ -116.916253450801463, 32.207336382355123 ], [ -116.916353617651481, 32.207313376904736 ], [ -116.916515556575249, 32.207281249800332 ], [ -116.916807331162303, 32.207229100158173 ], [ -116.916891077582918, 32.208051218215871 ], [ -116.916624235368189, 32.20872442876685 ], [ -116.916807354399921, 32.209708594916997 ], [ -116.917599282284101, 32.210458588772021 ], [ -116.917684768459722, 32.211135245781989 ], [ -116.917860253878729, 32.211737951089887 ], [ -116.918653739493621, 32.212786957027419 ], [ -116.918569089759757, 32.213846141279852 ], [ -116.918394349500133, 32.214450129525311 ], [ -116.918836869047112, 32.21490024660303 ], [ -116.918836874609667, 32.215495325655276 ], [ -116.919271768329537, 32.216395566282188 ], [ -116.919662442256936, 32.21739238255465 ], [ -116.909104481696843, 32.22486898826314 ], [ -116.906768437591339, 32.224685957367541 ], [ -116.905614404711955, 32.224579753381683 ], [ -116.904781992923674, 32.224439169221441 ], [ -116.903668306898851, 32.224219722189211 ], [ -116.903042563443677, 32.224037920085649 ], [ -116.9021172521674, 32.223755790502047 ], [ -116.901581066070165, 32.223519263766477 ], [ -116.900837589386668, 32.223086345595796 ], [ -116.900159772210756, 32.22255442931575 ], [ -116.898844117004757, 32.221376416796787 ], [ -116.89857752467843, 32.221038039440288 ], [ -116.898336441960041, 32.220636752280186 ], [ -116.898142142607639, 32.219935760628189 ], [ -116.898113813389728, 32.219023804603061 ], [ -116.898145821488669, 32.218448342862303 ], [ -116.898231197334766, 32.2179906685299 ], [ -116.898440737405991, 32.217457918092741 ], [ -116.898573821748954, 32.217230836916286 ], [ -116.899381486913342, 32.215970978163405 ], [ -116.899694697453242, 32.215482408075701 ], [ -116.900125277937548, 32.214830416371065 ], [ -116.900515983985997, 32.214283014864563 ], [ -116.901241078131591, 32.213431089233637 ] ] ] ] } },
{ "type": "Feature", "properties": { "fid": 19.0, "cat": 20, "VULNERABIL": 5, "CLAVE_ACUI": "0203", "NOM_ACUIF": "EL DESCANSO" }, "geometry": { "type": "MultiPolygon", "coordinates": [ [ [ [ -116.903637232872811, 32.206948905590487 ], [ -116.903732344513614, 32.206735176057457 ], [ -116.903911723798956, 32.206329840163477 ], [ -116.904433102425131, 32.204893625099039 ], [ -116.904628506636286, 32.204459068303251 ], [ -116.905018961479087, 32.203924861889838 ], [ -116.905381374780674, 32.203571619126429 ], [ -116.906682155171694, 32.202467500530481 ], [ -116.906925217845611, 32.202098941996674 ], [ -116.906925608196801, 32.201715545288614 ], [ -116.906759141406184, 32.201099732134736 ], [ -116.906278227740486, 32.200635917232837 ], [ -116.904318807183543, 32.199175444732369 ], [ -116.904200472153946, 32.199087240133814 ], [ -116.903719517929574, 32.198684307842498 ], [ -116.903552778451498, 32.198352654981875 ], [ -116.903795529499178, 32.198281798644672 ], [ -116.9050951065053, 32.198282780632333 ], [ -116.905373650322247, 32.198222096869834 ], [ -116.905373944420987, 32.197937932091328 ], [ -116.905095822842043, 32.19759266616029 ], [ -116.903797650914257, 32.196265581718286 ], [ -116.903459953176181, 32.195839076750637 ], [ -116.903182181896625, 32.195175812485097 ], [ -116.903123061411748, 32.194654797800283 ], [ -116.903124934555578, 32.192886660310698 ], [ -116.903137388302696, 32.192396146527024 ], [ -116.903193632351332, 32.191875219951392 ], [ -116.903261527043, 32.191621552906099 ], [ -116.90352212298211, 32.190958699606377 ], [ -116.903667570401922, 32.190720314582208 ], [ -116.904085728891403, 32.190270703944748 ], [ -116.904537647994459, 32.189866786808288 ], [ -116.906228415596416, 32.188431437690049 ], [ -116.906817531333203, 32.188047911443306 ], [ -116.907875997753308, 32.187693479992177 ], [ -116.908798979006903, 32.18757067222348 ], [ -116.912674309046167, 32.187311661252096 ], [ -116.913523867693797, 32.187329947645225 ], [ -116.913556746869162, 32.187901741647444 ], [ -116.913290210830056, 32.189481100325381 ], [ -116.913640907246958, 32.191135316188031 ], [ -116.914434412223628, 32.194217507648361 ], [ -116.91434287853447, 32.196475756871813 ], [ -116.914609928784259, 32.198127478316323 ], [ -116.915838306371313, 32.199859292192613 ], [ -116.916097726094591, 32.20136605899927 ], [ -116.916196931957785, 32.2036929679848 ], [ -116.916013458787646, 32.204745738057504 ], [ -116.915396657876613, 32.205793451267333 ], [ -116.916456362929054, 32.206401335614743 ], [ -116.916807331162303, 32.207229100158173 ], [ -116.916515556575249, 32.207281249800332 ], [ -116.916353617651481, 32.207313376904736 ], [ -116.916253450801463, 32.207336382355123 ], [ -116.916107918597987, 32.207376858820091 ], [ -116.915976223443806, 32.207425821434569 ], [ -116.915777109726861, 32.207487316392047 ], [ -116.915648424859768, 32.207515019662203 ], [ -116.915333972503547, 32.207549891939578 ], [ -116.915123968001012, 32.207572323230963 ], [ -116.914934204360563, 32.207583519258812 ], [ -116.914860307044421, 32.20758461629427 ], [ -116.914804320650347, 32.207580431492183 ], [ -116.914731794981208, 32.207569528300361 ], [ -116.914666561482576, 32.207552795023972 ], [ -116.914575619171686, 32.20752865931783 ], [ -116.914500904805692, 32.207514641911793 ], [ -116.914405693365197, 32.207504759561068 ], [ -116.914339327126896, 32.207504081415046 ], [ -116.914241845375699, 32.207515589861963 ], [ -116.914085251062389, 32.207541006524423 ], [ -116.913954172105804, 32.207562142905807 ], [ -116.913845252427564, 32.207590472460048 ], [ -116.913744028409951, 32.207625564474938 ], [ -116.913690673992249, 32.207652301218175 ], [ -116.913606043593845, 32.207704471660051 ], [ -116.913526650531097, 32.207762177814267 ], [ -116.91345064062439, 32.207812165975852 ], [ -116.913275565847059, 32.207916976231246 ], [ -116.913219844318149, 32.207942786427211 ], [ -116.913167636637738, 32.207960956704191 ], [ -116.913080171817711, 32.207976036845572 ], [ -116.912912505605973, 32.207986093338882 ], [ -116.911872733403243, 32.207985372893788 ], [ -116.91156639159756, 32.20796486153305 ], [ -116.911176569178167, 32.207869866756454 ], [ -116.910926022232431, 32.207754671501384 ], [ -116.910146629665121, 32.207312086223105 ], [ -116.909888390494658, 32.207224558903022 ], [ -116.909582910085746, 32.207170432172603 ], [ -116.909167155324411, 32.207121370083016 ], [ -116.908853648288513, 32.207097794077505 ], [ -116.908185366357486, 32.20708063924571 ], [ -116.905196051385289, 32.207078433212395 ], [ -116.904219182509479, 32.207052586607631 ], [ -116.903564827011323, 32.207035273262555 ], [ -116.903637232872811, 32.206948905590487 ] ], [ [ -116.906408567685503, 32.19897049157025 ], [ -116.906352822594727, 32.199017811127575 ], [ -116.906368677015081, 32.199075332442476 ], [ -116.906498409816194, 32.199296445618359 ], [ -116.906550074657261, 32.199348919007221 ], [ -116.906605759379985, 32.199360800339221 ], [ -116.90666144410271, 32.199372681671228 ], [ -116.906768878382209, 32.199354154885775 ], [ -116.90715886830327, 32.199243933216707 ], [ -116.907254382759618, 32.199210174143786 ], [ -116.907310127502342, 32.199162854189801 ], [ -116.907294248462563, 32.199129013388223 ], [ -116.9071644017599, 32.199018409534965 ], [ -116.907112712693205, 32.198989616790072 ], [ -116.907001343595809, 32.198965854522712 ], [ -116.906893933934725, 32.198960701111851 ], [ -116.9065040579152, 32.198960413458281 ], [ -116.906408567685503, 32.19897049157025 ] ] ] ] } },
{ "type": "Feature", "properties": { "fid": 20.0, "cat": 17, "VULNERABIL": 4, "CLAVE_ACUI": "0203", "NOM_ACUIF": "EL DESCANSO" }, "geometry": { "type": "MultiPolygon", "coordinates": [ [ [ [ -116.890914507038303, 32.212092302608532 ], [ -116.890895585639441, 32.211950166838761 ], [ -116.890892143232534, 32.211768262040792 ], [ -116.890903877953974, 32.211503905560029 ], [ -116.890906136018643, 32.21105722904008 ], [ -116.890914770854195, 32.210737403277129 ], [ -116.890931105008718, 32.210437419811655 ], [ -116.890957430160867, 32.210179262787769 ], [ -116.890951398599242, 32.209948156566185 ], [ -116.89091478851978, 32.209747366710232 ], [ -116.890820251991173, 32.209599170157979 ], [ -116.89073243866288, 32.209550083234227 ], [ -116.890602037283827, 32.2095155969918 ], [ -116.890494675927414, 32.209520747898274 ], [ -116.890385123486524, 32.209545542235396 ], [ -116.890253271312247, 32.209610283471775 ], [ -116.889968578853598, 32.20982621799758 ], [ -116.889362172264171, 32.210272614070441 ], [ -116.889121409204833, 32.210450951665628 ], [ -116.888899702456584, 32.210596065537516 ], [ -116.888643315533145, 32.210751072837731 ], [ -116.888469170733202, 32.210842916387286 ], [ -116.88832071901696, 32.210934125820174 ], [ -116.888150945983625, 32.21104819056049 ], [ -116.887970571128633, 32.211179479815129 ], [ -116.88780166884672, 32.211305236872036 ], [ -116.887740061635, 32.211360110095441 ], [ -116.887669845156125, 32.211443632168915 ], [ -116.887609907461098, 32.211514595807174 ], [ -116.887572454705236, 32.21155074318829 ], [ -116.8875194977999, 32.211588193421733 ], [ -116.887478277710869, 32.211602685514627 ], [ -116.887431005019508, 32.21160767798451 ], [ -116.887371231007293, 32.211596725733521 ], [ -116.887308982437787, 32.211574302768639 ], [ -116.887245867581015, 32.211545588868773 ], [ -116.887222970710368, 32.211530604801709 ], [ -116.887202401263465, 32.211503255648338 ], [ -116.887194682718885, 32.211457344448839 ], [ -116.887202151865026, 32.211368616811107 ], [ -116.887210689820776, 32.211318663827221 ], [ -116.887230013898815, 32.211237520410933 ], [ -116.887275080245132, 32.211159411302937 ], [ -116.887325612254017, 32.211101988565581 ], [ -116.88764508017519, 32.21085512699014 ], [ -116.888051675711225, 32.210574382453352 ], [ -116.888310310063872, 32.210421049229993 ], [ -116.888458044245752, 32.210308751200486 ], [ -116.888561378787699, 32.210218717853415 ], [ -116.888676829285956, 32.210079829300469 ], [ -116.888819894542124, 32.209870647167186 ], [ -116.888933288129422, 32.209661214551446 ], [ -116.889049108180714, 32.209470725446259 ], [ -116.889208422379298, 32.209230497739206 ], [ -116.890033526031772, 32.207986307067635 ], [ -116.890362297784947, 32.207546814180958 ], [ -116.890633473724662, 32.2071644079953 ], [ -116.890787772834258, 32.206904260673355 ], [ -116.890913646308974, 32.207296955650982 ], [ -116.891035796520271, 32.207564849423299 ], [ -116.89113627627637, 32.207679612515435 ], [ -116.891200370903903, 32.207722163172356 ], [ -116.891295308797297, 32.207747861002296 ], [ -116.891393414909686, 32.20775721471982 ], [ -116.891506748906721, 32.207727256615755 ], [ -116.891714301319297, 32.207624658615664 ], [ -116.892754846816359, 32.206962494901816 ], [ -116.893085290390687, 32.206780097533688 ], [ -116.893598758769599, 32.206591087621383 ], [ -116.89397285458432, 32.20650344617134 ], [ -116.894622828733617, 32.206393481087623 ], [ -116.895272801328247, 32.2062835126575 ], [ -116.895652868045957, 32.206190796806474 ], [ -116.896126568423881, 32.205978063391242 ], [ -116.896423216019869, 32.205766874736923 ], [ -116.897333863077066, 32.204994058124583 ], [ -116.897570860123977, 32.204752372075916 ], [ -116.897766207711626, 32.204397324322457 ], [ -116.897808279503266, 32.20413179966058 ], [ -116.897809024893846, 32.203465047925896 ], [ -116.897635253417519, 32.202925924573911 ], [ -116.89745660461432, 32.202614531258341 ], [ -116.897215718670935, 32.202311793927173 ], [ -116.896863809405133, 32.201981755049871 ], [ -116.895687195047842, 32.200979324445278 ], [ -116.895364907289462, 32.200708584097491 ], [ -116.895109220535616, 32.200498349395147 ], [ -116.894572522672533, 32.200081829521245 ], [ -116.893918478558419, 32.199713029966489 ], [ -116.893999013497194, 32.199257283627176 ], [ -116.894031672600775, 32.198551829697976 ], [ -116.893967184273009, 32.197671780627338 ], [ -116.89396662681277, 32.197663584151194 ], [ -116.893711638288011, 32.193914272566325 ], [ -116.893502274116784, 32.192647193388154 ], [ -116.892780795392795, 32.190491664026446 ], [ -116.891959498373623, 32.188679411129307 ], [ -116.890403944103738, 32.185528572545202 ], [ -116.888848496721096, 32.182377713495782 ], [ -116.88823405068382, 32.18099226145209 ], [ -116.887616786010113, 32.179888286028152 ], [ -116.88719469949794, 32.179228154589389 ], [ -116.891658643243574, 32.178118060043118 ], [ -116.901045951624894, 32.1757836220591 ], [ -116.907728089565722, 32.174121906475698 ], [ -116.907735457820706, 32.174209984806879 ], [ -116.908345838198116, 32.175793038221876 ], [ -116.908345847521488, 32.176777207090282 ], [ -116.910733931838351, 32.179706792139172 ], [ -116.911969946135613, 32.182109978428379 ], [ -116.912320918111092, 32.183319204068503 ], [ -116.912320923244053, 32.183863773929453 ], [ -116.912320930875239, 32.184673389348596 ], [ -116.912229381518486, 32.185264654898141 ], [ -116.913114415882049, 32.185718580758916 ], [ -116.913465382117195, 32.186321283677159 ], [ -116.913523867693797, 32.187329947645225 ], [ -116.912674309046167, 32.187311661252096 ], [ -116.908798979006903, 32.18757067222348 ], [ -116.907875997753308, 32.187693479992177 ], [ -116.906817531333203, 32.188047911443306 ], [ -116.906228415596416, 32.188431437690049 ], [ -116.904537647994459, 32.189866786808288 ], [ -116.904085728891403, 32.190270703944748 ], [ -116.903667570401922, 32.190720314582208 ], [ -116.90352212298211, 32.190958699606377 ], [ -116.903261527043, 32.191621552906099 ], [ -116.903193632351332, 32.191875219951392 ], [ -116.903137388302696, 32.192396146527024 ], [ -116.903124934555578, 32.192886660310698 ], [ -116.903123061411748, 32.194654797800283 ], [ -116.903182181896625, 32.195175812485097 ], [ -116.903459953176181, 32.195839076750637 ], [ -116.903797650914257, 32.196265581718286 ], [ -116.905095822842043, 32.19759266616029 ], [ -116.905373944420987, 32.197937932091328 ], [ -116.905373650322247, 32.198222096869834 ], [ -116.9050951065053, 32.198282780632333 ], [ -116.903795529499178, 32.198281798644672 ], [ -116.903552778451498, 32.198352654981875 ], [ -116.90355714623017, 32.198361342704231 ], [ -116.903552767745722, 32.198362803722986 ], [ -116.903719517929574, 32.198684307842498 ], [ -116.904200472153946, 32.199087240133814 ], [ -116.904318807183543, 32.199175444732369 ], [ -116.906278227740486, 32.200635917232837 ], [ -116.906759141406184, 32.201099732134736 ], [ -116.906925608196801, 32.201715545288614 ], [ -116.906925217845611, 32.202098941996674 ], [ -116.906682155171694, 32.202467500530481 ], [ -116.905381374780674, 32.203571619126429 ], [ -116.905018961479087, 32.203924861889838 ], [ -116.904628506636286, 32.204459068303251 ], [ -116.904433102425131, 32.204893625099039 ], [ -116.903911723798956, 32.206329840163477 ], [ -116.903732344513614, 32.206735176057457 ], [ -116.903637232872811, 32.206948905590487 ], [ -116.903564827011323, 32.207035273262555 ], [ -116.903428626188258, 32.207172835427393 ], [ -116.903336133619618, 32.207239008597824 ], [ -116.903156069001739, 32.207321173801311 ], [ -116.90290081144758, 32.207400721613148 ], [ -116.902707201101919, 32.207437470209072 ], [ -116.90233968293218, 32.207485243047238 ], [ -116.901858255751108, 32.207574064036287 ], [ -116.901242769244291, 32.207727558541912 ], [ -116.898698704377068, 32.208417537977255 ], [ -116.897872813963602, 32.208687506434366 ], [ -116.896897593033557, 32.209065600928994 ], [ -116.896465590400155, 32.209335880737115 ], [ -116.895424791715939, 32.210219091302314 ], [ -116.895106210798431, 32.210459013980568 ], [ -116.894660309349362, 32.21069544691985 ], [ -116.89434188904039, 32.210793285592324 ], [ -116.893301827418611, 32.211013428882069 ], [ -116.893007289562135, 32.21110113561042 ], [ -116.892672843375436, 32.211290295049686 ], [ -116.892489600821747, 32.21147281644545 ], [ -116.891968911341664, 32.212135422708116 ], [ -116.891815525505379, 32.21230274551904 ], [ -116.89162041869929, 32.21242098020997 ], [ -116.891442997109237, 32.212466987865156 ], [ -116.891179194053109, 32.212435525115339 ], [ -116.891041525767278, 32.212347598186064 ], [ -116.890967684048007, 32.212255258936956 ], [ -116.890914507038303, 32.212092302608532 ] ] ] ] } },
{ "type": "Feature", "properties": { "fid": 21.0, "cat": 21, "VULNERABIL": 3, "CLAVE_ACUI": "0203", "NOM_ACUIF": "EL DESCANSO" }, "geometry": { "type": "MultiPolygon", "coordinates": [ [ [ [ -116.896423216019869, 32.205766874736923 ], [ -116.896126568423881, 32.205978063391242 ], [ -116.895652868045957, 32.206190796806474 ], [ -116.895272801328247, 32.2062835126575 ], [ -116.894622828733617, 32.206393481087623 ], [ -116.89397285458432, 32.20650344617134 ], [ -116.8935868227979, 32.20659107757659 ], [ -116.893085290390687, 32.206780097533688 ], [ -116.892754846816359, 32.206962494901816 ], [ -116.891714301319297, 32.207624658615664 ], [ -116.891506748906721, 32.207727256615755 ], [ -116.891393414909686, 32.20775721471982 ], [ -116.891295308797297, 32.207747861002296 ], [ -116.891200370903903, 32.207722163172356 ], [ -116.89113627627637, 32.207679612515435 ], [ -116.891035796520271, 32.207564849423299 ], [ -116.890913646308974, 32.207296955650982 ], [ -116.890787772834258, 32.206904260673355 ], [ -116.891014805245064, 32.206434400507383 ], [ -116.891322231243336, 32.2055348105851 ], [ -116.891723179662463, 32.204608236598297 ], [ -116.89328677864853, 32.201183802101291 ], [ -116.893506921320053, 32.200787272300026 ], [ -116.893753694061729, 32.200313895697398 ], [ -116.893918478558419, 32.199713029966489 ], [ -116.894572522672533, 32.200081829521245 ], [ -116.895109220535616, 32.200498349395147 ], [ -116.895364907289462, 32.200708584097491 ], [ -116.895687195047842, 32.200979324445278 ], [ -116.896863809405133, 32.201981755049871 ], [ -116.897215718670935, 32.202311793927173 ], [ -116.89745660461432, 32.202614531258341 ], [ -116.897635253417519, 32.202925924573911 ], [ -116.897809024893846, 32.203465047925896 ], [ -116.897808279503266, 32.20413179966058 ], [ -116.897766207711626, 32.204397324322457 ], [ -116.897570860123977, 32.204752372075916 ], [ -116.897333863077066, 32.204994058124583 ], [ -116.896423216019869, 32.205766874736923 ] ] ] ] } },
{ "type": "Feature", "properties": { "fid": 22.0, "cat": 22, "VULNERABIL": 4, "CLAVE_ACUI": "0203", "NOM_ACUIF": "EL DESCANSO" }, "geometry": { "type": "MultiPolygon", "coordinates": [ [ [ [ -116.906368677015081, 32.199075332442476 ], [ -116.906352822594727, 32.199017811127575 ], [ -116.906408567685503, 32.19897049157025 ], [ -116.9065040579152, 32.198960413458281 ], [ -116.906893933934725, 32.198960701111851 ], [ -116.907001343595809, 32.198965854522712 ], [ -116.907112712693205, 32.198989616790072 ], [ -116.9071644017599, 32.199018409534972 ], [ -116.907294248462563, 32.199129013388223 ], [ -116.907310127502342, 32.199162854189801 ], [ -116.907254382759618, 32.199210174143779 ], [ -116.90715886830327, 32.199243933216707 ], [ -116.906768878382209, 32.199354154885775 ], [ -116.90666144410271, 32.199372681671228 ], [ -116.906550074657261, 32.199348919007214 ], [ -116.906498409816194, 32.199296445618359 ], [ -116.906368677015081, 32.199075332442476 ] ] ] ] } }
]
}
