{
"type": "FeatureCollection",
"name": "0315",
"crs": { "type": "name", "properties": { "name": "urn:ogc:def:crs:EPSG::32612" } },
"features": [
{ "type": "Feature", "properties": { "vulnerabil": 2.0, "fid": 14.0, "cat": 16 }, "geometry": { "type": "MultiPolygon", "coordinates": [ [ [ [ 589012.35851821990218, 2559806.494355984032154 ], [ 588981.131519755232148, 2560065.415246378164738 ], [ 588918.80316933488939, 2560431.636835271958262 ], [ 588875.380133456899785, 2560640.43778018746525 ], [ 588796.731038456084207, 2560993.68148859962821 ], [ 588762.086993823875673, 2561171.492851538583636 ], [ 588721.09895912266802, 2561365.526620515156537 ], [ 588687.458300770726055, 2561637.526524930726737 ], [ 588631.208672404289246, 2561771.497051568701863 ], [ 588584.530916216550395, 2562003.508376601617783 ], [ 588509.408573108376004, 2562159.540269412100315 ], [ 588415.860686897300184, 2562393.807760315947235 ], [ 588368.708135311608203, 2562706.695742439012975 ], [ 588318.766489854315296, 2562831.624393346253783 ], [ 588268.267759450944141, 2563050.732345358468592 ], [ 588250.494415657827631, 2563150.722395959775895 ], [ 588248.104236298473552, 2563158.732783827465028 ], [ 588240.679443539353088, 2563225.630330747459084 ], [ 588206.677445834036916, 2563296.804941408801824 ], [ 588168.02151252317708, 2563362.672832671087235 ], [ 588143.421105646644719, 2563428.835294846910983 ], [ 588087.632514080731198, 2563618.770971717312932 ], [ 588006.736010677064769, 2563696.848748750519007 ], [ 587971.727059868862852, 2563806.662287809420377 ], [ 587921.234326530247927, 2563893.789340426679701 ], [ 587905.330455893883482, 2564031.313691017217934 ], [ 587927.792350000236183, 2564035.668923425953835 ], [ 587978.785296563175507, 2564046.618883075192571 ], [ 588016.044, 2564057.728500000201166 ], [ 588055.044, 2564073.728500000201166 ], [ 588136.044, 2564109.728500000201166 ], [ 588172.044, 2564130.728500000201166 ], [ 588199.044, 2564157.728500000201166 ], [ 588226.220070396433584, 2564095.228243058547378 ], [ 588246.044, 2564032.728500000201166 ], [ 588285.541110826772638, 2563871.921951761469245 ], [ 588317.056528476416133, 2563714.653588994406164 ], [ 588339.65556304785423, 2563579.802800582256168 ], [ 588380.328972395858727, 2563315.077962312847376 ], [ 588430.044, 2563073.728500000201166 ], [ 588496.044, 2562809.728500000201166 ], [ 588554.044, 2562604.728500000201166 ], [ 588662.044, 2562253.728500000201166 ], [ 588718.776893306523561, 2562069.823878715746105 ], [ 588790.044, 2561796.728500000201166 ], [ 588806.044, 2561613.728500000201166 ], [ 588860.044, 2561244.728500000201166 ], [ 588894.044, 2561054.728500000201166 ], [ 588942.044, 2560853.728500000201166 ], [ 588988.044, 2560708.728500000201166 ], [ 589078.044, 2560474.728500000201166 ], [ 589118.044, 2560348.728500000201166 ], [ 589148.044, 2560204.728500000201166 ], [ 589158.044, 2560090.728500000201166 ], [ 589158.044, 2559892.728500000201166 ], [ 589154.044, 2559797.728500000201166 ], [ 589142.044, 2559710.728500000201166 ], [ 589100.617037200951017, 2559621.044658640399575 ], [ 589033.451707970583811, 2559532.113513154909015 ], [ 589012.35851821990218, 2559806.494355984032154 ] ] ] ] } },
{ "type": "Feature", "properties": { "vulnerabil": 3.0, "fid": 13.0, "cat": 15 }, "geometry": { "type": "MultiPolygon", "coordinates": [ [ [ [ 589162.044, 2563981.728500000201166 ], [ 589158.044, 2563828.728500000201166 ], [ 589158.044, 2563504.728500000201166 ], [ 589162.044, 2563340.728500000201166 ], [ 589174.044, 2563172.728500000201166 ], [ 589190.044, 2563056.728500000201166 ], [ 589226.044, 2562876.728500000201166 ], [ 589230.044, 2562784.728500000201166 ], [ 589206.044, 2562688.728500000201166 ], [ 589162.044, 2562620.728500000201166 ], [ 589054.044, 2562512.728500000201166 ], [ 588998.044, 2562445.728500000201166 ], [ 588938.044, 2562352.728500000201166 ], [ 588894.044, 2562264.728500000201166 ], [ 588822.044, 2562093.728500000201166 ], [ 588796.044, 2561976.728500000201166 ], [ 588790.044, 2561796.728500000201166 ], [ 588718.776893306523561, 2562069.823878715746105 ], [ 588662.044, 2562253.728500000201166 ], [ 588554.044, 2562604.728500000201166 ], [ 588496.044, 2562809.728500000201166 ], [ 588430.044, 2563073.728500000201166 ], [ 588380.328972395858727, 2563315.077962312847376 ], [ 588339.65556304785423, 2563579.802800582256168 ], [ 588317.056528476416133, 2563714.653588994406164 ], [ 588285.541110826772638, 2563871.921951761469245 ], [ 588246.044, 2564032.728500000201166 ], [ 588226.220070396433584, 2564095.228243058547378 ], [ 588199.044, 2564157.728500000201166 ], [ 588208.044, 2564181.728500000201166 ], [ 588212.604970614542253, 2564203.161918375641108 ], [ 588263.72519694454968, 2564190.606287440285087 ], [ 588353.738497020560317, 2564181.111664505209774 ], [ 588470.50226811459288, 2564184.445446372963488 ], [ 588579.757984700612724, 2564196.621723769698292 ], [ 588666.734767791815102, 2564212.758806962054223 ], [ 588759.649094492429867, 2564235.704118543770164 ], [ 588912.521788319339976, 2564273.277672923635691 ], [ 589045.198637214256451, 2564294.266854658722878 ], [ 589151.230962631758302, 2564299.013053614646196 ], [ 589191.938358625280671, 2564291.598529484122992 ], [ 589226.044, 2564269.728500000201166 ], [ 589190.044, 2564188.728500000201166 ], [ 589174.044, 2564116.728500000201166 ], [ 589162.044, 2563981.728500000201166 ] ] ] ] } },
{ "type": "Feature", "properties": { "vulnerabil": 1.0, "fid": 16.0, "cat": 14 }, "geometry": { "type": "MultiPolygon", "coordinates": [ [ [ [ 589837.594005235354416, 2556759.380593010224402 ], [ 589818.428552139666863, 2556828.31830374756828 ], [ 589818.608184185344726, 2556928.414368858095258 ], [ 589759.412994541693479, 2557028.153649091720581 ], [ 589757.315839920542203, 2557126.622594000771642 ], [ 589757.315840323572047, 2557126.622594684362411 ], [ 589790.044, 2557188.728500000201166 ], [ 589822.044, 2557245.728500000201166 ], [ 589894.044, 2557362.728500000201166 ], [ 589926.044, 2557426.728500000201166 ], [ 589950.044, 2557501.728500000201166 ], [ 589958.044, 2557562.728500000201166 ], [ 589958.044, 2557670.728500000201166 ], [ 589954.044, 2557726.728500000201166 ], [ 589942.044, 2557786.728500000201166 ], [ 589926.044, 2557830.728500000201166 ], [ 589890.044, 2557902.728500000201166 ], [ 589860.044, 2557945.728500000201166 ], [ 589825.205853165243752, 2557982.246466475073248 ], [ 589798.044, 2558010.728500000201166 ], [ 589730.044, 2558070.728500000201166 ], [ 589586.044, 2558187.728500000201166 ], [ 589508.967911315266974, 2558258.670935511123389 ], [ 589461.083489502198063, 2558301.151393642183393 ], [ 589425.278872435097583, 2558421.567706731613725 ], [ 589396.3841478707036, 2558550.420293340459466 ], [ 589371.678762174444273, 2558762.499299976043403 ], [ 589300.19725268217735, 2558828.379356003366411 ], [ 589246.330372238531709, 2558953.281637609470636 ], [ 589178.831551522249356, 2559006.515666276216507 ], [ 589112.265667124302126, 2559034.415144280996174 ], [ 589065.711151881376281, 2559112.481702410615981 ], [ 589033.451707970583811, 2559532.113513154909015 ], [ 589100.617037200951017, 2559621.044658640399575 ], [ 589142.044, 2559710.728500000201166 ], [ 589154.044, 2559797.728500000201166 ], [ 589158.044, 2559892.728500000201166 ], [ 589158.044, 2560090.728500000201166 ], [ 589148.044, 2560204.728500000201166 ], [ 589118.044, 2560348.728500000201166 ], [ 589078.044, 2560474.728500000201166 ], [ 588988.044, 2560708.728500000201166 ], [ 588942.044, 2560853.728500000201166 ], [ 588894.044, 2561054.728500000201166 ], [ 588860.044, 2561244.728500000201166 ], [ 588806.044, 2561613.728500000201166 ], [ 588790.044, 2561796.728500000201166 ], [ 588796.044, 2561976.728500000201166 ], [ 588822.044, 2562093.728500000201166 ], [ 588894.044, 2562264.728500000201166 ], [ 588938.044, 2562352.728500000201166 ], [ 588998.044, 2562445.728500000201166 ], [ 589054.044, 2562512.728500000201166 ], [ 589162.044, 2562620.728500000201166 ], [ 589206.044, 2562688.728500000201166 ], [ 589230.044, 2562784.728500000201166 ], [ 589226.044, 2562876.728500000201166 ], [ 589190.044, 2563056.728500000201166 ], [ 589174.044, 2563172.728500000201166 ], [ 589162.044, 2563340.728500000201166 ], [ 589158.044, 2563504.728500000201166 ], [ 589158.044, 2563828.728500000201166 ], [ 589162.044, 2563981.728500000201166 ], [ 589174.044, 2564116.728500000201166 ], [ 589190.044, 2564188.728500000201166 ], [ 589226.044, 2564269.728500000201166 ], [ 589242.359580407151952, 2564296.918718364089727 ], [ 589257.1636461566668, 2564330.091062799096107 ], [ 589321.527409929549322, 2564337.982583947945386 ], [ 589375.636241867556237, 2564341.728431051596999 ], [ 589445.044, 2564341.728500000201166 ], [ 589491.044, 2564345.728500000201166 ], [ 589530.044, 2564357.728500000201166 ], [ 589549.044, 2564373.728500000201166 ], [ 589567.044, 2564409.728500000201166 ], [ 589579.044, 2564425.728500000201166 ], [ 589597.044, 2564437.728500000201166 ], [ 589615.044, 2564441.728500000201166 ], [ 589651.044, 2564441.728500000201166 ], [ 589697.044, 2564433.728500000201166 ], [ 589799.044, 2564409.728500000201166 ], [ 589842.808705882402137, 2564398.434382352977991 ], [ 589948.475421446259134, 2564380.823263092432171 ], [ 590193.044, 2564305.728500000201166 ], [ 590334.044, 2564254.728500000201166 ], [ 590487.044, 2564173.728500000201166 ], [ 590601.044, 2564089.728500000201166 ], [ 590790.044, 2563918.728500000201166 ], [ 590890.044, 2563814.728500000201166 ], [ 591001.044, 2563673.728500000201166 ], [ 591086.044, 2563542.728500000201166 ], [ 591230.044, 2563290.728500000201166 ], [ 591300.044, 2563158.728500000201166 ], [ 591366.044, 2563014.728500000201166 ], [ 591406.044, 2562906.728500000201166 ], [ 591460.044, 2562726.728500000201166 ], [ 591488.044, 2562644.728500000201166 ], [ 591518.044, 2562578.728500000201166 ], [ 591540.044, 2562550.728500000201166 ], [ 591576.044, 2562532.728500000201166 ], [ 591604.044, 2562488.728500000201166 ], [ 591652.044, 2562374.728500000201166 ], [ 591704.044, 2562228.728500000201166 ], [ 591812.044, 2561904.728500000201166 ], [ 591862.044, 2561738.728500000201166 ], [ 591904.044, 2561564.728500000201166 ], [ 591924.044, 2561440.728500000201166 ], [ 591942.044, 2561242.728500000201166 ], [ 591954.044, 2561148.728500000201166 ], [ 591972.044, 2561064.728500000201166 ], [ 591990.044, 2561018.728500000201166 ], [ 592026.044, 2560964.728500000201166 ], [ 592044.044, 2560910.728500000201166 ], [ 592062.044, 2560802.728500000201166 ], [ 592074.044, 2560676.728500000201166 ], [ 592092.044, 2560406.728500000201166 ], [ 592100.044, 2560246.728500000201166 ], [ 592106.044, 2560036.728500000201166 ], [ 592108.044, 2559846.728500000201166 ], [ 592108.044, 2559486.728500000201166 ], [ 592102.044, 2559290.728500000201166 ], [ 592084.044, 2559062.728500000201166 ], [ 592060.044, 2558878.728500000201166 ], [ 592028.733655172400177, 2558690.866431034635752 ], [ 592018.044, 2558564.728500000201166 ], [ 591978.044, 2558374.728500000201166 ], [ 591929.665621621767059, 2558258.620391892269254 ], [ 591916.044, 2558214.728500000201166 ], [ 591862.044, 2558090.728500000201166 ], [ 591754.044, 2557892.728500000201166 ], [ 591689.044, 2557787.728500000201166 ], [ 591602.044, 2557670.728500000201166 ], [ 591522.044, 2557580.728500000201166 ], [ 591369.044, 2557427.728500000201166 ], [ 591253.044, 2557337.728500000201166 ], [ 591151.377333333366551, 2557276.728500000201166 ], [ 591112.044, 2557246.728500000201166 ], [ 590945.044, 2557147.728500000201166 ], [ 590621.044, 2556985.728500000201166 ], [ 590460.044, 2556909.728500000201166 ], [ 590301.044, 2556843.728500000201166 ], [ 590197.044, 2556809.728500000201166 ], [ 590044.044, 2556773.728500000201166 ], [ 589994.284054286545143, 2556760.93998389551416 ], [ 589928.377155862981454, 2556750.305470493156463 ], [ 589860.931338320835494, 2556744.127750683110207 ], [ 589837.594005235354416, 2556759.380593010224402 ] ] ] ] } },
{ "type": "Feature", "properties": { "vulnerabil": 2.0, "fid": 11.0, "cat": 13 }, "geometry": { "type": "MultiPolygon", "coordinates": [ [ [ [ 591403.168433412676677, 2551152.990422763396055 ], [ 591325.126262347213924, 2551262.111991947516799 ], [ 591275.807681567734107, 2551275.114922785200179 ], [ 591257.774833937990479, 2551261.419754541479051 ], [ 591237.686666672118008, 2551246.163561787921935 ], [ 591187.188104083063081, 2551196.231105021201074 ], [ 591128.545993659761734, 2551200.097440611105412 ], [ 591096.196632435079664, 2551250.159244523849338 ], [ 591112.196868362487294, 2551318.042293646838516 ], [ 591159.641001074924134, 2551356.130430585704744 ], [ 591193.41971769311931, 2551328.039142535533756 ], [ 591293.729323614272289, 2551412.273800485767424 ], [ 591318.398910811287351, 2551468.17323990771547 ], [ 591293.19385328667704, 2551500.117484321817756 ], [ 591271.33411057444755, 2551496.183197086676955 ], [ 591235.857210296439007, 2551496.094715484883636 ], [ 591212.717595449998043, 2551496.037333625368774 ], [ 591190.680138465599157, 2551521.243387286085635 ], [ 591215.405144634889439, 2551568.062689700629562 ], [ 591256.504745284561068, 2551621.10570094967261 ], [ 591253.776706769946031, 2551684.017799301538616 ], [ 591203.3795715830056, 2551746.006041706074029 ], [ 591187.732067835400812, 2552262.011709040030837 ], [ 591131.367778885411099, 2552534.289625826757401 ], [ 591084.400791691965424, 2552675.277038536034524 ], [ 590975.496632423484698, 2553106.247345643583685 ], [ 590912.142555693048052, 2553115.154026101343334 ], [ 590868.094088245299645, 2553162.188807407394052 ], [ 590903.641824474558234, 2553228.078548246528953 ], [ 590996.333437110763043, 2553278.055946149863303 ], [ 591090.835324703482911, 2553287.288954732008278 ], [ 591159.739859438501298, 2553265.113103199284524 ], [ 591193.739977160817944, 2553328.249233051203191 ], [ 591184.400303068337962, 2553450.249193284660578 ], [ 591165.305049333022907, 2553506.092933255713433 ], [ 591137.15301062935032, 2553509.300175627227873 ], [ 591131.243671766016632, 2553453.092846025247127 ], [ 591078.39013596449513, 2553406.102341561578214 ], [ 590961.646725252037868, 2553456.284327430184931 ], [ 590943.618547106278129, 2553465.255213735625148 ], [ 590875.59306002734229, 2553600.202245862223208 ], [ 590812.383956868434325, 2553843.087146339006722 ], [ 590793.765593390678987, 2554104.665917377918959 ], [ 590839.16438417613972, 2554162.256586779840291 ], [ 590876.044, 2554226.728500000201166 ], [ 590892.044, 2554264.728500000201166 ], [ 590904.044, 2554333.728500000201166 ], [ 590908.044, 2554410.728500000201166 ], [ 590908.044, 2554572.728500000201166 ], [ 590904.044, 2554652.728500000201166 ], [ 590892.044, 2554730.728500000201166 ], [ 590876.044, 2554780.728500000201166 ], [ 590840.044, 2554852.728500000201166 ], [ 590814.044, 2554891.728500000201166 ], [ 590762.202871985384263, 2554947.995090164244175 ], [ 590732.044, 2554980.728500000201166 ], [ 590648.044, 2555060.728500000201166 ], [ 590596.036347926245071, 2555107.535386865958571 ], [ 590539.057462314143777, 2555154.005503091961145 ], [ 590486.39457210234832, 2555185.284698049537838 ], [ 590413.429297809256241, 2555217.006257948931307 ], [ 590318.290220940252766, 2555303.297803916037083 ], [ 590253.613578289630823, 2555662.320161031093448 ], [ 590268.191221536369994, 2555699.466144593898207 ], [ 590290.044, 2555747.728500000201166 ], [ 590326.044, 2555810.728500000201166 ], [ 590342.044, 2555850.728500000201166 ], [ 590354.044, 2555907.728500000201166 ], [ 590358.044, 2555962.728500000201166 ], [ 590358.044, 2556070.728500000201166 ], [ 590351.044, 2556127.728500000201166 ], [ 590330.044, 2556190.728500000201166 ], [ 590302.044, 2556238.728500000201166 ], [ 590239.044, 2556319.728500000201166 ], [ 590208.044, 2556355.728500000201166 ], [ 590171.320981345139444, 2556382.667618904262781 ], [ 590143.490353022119962, 2556395.863884144928306 ], [ 590108.866331707686186, 2556407.775846572592854 ], [ 590079.380717750755139, 2556414.718488876242191 ], [ 590078.929484321386553, 2556414.989228934049606 ], [ 590068.877673736657016, 2556496.386892516631633 ], [ 590065.222029085969552, 2556584.423172469716519 ], [ 590031.192175973556004, 2556656.438443906139582 ], [ 589950.496918474789709, 2556693.329839991871268 ], [ 589900.343776095542125, 2556718.368522029835731 ], [ 589860.931338320835494, 2556744.127750683110207 ], [ 589928.377155862981454, 2556750.305470493156463 ], [ 589994.284054286545143, 2556760.93998389551416 ], [ 590044.044, 2556773.728500000201166 ], [ 590197.044, 2556809.728500000201166 ], [ 590301.044, 2556843.728500000201166 ], [ 590460.044, 2556909.728500000201166 ], [ 590621.044, 2556985.728500000201166 ], [ 590945.044, 2557147.728500000201166 ], [ 591112.044, 2557246.728500000201166 ], [ 591151.377333333366551, 2557276.728500000201166 ], [ 591253.044, 2557337.728500000201166 ], [ 591369.044, 2557427.728500000201166 ], [ 591522.044, 2557580.728500000201166 ], [ 591602.044, 2557670.728500000201166 ], [ 591689.044, 2557787.728500000201166 ], [ 591754.044, 2557892.728500000201166 ], [ 591862.044, 2558090.728500000201166 ], [ 591916.044, 2558214.728500000201166 ], [ 591929.665621621767059, 2558258.620391892269254 ], [ 591978.044, 2558374.728500000201166 ], [ 592018.044, 2558564.728500000201166 ], [ 592028.733655172400177, 2558690.866431034635752 ], [ 592060.044, 2558878.728500000201166 ], [ 592084.044, 2559062.728500000201166 ], [ 592102.044, 2559290.728500000201166 ], [ 592108.044, 2559486.728500000201166 ], [ 592108.044, 2559846.728500000201166 ], [ 592106.044, 2560036.728500000201166 ], [ 592100.044, 2560246.728500000201166 ], [ 592092.044, 2560406.728500000201166 ], [ 592074.044, 2560676.728500000201166 ], [ 592062.044, 2560802.728500000201166 ], [ 592044.044, 2560910.728500000201166 ], [ 592026.044, 2560964.728500000201166 ], [ 591990.044, 2561018.728500000201166 ], [ 591972.044, 2561064.728500000201166 ], [ 591954.044, 2561148.728500000201166 ], [ 591942.044, 2561242.728500000201166 ], [ 591924.044, 2561440.728500000201166 ], [ 591904.044, 2561564.728500000201166 ], [ 591862.044, 2561738.728500000201166 ], [ 591812.044, 2561904.728500000201166 ], [ 591704.044, 2562228.728500000201166 ], [ 591652.044, 2562374.728500000201166 ], [ 591604.044, 2562488.728500000201166 ], [ 591576.044, 2562532.728500000201166 ], [ 591540.044, 2562550.728500000201166 ], [ 591518.044, 2562578.728500000201166 ], [ 591488.044, 2562644.728500000201166 ], [ 591460.044, 2562726.728500000201166 ], [ 591406.044, 2562906.728500000201166 ], [ 591366.044, 2563014.728500000201166 ], [ 591300.044, 2563158.728500000201166 ], [ 591230.044, 2563290.728500000201166 ], [ 591086.044, 2563542.728500000201166 ], [ 591001.044, 2563673.728500000201166 ], [ 590890.044, 2563814.728500000201166 ], [ 590790.044, 2563918.728500000201166 ], [ 590601.044, 2564089.728500000201166 ], [ 590487.044, 2564173.728500000201166 ], [ 590334.044, 2564254.728500000201166 ], [ 590193.044, 2564305.728500000201166 ], [ 589948.475421446259134, 2564380.823263092432171 ], [ 589842.808705882402137, 2564398.434382352977991 ], [ 589799.044, 2564409.728500000201166 ], [ 589697.044, 2564433.728500000201166 ], [ 589651.044, 2564441.728500000201166 ], [ 589615.044, 2564441.728500000201166 ], [ 589597.044, 2564437.728500000201166 ], [ 589579.044, 2564425.728500000201166 ], [ 589567.044, 2564409.728500000201166 ], [ 589549.044, 2564373.728500000201166 ], [ 589530.044, 2564357.728500000201166 ], [ 589491.044, 2564345.728500000201166 ], [ 589445.044, 2564341.728500000201166 ], [ 589375.636241867556237, 2564341.728431051596999 ], [ 589321.527409929549322, 2564337.982583947945386 ], [ 589257.1636461566668, 2564330.091062799096107 ], [ 589267.034777272376232, 2564372.313609409611672 ], [ 589279.144170357030816, 2564436.679164876230061 ], [ 589292.044, 2564494.728500000201166 ], [ 589313.044, 2564539.728500000201166 ], [ 589358.044, 2564593.728500000201166 ], [ 589412.044, 2564638.728500000201166 ], [ 589529.044, 2564719.728500000201166 ], [ 589603.044, 2564753.728500000201166 ], [ 589708.044, 2564774.728500000201166 ], [ 589809.044, 2564775.728500000201166 ], [ 590007.044, 2564757.728500000201166 ], [ 590111.044, 2564739.728500000201166 ], [ 590225.044, 2564703.728500000201166 ], [ 590311.044, 2564661.728500000201166 ], [ 590455.044, 2564571.728500000201166 ], [ 590534.044, 2564531.728500000201166 ], [ 590627.044, 2564501.728500000201166 ], [ 590670.84061016945634, 2564495.965788135770708 ], [ 590679.044, 2564493.728500000201166 ], [ 590761.302485237596557, 2564482.160900513641536 ], [ 590807.044, 2564475.728500000201166 ], [ 591059.044, 2564457.728500000201166 ], [ 591181.044, 2564453.728500000201166 ], [ 591214.087478260858916, 2564455.467630434781313 ], [ 591241.044, 2564453.728500000201166 ], [ 591310.044, 2564459.728500000201166 ], [ 591363.044, 2564473.728500000201166 ], [ 591453.044, 2564509.728500000201166 ], [ 591507.044, 2564511.728500000201166 ], [ 591579.044, 2564481.728500000201166 ], [ 591645.044, 2564429.728500000201166 ], [ 591771.044, 2564303.728500000201166 ], [ 591867.044, 2564241.728500000201166 ], [ 592029.044, 2564181.728500000201166 ], [ 592203.044, 2564143.728500000201166 ], [ 592563.044, 2564089.728500000201166 ], [ 592739.044, 2564057.728500000201166 ], [ 592887.044, 2564020.728500000201166 ], [ 592915.044, 2564009.728500000201166 ], [ 592951.044, 2563973.728500000201166 ], [ 592993.044, 2563951.728500000201166 ], [ 593083.044, 2563921.728500000201166 ], [ 593170.140774193569086, 2563899.14785483898595 ], [ 593233.044, 2563871.728500000201166 ], [ 593323.044, 2563841.728500000201166 ], [ 593395.044, 2563825.728500000201166 ], [ 593521.044, 2563807.728500000201166 ], [ 593581.044, 2563795.728500000201166 ], [ 593623.044, 2563781.728500000201166 ], [ 593665.044, 2563759.728500000201166 ], [ 593701.044, 2563723.728500000201166 ], [ 593734.044, 2563709.728500000201166 ], [ 593797.044, 2563703.728500000201166 ], [ 593869.044, 2563707.728500000201166 ], [ 594022.044, 2563725.728500000201166 ], [ 594090.044, 2563722.728500000201166 ], [ 594131.851345821167342, 2563716.478557239286602 ], [ 594169.044, 2563701.728500000201166 ], [ 594158.044, 2563653.728500000201166 ], [ 594158.044, 2563554.728500000201166 ], [ 594162.044, 2563500.728500000201166 ], [ 594174.044, 2563437.728500000201166 ], [ 594190.044, 2563386.728500000201166 ], [ 594226.044, 2563296.728500000201166 ], [ 594249.044, 2563249.728500000201166 ], [ 594282.044, 2563198.728500000201166 ], [ 594314.044, 2563160.728500000201166 ], [ 594377.044, 2563097.728500000201166 ], [ 594417.044, 2563065.728500000201166 ], [ 594474.044, 2563032.728500000201166 ], [ 594529.044, 2563009.728500000201166 ], [ 594608.044, 2562983.395166666712612 ], [ 594666.044, 2562944.728500000201166 ], [ 594766.044, 2562864.728500000201166 ], [ 594850.044, 2562768.728500000201166 ], [ 594890.044, 2562688.728500000201166 ], [ 594926.044, 2562544.728500000201166 ], [ 594938.044, 2562464.728500000201166 ], [ 594938.044, 2562368.728500000201166 ], [ 594926.044, 2562288.728500000201166 ], [ 594890.044, 2562144.728500000201166 ], [ 594882.044, 2562062.728500000201166 ], [ 594894.044, 2561960.728500000201166 ], [ 594922.044, 2561872.728500000201166 ], [ 594994.044, 2561710.728500000201166 ], [ 595030.044, 2561574.728500000201166 ], [ 595066.044, 2561328.728500000201166 ], [ 595090.044, 2561054.728500000201166 ], [ 595126.044, 2560478.728500000201166 ], [ 595148.044, 2560210.728500000201166 ], [ 595178.044, 2559982.728500000201166 ], [ 595206.044, 2559870.728500000201166 ], [ 595260.044, 2559762.728500000201166 ], [ 595282.044, 2559688.728500000201166 ], [ 595294.044, 2559574.728500000201166 ], [ 595292.044, 2559458.728500000201166 ], [ 595274.044, 2559224.728500000201166 ], [ 595277.044, 2559107.728500000201166 ], [ 595304.044, 2558990.728500000201166 ], [ 595346.044, 2558912.728500000201166 ], [ 595445.044, 2558795.728500000201166 ], [ 595499.044, 2558741.728500000201166 ], [ 595562.044, 2558696.728500000201166 ], [ 595613.044, 2558675.728500000201166 ], [ 595703.044, 2558657.728500000201166 ], [ 595752.044, 2558640.728500000201166 ], [ 595809.044, 2558607.728500000201166 ], [ 595855.044, 2558569.728500000201166 ], [ 595936.044, 2558488.728500000201166 ], [ 595974.044, 2558420.728500000201166 ], [ 596007.044, 2558297.728500000201166 ], [ 596024.044, 2558160.728500000201166 ], [ 596042.044, 2557872.728500000201166 ], [ 596056.044, 2557732.728500000201166 ], [ 596080.044, 2557600.728500000201166 ], [ 596106.044, 2557520.728500000201166 ], [ 596160.044, 2557412.728500000201166 ], [ 596184.044, 2557340.728500000201166 ], [ 596202.044, 2557232.728500000201166 ], [ 596208.044, 2557124.728500000201166 ], [ 596208.044, 2556908.728500000201166 ], [ 596216.044, 2556798.728500000201166 ], [ 596240.044, 2556684.728500000201166 ], [ 596272.044, 2556604.728500000201166 ], [ 596344.044, 2556478.728500000201166 ], [ 596374.044, 2556398.728500000201166 ], [ 596392.044, 2556284.728500000201166 ], [ 596392.044, 2556174.728500000201166 ], [ 596374.044, 2555958.728500000201166 ], [ 596373.044, 2555851.728500000201166 ], [ 596388.044, 2555746.728500000201166 ], [ 596414.044, 2555678.728500000201166 ], [ 596477.044, 2555579.728500000201166 ], [ 596515.044, 2555531.728500000201166 ], [ 596566.044, 2555486.728500000201166 ], [ 596613.044, 2555459.728500000201166 ], [ 596703.044, 2555423.728500000201166 ], [ 596752.044, 2555398.728500000201166 ], [ 596809.044, 2555359.728500000201166 ], [ 596855.044, 2555319.728500000201166 ], [ 596936.044, 2555238.728500000201166 ], [ 596976.044, 2555188.728500000201166 ], [ 597015.044, 2555119.728500000201166 ], [ 597040.044, 2555054.728500000201166 ], [ 597076.044, 2554928.728500000201166 ], [ 597092.044, 2554850.728500000201166 ], [ 597104.044, 2554742.728500000201166 ], [ 597108.044, 2554640.728500000201166 ], [ 597108.044, 2554442.728500000201166 ], [ 597123.044, 2554339.728500000201166 ], [ 597168.044, 2554228.728500000201166 ], [ 597228.044, 2554146.728500000201166 ], [ 597346.044, 2554028.728500000201166 ], [ 597440.044, 2553976.728500000201166 ], [ 597552.482815232127905, 2553917.724578461609781 ], [ 596828.395730806165375, 2552652.864071657881141 ], [ 591620.169356069527566, 2550794.201501844450831 ], [ 591606.12978419882711, 2550818.458682568278164 ], [ 591591.223751917597838, 2550853.462165538687259 ], [ 591574.044, 2550910.728500000201166 ], [ 591560.044, 2550943.728500000201166 ], [ 591536.044, 2550979.728500000201166 ], [ 591510.044, 2551006.728500000201166 ], [ 591483.044, 2551029.228500000201166 ], [ 591446.006427336018533, 2551065.298498187679797 ], [ 591422.912032072898, 2551096.520395635161549 ], [ 591407.26595562917646, 2551123.016576995141804 ], [ 591403.168433412676677, 2551152.990422763396055 ] ] ] ] } },
{ "type": "Feature", "properties": { "vulnerabil": 2.0, "fid": 15.0, "cat": 9 }, "geometry": { "type": "MultiPolygon", "coordinates": [ [ [ [ 597485.044, 2566289.728500000201166 ], [ 597356.044, 2566238.728500000201166 ], [ 597211.044, 2566209.728500000201166 ], [ 596905.044, 2566173.728500000201166 ], [ 596768.044, 2566146.728500000201166 ], [ 596663.044, 2566101.728500000201166 ], [ 596625.044, 2566053.728500000201166 ], [ 596616.044, 2565954.728500000201166 ], [ 596602.044, 2565902.728500000201166 ], [ 596569.044, 2565845.728500000201166 ], [ 596528.044, 2565802.728500000201166 ], [ 596438.044, 2565730.728500000201166 ], [ 596399.044, 2565691.728500000201166 ], [ 596372.044, 2565646.728500000201166 ], [ 596366.044, 2565610.728500000201166 ], [ 596375.044, 2565547.728500000201166 ], [ 596333.044, 2565515.728500000201166 ], [ 596198.044, 2565482.728500000201166 ], [ 596015.044, 2565459.728500000201166 ], [ 595601.044, 2565423.728500000201166 ], [ 595404.044, 2565394.728500000201166 ], [ 595227.044, 2565343.728500000201166 ], [ 595129.044, 2565287.728500000201166 ], [ 595012.044, 2565170.728500000201166 ], [ 594960.044, 2565112.728500000201166 ], [ 594921.044, 2565055.728500000201166 ], [ 594908.044, 2565018.728500000201166 ], [ 594908.044, 2564964.728500000201166 ], [ 594922.044, 2564924.728500000201166 ], [ 594964.044, 2564858.728500000201166 ], [ 595020.044, 2564788.728500000201166 ], [ 595146.044, 2564644.728500000201166 ], [ 595202.044, 2564562.728500000201166 ], [ 595244.044, 2564460.728500000201166 ], [ 595258.044, 2564372.728500000201166 ], [ 595258.044, 2564210.728500000201166 ], [ 595235.044, 2564139.728500000201166 ], [ 595166.044, 2564088.728500000201166 ], [ 595074.044, 2564074.728500000201166 ], [ 594867.044, 2564083.728500000201166 ], [ 594765.044, 2564077.728500000201166 ], [ 594666.044, 2564050.728500000201166 ], [ 594603.044, 2564011.728500000201166 ], [ 594513.044, 2563921.728500000201166 ], [ 594462.044, 2563877.728500000201166 ], [ 594399.044, 2563835.728500000201166 ], [ 594345.044, 2563809.728500000201166 ], [ 594246.044, 2563773.728500000201166 ], [ 594202.044, 2563746.728500000201166 ], [ 594183.935474746162072, 2563806.093461140524596 ], [ 594180.147686945507303, 2563841.747201056685299 ], [ 594181.627572047989815, 2563873.0556107070297 ], [ 594192.044, 2563962.728500000201166 ], [ 594194.044, 2564028.728500000201166 ], [ 594182.044, 2564109.728500000201166 ], [ 594160.044, 2564178.728500000201166 ], [ 594106.044, 2564304.728500000201166 ], [ 594078.044, 2564426.728500000201166 ], [ 594048.044, 2564666.728500000201166 ], [ 594026.044, 2564944.728500000201166 ], [ 593990.044, 2565538.728500000201166 ], [ 593965.044, 2565815.728500000201166 ], [ 593926.044, 2566052.728500000201166 ], [ 593886.044, 2566170.728500000201166 ], [ 593805.044, 2566287.728500000201166 ], [ 593757.044, 2566343.728500000201166 ], [ 593694.044, 2566394.728500000201166 ], [ 593637.044, 2566423.728500000201166 ], [ 593529.044, 2566459.728500000201166 ], [ 593472.044, 2566486.728500000201166 ], [ 593409.044, 2566531.728500000201166 ], [ 593361.044, 2566579.728500000201166 ], [ 593280.044, 2566678.728500000201166 ], [ 593246.044, 2566750.728500000201166 ], [ 593225.044, 2566867.728500000201166 ], [ 593224.044, 2566990.728500000201166 ], [ 593242.044, 2567242.728500000201166 ], [ 593244.044, 2567364.728500000201166 ], [ 593232.044, 2567478.728500000201166 ], [ 593210.044, 2567546.728500000201166 ], [ 593156.044, 2567636.728500000201166 ], [ 593132.044, 2567706.728500000201166 ], [ 593114.044, 2567826.728500000201166 ], [ 593108.044, 2567956.728500000201166 ], [ 593108.044, 2568226.728500000201166 ], [ 593104.044, 2568356.728500000201166 ], [ 593092.044, 2568476.728500000201166 ], [ 593076.044, 2568546.728500000201166 ], [ 593040.044, 2568636.728500000201166 ], [ 593024.044, 2568689.728500000201166 ], [ 593012.044, 2568758.728500000201166 ], [ 593008.044, 2568820.728500000201166 ], [ 593008.044, 2568937.728500000201166 ], [ 593001.044, 2568989.728500000201166 ], [ 593026.887274999869987, 2569009.930801057256758 ], [ 593068.044, 2569028.728500000201166 ], [ 593128.044, 2569041.728500000201166 ], [ 593263.044, 2569041.728500000201166 ], [ 593325.044, 2569047.728500000201166 ], [ 593376.044, 2569065.728500000201166 ], [ 593399.044, 2569089.728500000201166 ], [ 593417.044, 2569143.728500000201166 ], [ 593453.044, 2569171.728500000201166 ], [ 593543.044, 2569201.728500000201166 ], [ 593657.044, 2569223.728500000201166 ], [ 593909.044, 2569259.728500000201166 ], [ 594025.044, 2569279.728500000201166 ], [ 594121.044, 2569303.728500000201166 ], [ 594129.844000000040978, 2569307.728500000201166 ], [ 594145.044, 2569311.728500000201166 ], [ 594213.044, 2569339.728500000201166 ], [ 594303.044, 2569393.728500000201166 ], [ 594354.467580786556937, 2569414.96867467276752 ], [ 594457.044, 2569439.728500000201166 ], [ 594709.044, 2569493.728500000201166 ], [ 594825.044, 2569521.728500000201166 ], [ 594921.044, 2569551.728500000201166 ], [ 594965.044, 2569573.728500000201166 ], [ 594998.833473684033379, 2569607.517973684240133 ], [ 595001.044, 2569609.728500000201166 ], [ 595037.044, 2569629.728500000201166 ], [ 595109.044, 2569653.728500000201166 ], [ 595193.044, 2569673.728500000201166 ], [ 595373.044, 2569709.728500000201166 ], [ 595463.044, 2569731.728500000201166 ], [ 595553.044, 2569761.728500000201166 ], [ 595565.339081967249513, 2569767.466204918455333 ], [ 595647.044, 2569793.728500000201166 ], [ 595715.044, 2569823.728500000201166 ], [ 595738.522260869620368, 2569847.206760869827121 ], [ 595754.044, 2569848.728500000201166 ], [ 595817.044, 2569809.728500000201166 ], [ 595871.044, 2569739.728500000201166 ], [ 595970.044, 2569568.728500000201166 ], [ 596031.044, 2569475.728500000201166 ], [ 596115.044, 2569367.728500000201166 ], [ 596194.044, 2569280.728500000201166 ], [ 596347.044, 2569127.728500000201166 ], [ 596444.044, 2569042.728500000201166 ], [ 596582.044, 2568940.728500000201166 ], [ 596715.044, 2568855.728500000201166 ], [ 596976.044, 2568702.728500000201166 ], [ 597092.044, 2568602.728500000201166 ], [ 597179.044, 2568455.728500000201166 ], [ 597208.044, 2568310.728500000201166 ], [ 597208.044, 2568022.728500000201166 ], [ 597223.044, 2567877.728500000201166 ], [ 597268.044, 2567730.728500000201166 ], [ 597328.044, 2567630.728500000201166 ], [ 597463.044, 2567477.728500000201166 ], [ 597530.044, 2567406.728500000201166 ], [ 597596.044, 2567346.728500000201166 ], [ 597639.044, 2567317.728500000201166 ], [ 597702.044, 2567290.728500000201166 ], [ 597730.044, 2567268.728500000201166 ], [ 597751.044, 2567229.728500000201166 ], [ 597758.044, 2567186.728500000201166 ], [ 597758.044, 2567096.728500000201166 ], [ 597754.044, 2567052.728500000201166 ], [ 597742.044, 2567010.728500000201166 ], [ 597726.044, 2566984.728500000201166 ], [ 597690.044, 2566948.728500000201166 ], [ 597675.82177777774632, 2566916.728500000201166 ], [ 597674.044, 2566912.728500000201166 ], [ 597662.044, 2566840.728500000201166 ], [ 597658.044, 2566756.728500000201166 ], [ 597658.044, 2566576.728500000201166 ], [ 597651.245923076872714, 2566492.23811538470909 ], [ 597636.044, 2566462.728500000201166 ], [ 597555.044, 2566345.728500000201166 ], [ 597485.044, 2566289.728500000201166 ] ] ] ] } },
{ "type": "Feature", "properties": { "vulnerabil": 3.0, "fid": 7.0, "cat": 7 }, "geometry": { "type": "MultiPolygon", "coordinates": [ [ [ [ 591241.044, 2564453.728500000201166 ], [ 591214.087478260858916, 2564455.467630434781313 ], [ 591181.044, 2564453.728500000201166 ], [ 591059.044, 2564457.728500000201166 ], [ 590961.721277137752622, 2564464.680123061873019 ], [ 590963.233056090772152, 2564512.299242222681642 ], [ 590962.434690520633012, 2564583.065039709210396 ], [ 590958.044, 2564675.728500000201166 ], [ 590958.044, 2564882.728500000201166 ], [ 590952.044, 2564986.728500000201166 ], [ 590934.044, 2565091.728500000201166 ], [ 590910.044, 2565162.728500000201166 ], [ 590856.044, 2565270.728500000201166 ], [ 590834.044, 2565344.728500000201166 ], [ 590822.044, 2565458.728500000201166 ], [ 590824.044, 2565574.728500000201166 ], [ 590842.044, 2565808.728500000201166 ], [ 590837.044, 2565927.728500000201166 ], [ 590804.044, 2566050.728500000201166 ], [ 590754.044, 2566136.728500000201166 ], [ 590637.044, 2566271.728500000201166 ], [ 590572.044, 2566340.728500000201166 ], [ 590494.044, 2566412.728500000201166 ], [ 590429.044, 2566463.728500000201166 ], [ 590312.044, 2566544.728500000201166 ], [ 590256.044, 2566592.728500000201166 ], [ 590205.044, 2566655.728500000201166 ], [ 590176.044, 2566712.728500000201166 ], [ 590140.044, 2566820.728500000201166 ], [ 590128.044, 2566884.728500000201166 ], [ 590128.044, 2566968.728500000201166 ], [ 590140.044, 2567044.728500000201166 ], [ 590176.044, 2567188.728500000201166 ], [ 590184.044, 2567268.728500000201166 ], [ 590172.044, 2567364.728500000201166 ], [ 590144.044, 2567444.728500000201166 ], [ 590072.044, 2567588.728500000201166 ], [ 590036.044, 2567713.728500000201166 ], [ 590000.044, 2567944.728500000201166 ], [ 589976.044, 2568204.728500000201166 ], [ 589938.038785830955021, 2568753.716366591397673 ], [ 589930.869255121331662, 2568946.503235244192183 ], [ 589918.718497214722447, 2569110.484675858635455 ], [ 589895.044, 2569257.728500000201166 ], [ 589999.080328871961683, 2569272.590832696296275 ], [ 590021.044, 2569275.728500000201166 ], [ 590080.044, 2569286.728500000201166 ], [ 590131.044, 2569301.728500000201166 ], [ 590157.044, 2569315.728500000201166 ], [ 590184.044, 2569342.728500000201166 ], [ 590196.044, 2569370.728500000201166 ], [ 590205.044, 2569427.728500000201166 ], [ 590208.044, 2569494.728500000201166 ], [ 590208.044, 2569638.728500000201166 ], [ 590204.044, 2569706.728500000201166 ], [ 590192.044, 2569766.728500000201166 ], [ 590176.044, 2569798.728500000201166 ], [ 590140.044, 2569834.728500000201166 ], [ 590127.044, 2569853.728500000201166 ], [ 590124.044, 2569874.728500000201166 ], [ 590132.044, 2569890.728500000201166 ], [ 590159.044, 2569917.728500000201166 ], [ 590231.044, 2569899.728500000201166 ], [ 590303.263512194738723, 2569868.777280488051474 ], [ 590407.044, 2569813.728500000201166 ], [ 590659.044, 2569669.728500000201166 ], [ 590779.044, 2569605.728500000201166 ], [ 590887.044, 2569557.728500000201166 ], [ 590947.044, 2569541.728500000201166 ], [ 590983.044, 2569541.728500000201166 ], [ 591203.044, 2569431.728500000201166 ], [ 591452.044, 2569311.728500000201166 ], [ 591581.926352939917706, 2569255.257911765482277 ], [ 591596.044, 2569247.728500000201166 ], [ 591695.044, 2569205.728500000201166 ], [ 591755.044, 2569191.728500000201166 ], [ 591836.044, 2569191.728500000201166 ], [ 591873.044, 2569187.728500000201166 ], [ 591896.24394570000004, 2569176.11185751343146 ], [ 591904.738053743029013, 2569161.251951851882041 ], [ 591908.044, 2569140.728500000201166 ], [ 591912.044, 2569127.728500000201166 ], [ 591924.044, 2569115.728500000201166 ], [ 591937.3101486597443, 2569108.78902948461473 ], [ 591959.205737757962197, 2569096.147615006193519 ], [ 591976.044, 2569087.728500000201166 ], [ 592021.044, 2569075.728500000201166 ], [ 592116.377333333366551, 2569058.395166666712612 ], [ 592229.044, 2569023.728500000201166 ], [ 592247.589454545406625, 2569019.910318181850016 ], [ 592235.044, 2569015.728500000201166 ], [ 592232.044, 2568993.728500000201166 ], [ 592259.044, 2568939.728500000201166 ], [ 592283.044, 2568909.728500000201166 ], [ 592328.044, 2568873.728500000201166 ], [ 592379.044, 2568843.728500000201166 ], [ 592487.044, 2568789.728500000201166 ], [ 592546.044, 2568772.728500000201166 ], [ 592615.044, 2568775.728500000201166 ], [ 592671.044, 2568797.728500000201166 ], [ 592770.044, 2568860.728500000201166 ], [ 592813.044, 2568893.728500000201166 ], [ 592843.044, 2568929.728500000201166 ], [ 592850.044, 2568956.728500000201166 ], [ 592841.044, 2569001.728500000201166 ], [ 592844.044, 2569021.728500000201166 ], [ 592862.044, 2569036.728500000201166 ], [ 592889.044, 2569041.728500000201166 ], [ 592952.044, 2569041.728500000201166 ], [ 592980.044, 2569028.728500000201166 ], [ 593001.044, 2568989.728500000201166 ], [ 593008.044, 2568937.728500000201166 ], [ 593008.044, 2568820.728500000201166 ], [ 593012.044, 2568758.728500000201166 ], [ 593024.044, 2568689.728500000201166 ], [ 593040.044, 2568636.728500000201166 ], [ 593076.044, 2568546.728500000201166 ], [ 593092.044, 2568476.728500000201166 ], [ 593104.044, 2568356.728500000201166 ], [ 593108.044, 2568226.728500000201166 ], [ 593108.044, 2567956.728500000201166 ], [ 593114.044, 2567826.728500000201166 ], [ 593132.044, 2567706.728500000201166 ], [ 593156.044, 2567636.728500000201166 ], [ 593210.044, 2567546.728500000201166 ], [ 593232.044, 2567478.728500000201166 ], [ 593244.044, 2567364.728500000201166 ], [ 593242.044, 2567242.728500000201166 ], [ 593224.044, 2566990.728500000201166 ], [ 593225.044, 2566867.728500000201166 ], [ 593246.044, 2566750.728500000201166 ], [ 593280.044, 2566678.728500000201166 ], [ 593361.044, 2566579.728500000201166 ], [ 593409.044, 2566531.728500000201166 ], [ 593472.044, 2566486.728500000201166 ], [ 593529.044, 2566459.728500000201166 ], [ 593637.044, 2566423.728500000201166 ], [ 593694.044, 2566394.728500000201166 ], [ 593757.044, 2566343.728500000201166 ], [ 593805.044, 2566287.728500000201166 ], [ 593886.044, 2566170.728500000201166 ], [ 593926.044, 2566052.728500000201166 ], [ 593965.044, 2565815.728500000201166 ], [ 593990.044, 2565538.728500000201166 ], [ 594026.044, 2564944.728500000201166 ], [ 594048.044, 2564666.728500000201166 ], [ 594078.044, 2564426.728500000201166 ], [ 594106.044, 2564304.728500000201166 ], [ 594160.044, 2564178.728500000201166 ], [ 594182.044, 2564109.728500000201166 ], [ 594194.044, 2564028.728500000201166 ], [ 594192.044, 2563962.728500000201166 ], [ 594181.627572047989815, 2563873.0556107070297 ], [ 594180.147686945507303, 2563841.747201056685299 ], [ 594183.935474746162072, 2563806.093461140524596 ], [ 594202.044, 2563746.728500000201166 ], [ 594169.044, 2563701.728500000201166 ], [ 594131.851345821167342, 2563716.478557239286602 ], [ 594090.044, 2563722.728500000201166 ], [ 594022.044, 2563725.728500000201166 ], [ 593869.044, 2563707.728500000201166 ], [ 593797.044, 2563703.728500000201166 ], [ 593734.044, 2563709.728500000201166 ], [ 593701.044, 2563723.728500000201166 ], [ 593665.044, 2563759.728500000201166 ], [ 593623.044, 2563781.728500000201166 ], [ 593581.044, 2563795.728500000201166 ], [ 593521.044, 2563807.728500000201166 ], [ 593395.044, 2563825.728500000201166 ], [ 593323.044, 2563841.728500000201166 ], [ 593233.044, 2563871.728500000201166 ], [ 593170.140774193569086, 2563899.14785483898595 ], [ 593083.044, 2563921.728500000201166 ], [ 592993.044, 2563951.728500000201166 ], [ 592951.044, 2563973.728500000201166 ], [ 592915.044, 2564009.728500000201166 ], [ 592887.044, 2564020.728500000201166 ], [ 592739.044, 2564057.728500000201166 ], [ 592563.044, 2564089.728500000201166 ], [ 592203.044, 2564143.728500000201166 ], [ 592029.044, 2564181.728500000201166 ], [ 591867.044, 2564241.728500000201166 ], [ 591771.044, 2564303.728500000201166 ], [ 591645.044, 2564429.728500000201166 ], [ 591579.044, 2564481.728500000201166 ], [ 591507.044, 2564511.728500000201166 ], [ 591453.044, 2564509.728500000201166 ], [ 591363.044, 2564473.728500000201166 ], [ 591310.044, 2564459.728500000201166 ], [ 591241.044, 2564453.728500000201166 ] ] ] ] } },
{ "type": "Feature", "properties": { "vulnerabil": 1.0, "fid": 3.0, "cat": 1 }, "geometry": { "type": "MultiPolygon", "coordinates": [ [ [ [ 600003.972667943453416, 2580916.728541988879442 ], [ 608483.121701455907896, 2577495.145141631830484 ], [ 609563.277114859782159, 2575765.613420177716762 ], [ 606723.040907258866355, 2570803.574410042725503 ], [ 606932.996192718623206, 2567416.808429840486497 ], [ 605497.639458988443948, 2565675.387877142056823 ], [ 602720.620262460084632, 2565037.695207976270467 ], [ 602170.015542267588899, 2561983.79136921511963 ], [ 597552.482815232127905, 2553917.724578461609781 ], [ 597440.044, 2553976.728500000201166 ], [ 597346.044, 2554028.728500000201166 ], [ 597228.044, 2554146.728500000201166 ], [ 597168.044, 2554228.728500000201166 ], [ 597123.044, 2554339.728500000201166 ], [ 597108.044, 2554442.728500000201166 ], [ 597108.044, 2554640.728500000201166 ], [ 597104.044, 2554742.728500000201166 ], [ 597092.044, 2554850.728500000201166 ], [ 597076.044, 2554928.728500000201166 ], [ 597040.044, 2555054.728500000201166 ], [ 597015.044, 2555119.728500000201166 ], [ 596976.044, 2555188.728500000201166 ], [ 596936.044, 2555238.728500000201166 ], [ 596855.044, 2555319.728500000201166 ], [ 596809.044, 2555359.728500000201166 ], [ 596752.044, 2555398.728500000201166 ], [ 596703.044, 2555423.728500000201166 ], [ 596613.044, 2555459.728500000201166 ], [ 596566.044, 2555486.728500000201166 ], [ 596515.044, 2555531.728500000201166 ], [ 596477.044, 2555579.728500000201166 ], [ 596414.044, 2555678.728500000201166 ], [ 596388.044, 2555746.728500000201166 ], [ 596373.044, 2555851.728500000201166 ], [ 596374.044, 2555958.728500000201166 ], [ 596392.044, 2556174.728500000201166 ], [ 596392.044, 2556284.728500000201166 ], [ 596374.044, 2556398.728500000201166 ], [ 596344.044, 2556478.728500000201166 ], [ 596272.044, 2556604.728500000201166 ], [ 596240.044, 2556684.728500000201166 ], [ 596216.044, 2556798.728500000201166 ], [ 596208.044, 2556908.728500000201166 ], [ 596208.044, 2557124.728500000201166 ], [ 596202.044, 2557232.728500000201166 ], [ 596184.044, 2557340.728500000201166 ], [ 596160.044, 2557412.728500000201166 ], [ 596106.044, 2557520.728500000201166 ], [ 596080.044, 2557600.728500000201166 ], [ 596056.044, 2557732.728500000201166 ], [ 596042.044, 2557872.728500000201166 ], [ 596024.044, 2558160.728500000201166 ], [ 596007.044, 2558297.728500000201166 ], [ 595974.044, 2558420.728500000201166 ], [ 595936.044, 2558488.728500000201166 ], [ 595855.044, 2558569.728500000201166 ], [ 595809.044, 2558607.728500000201166 ], [ 595752.044, 2558640.728500000201166 ], [ 595703.044, 2558657.728500000201166 ], [ 595613.044, 2558675.728500000201166 ], [ 595562.044, 2558696.728500000201166 ], [ 595499.044, 2558741.728500000201166 ], [ 595445.044, 2558795.728500000201166 ], [ 595346.044, 2558912.728500000201166 ], [ 595304.044, 2558990.728500000201166 ], [ 595277.044, 2559107.728500000201166 ], [ 595274.044, 2559224.728500000201166 ], [ 595292.044, 2559458.728500000201166 ], [ 595294.044, 2559574.728500000201166 ], [ 595282.044, 2559688.728500000201166 ], [ 595260.044, 2559762.728500000201166 ], [ 595206.044, 2559870.728500000201166 ], [ 595178.044, 2559982.728500000201166 ], [ 595148.044, 2560210.728500000201166 ], [ 595126.044, 2560478.728500000201166 ], [ 595090.044, 2561054.728500000201166 ], [ 595066.044, 2561328.728500000201166 ], [ 595030.044, 2561574.728500000201166 ], [ 594994.044, 2561710.728500000201166 ], [ 594922.044, 2561872.728500000201166 ], [ 594894.044, 2561960.728500000201166 ], [ 594882.044, 2562062.728500000201166 ], [ 594890.044, 2562144.728500000201166 ], [ 594926.044, 2562288.728500000201166 ], [ 594938.044, 2562368.728500000201166 ], [ 594938.044, 2562464.728500000201166 ], [ 594926.044, 2562544.728500000201166 ], [ 594890.044, 2562688.728500000201166 ], [ 594850.044, 2562768.728500000201166 ], [ 594766.044, 2562864.728500000201166 ], [ 594666.044, 2562944.728500000201166 ], [ 594608.044, 2562983.395166666712612 ], [ 594529.044, 2563009.728500000201166 ], [ 594474.044, 2563032.728500000201166 ], [ 594417.044, 2563065.728500000201166 ], [ 594377.044, 2563097.728500000201166 ], [ 594314.044, 2563160.728500000201166 ], [ 594282.044, 2563198.728500000201166 ], [ 594249.044, 2563249.728500000201166 ], [ 594226.044, 2563296.728500000201166 ], [ 594190.044, 2563386.728500000201166 ], [ 594174.044, 2563437.728500000201166 ], [ 594162.044, 2563500.728500000201166 ], [ 594158.044, 2563554.728500000201166 ], [ 594158.044, 2563653.728500000201166 ], [ 594169.044, 2563701.728500000201166 ], [ 594202.044, 2563746.728500000201166 ], [ 594246.044, 2563773.728500000201166 ], [ 594345.044, 2563809.728500000201166 ], [ 594399.044, 2563835.728500000201166 ], [ 594462.044, 2563877.728500000201166 ], [ 594513.044, 2563921.728500000201166 ], [ 594603.044, 2564011.728500000201166 ], [ 594666.044, 2564050.728500000201166 ], [ 594765.044, 2564077.728500000201166 ], [ 594867.044, 2564083.728500000201166 ], [ 595074.044, 2564074.728500000201166 ], [ 595166.044, 2564088.728500000201166 ], [ 595235.044, 2564139.728500000201166 ], [ 595258.044, 2564210.728500000201166 ], [ 595258.044, 2564372.728500000201166 ], [ 595244.044, 2564460.728500000201166 ], [ 595202.044, 2564562.728500000201166 ], [ 595146.044, 2564644.728500000201166 ], [ 595020.044, 2564788.728500000201166 ], [ 594964.044, 2564858.728500000201166 ], [ 594922.044, 2564924.728500000201166 ], [ 594908.044, 2564964.728500000201166 ], [ 594908.044, 2565018.728500000201166 ], [ 594921.044, 2565055.728500000201166 ], [ 594960.044, 2565112.728500000201166 ], [ 595012.044, 2565170.728500000201166 ], [ 595129.044, 2565287.728500000201166 ], [ 595227.044, 2565343.728500000201166 ], [ 595404.044, 2565394.728500000201166 ], [ 595601.044, 2565423.728500000201166 ], [ 596015.044, 2565459.728500000201166 ], [ 596198.044, 2565482.728500000201166 ], [ 596333.044, 2565515.728500000201166 ], [ 596375.044, 2565547.728500000201166 ], [ 596366.044, 2565610.728500000201166 ], [ 596372.044, 2565646.728500000201166 ], [ 596399.044, 2565691.728500000201166 ], [ 596438.044, 2565730.728500000201166 ], [ 596528.044, 2565802.728500000201166 ], [ 596569.044, 2565845.728500000201166 ], [ 596602.044, 2565902.728500000201166 ], [ 596616.044, 2565954.728500000201166 ], [ 596625.044, 2566053.728500000201166 ], [ 596663.044, 2566101.728500000201166 ], [ 596768.044, 2566146.728500000201166 ], [ 596905.044, 2566173.728500000201166 ], [ 597211.044, 2566209.728500000201166 ], [ 597356.044, 2566238.728500000201166 ], [ 597485.044, 2566289.728500000201166 ], [ 597555.044, 2566345.728500000201166 ], [ 597636.044, 2566462.728500000201166 ], [ 597651.245923076872714, 2566492.23811538470909 ], [ 597658.044, 2566576.728500000201166 ], [ 597658.044, 2566756.728500000201166 ], [ 597662.044, 2566840.728500000201166 ], [ 597674.044, 2566912.728500000201166 ], [ 597690.044, 2566948.728500000201166 ], [ 597726.044, 2566984.728500000201166 ], [ 597742.044, 2567010.728500000201166 ], [ 597754.044, 2567052.728500000201166 ], [ 597758.044, 2567096.728500000201166 ], [ 597758.044, 2567186.728500000201166 ], [ 597751.044, 2567229.728500000201166 ], [ 597730.044, 2567268.728500000201166 ], [ 597702.044, 2567290.728500000201166 ], [ 597639.044, 2567317.728500000201166 ], [ 597596.044, 2567346.728500000201166 ], [ 597530.044, 2567406.728500000201166 ], [ 597463.044, 2567477.728500000201166 ], [ 597328.044, 2567630.728500000201166 ], [ 597268.044, 2567730.728500000201166 ], [ 597223.044, 2567877.728500000201166 ], [ 597208.044, 2568022.728500000201166 ], [ 597208.044, 2568310.728500000201166 ], [ 597179.044, 2568455.728500000201166 ], [ 597092.044, 2568602.728500000201166 ], [ 596976.044, 2568702.728500000201166 ], [ 596715.044, 2568855.728500000201166 ], [ 596582.044, 2568940.728500000201166 ], [ 596444.044, 2569042.728500000201166 ], [ 596347.044, 2569127.728500000201166 ], [ 596194.044, 2569280.728500000201166 ], [ 596115.044, 2569367.728500000201166 ], [ 596031.044, 2569475.728500000201166 ], [ 595970.044, 2569568.728500000201166 ], [ 595871.044, 2569739.728500000201166 ], [ 595817.044, 2569809.728500000201166 ], [ 595754.044, 2569848.728500000201166 ], [ 595738.522260869503953, 2569847.206760869827121 ], [ 595715.044, 2569823.728500000201166 ], [ 595647.044, 2569793.728500000201166 ], [ 595565.339081967249513, 2569767.466204918455333 ], [ 595553.044, 2569761.728500000201166 ], [ 595463.044, 2569731.728500000201166 ], [ 595373.044, 2569709.728500000201166 ], [ 595193.044, 2569673.728500000201166 ], [ 595109.044, 2569653.728500000201166 ], [ 595037.044, 2569629.728500000201166 ], [ 595001.044, 2569609.728500000201166 ], [ 594998.833473684033379, 2569607.517973684240133 ], [ 594965.044, 2569573.728500000201166 ], [ 594921.044, 2569551.728500000201166 ], [ 594825.044, 2569521.728500000201166 ], [ 594709.044, 2569493.728500000201166 ], [ 594457.044, 2569439.728500000201166 ], [ 594354.46758078597486, 2569414.96867467276752 ], [ 594303.044, 2569393.728500000201166 ], [ 594213.044, 2569339.728500000201166 ], [ 594145.044, 2569311.728500000201166 ], [ 594129.844000000040978, 2569307.728500000201166 ], [ 594121.044, 2569303.728500000201166 ], [ 594025.044, 2569279.728500000201166 ], [ 593909.044, 2569259.728500000201166 ], [ 593657.044, 2569223.728500000201166 ], [ 593543.044, 2569201.728500000201166 ], [ 593453.044, 2569171.728500000201166 ], [ 593417.044, 2569143.728500000201166 ], [ 593399.044, 2569089.728500000201166 ], [ 593376.044, 2569065.728500000201166 ], [ 593325.044, 2569047.728500000201166 ], [ 593263.044, 2569041.728500000201166 ], [ 593128.044, 2569041.728500000201166 ], [ 593068.044, 2569028.728500000201166 ], [ 593026.887274999869987, 2569009.930801057256758 ], [ 593001.044, 2568989.728500000201166 ], [ 592980.044, 2569028.728500000201166 ], [ 592998.481422735727392, 2569085.796678592450917 ], [ 593008.044, 2569145.728500000201166 ], [ 593008.044, 2569262.728500000201166 ], [ 593001.044, 2569333.728500000201166 ], [ 592980.044, 2569429.728500000201166 ], [ 592952.044, 2569518.728500000201166 ], [ 592889.044, 2569689.728500000201166 ], [ 592853.044, 2569765.728500000201166 ], [ 592808.044, 2569822.728500000201166 ], [ 592769.044, 2569841.728500000201166 ], [ 592697.044, 2569841.728500000201166 ], [ 592651.044, 2569847.728500000201166 ], [ 592585.044, 2569865.728500000201166 ], [ 592521.044, 2569889.728500000201166 ], [ 592395.044, 2569943.728500000201166 ], [ 592317.044, 2569979.728500000201166 ], [ 592209.044, 2570033.728500000201166 ], [ 592107.044, 2570087.728500000201166 ], [ 591909.044, 2570195.728500000201166 ], [ 591811.044, 2570253.728500000201166 ], [ 591715.044, 2570319.728500000201166 ], [ 591653.044, 2570371.728500000201166 ], [ 591563.044, 2570461.728500000201166 ], [ 591493.044, 2570499.728500000201166 ], [ 591373.044, 2570523.728500000201166 ], [ 591243.044, 2570525.728500000201166 ], [ 590973.044, 2570507.728500000201166 ], [ 590837.044, 2570491.728500000201166 ], [ 590825.544, 2570489.228500000201166 ], [ 590699.044, 2570461.728500000201166 ], [ 590605.044, 2570427.728500000201166 ], [ 590483.044, 2570366.728500000201166 ], [ 590321.044, 2570303.728500000201166 ], [ 590262.430666666710749, 2570282.07516666688025 ], [ 590173.044, 2570259.728500000201166 ], [ 589993.044, 2570223.728500000201166 ], [ 589912.044, 2570203.728500000201166 ], [ 589849.044, 2570179.728500000201166 ], [ 589832.707796593895182, 2570173.139651527162641 ], [ 589795.536129898042418, 2570151.403388486709446 ], [ 589772.886729636578821, 2570131.958592436276376 ], [ 589746.924321555881761, 2570138.447323574218899 ], [ 589708.345157113741152, 2570139.163003551773727 ], [ 589669.425500113051385, 2570176.401076038833708 ], [ 589604.044, 2570221.728500000201166 ], [ 589487.044, 2570311.728500000201166 ], [ 589429.044, 2570351.728500000201166 ], [ 589372.044, 2570381.728500000201166 ], [ 589335.044, 2570391.728500000201166 ], [ 589281.044, 2570391.728500000201166 ], [ 589229.044, 2570407.728500000201166 ], [ 589127.044, 2570455.728500000201166 ], [ 589009.044, 2570519.728500000201166 ], [ 588757.044, 2570663.728500000201166 ], [ 588643.044, 2570725.728500000201166 ], [ 588553.044, 2570767.728500000201166 ], [ 588517.044, 2570775.728500000201166 ], [ 588499.044, 2570757.728500000201166 ], [ 588465.044, 2570761.728500000201166 ], [ 588381.044, 2570791.728500000201166 ], [ 588275.044, 2570837.728500000201166 ], [ 588041.044, 2570945.728500000201166 ], [ 587909.044, 2570997.728500000201166 ], [ 587747.044, 2571045.728500000201166 ], [ 587609.044, 2571073.728500000201166 ], [ 587406.472597925690934, 2571111.774156612809747 ], [ 587332.401550811249763, 2571123.603051042184234 ], [ 587233.740964149590582, 2571133.513276906684041 ], [ 587140.195375597220846, 2571140.971858979668468 ], [ 587141.895845178049058, 2571142.844484651926905 ], [ 600003.972667943453416, 2580916.728541988879442 ] ] ] ] } },
{ "type": "Feature", "properties": { "vulnerabil": 3.0, "fid": 12.0, "cat": 12 }, "geometry": { "type": "MultiPolygon", "coordinates": [ [ [ [ 587900.661681458470412, 2564071.685634864494205 ], [ 587880.5563477788819, 2564302.799985714722425 ], [ 587875.463840114185587, 2564371.823105729185045 ], [ 587846.615479098050855, 2564496.666474374942482 ], [ 587784.398258928209543, 2564718.663544782437384 ], [ 587688.610847282339819, 2564939.829497778788209 ], [ 587565.286675038514659, 2565196.733075028285384 ], [ 587525.597864388953894, 2565306.731288287322968 ], [ 587500.254564554430544, 2565765.88113464647904 ], [ 587493.938642534078099, 2565838.382319583557546 ], [ 587620.044, 2565568.728500000201166 ], [ 587732.044, 2565337.728500000201166 ], [ 587984.044, 2564770.728500000201166 ], [ 588096.044, 2564513.728500000201166 ], [ 588175.485860465094447, 2564320.798267441801727 ], [ 588197.981459167669527, 2564263.962738866917789 ], [ 588212.604970614542253, 2564203.161918375641108 ], [ 588208.044, 2564181.728500000201166 ], [ 588199.044, 2564157.728500000201166 ], [ 588172.044, 2564130.728500000201166 ], [ 588136.044, 2564109.728500000201166 ], [ 588055.044, 2564073.728500000201166 ], [ 588016.044, 2564057.728500000201166 ], [ 587978.785296563175507, 2564046.618883075192571 ], [ 587927.792350000236183, 2564035.668923425953835 ], [ 587905.330455893883482, 2564031.313691017217934 ], [ 587900.661681458470412, 2564071.685634864494205 ] ] ] ] } },
{ "type": "Feature", "properties": { "vulnerabil": 4.0, "fid": 4.0, "cat": 4 }, "geometry": { "type": "MultiPolygon", "coordinates": [ [ [ [ 587478.484626629389822, 2566015.780720247421414 ], [ 587412.144252001075074, 2566409.860010971315205 ], [ 587356.16229114017915, 2566768.946021115873009 ], [ 587256.744111086241901, 2567212.879699274431914 ], [ 587202.760872236802243, 2567374.822242385242134 ], [ 587205.939023409504443, 2567506.507369965780526 ], [ 587208.044003055547364, 2567639.517593698576093 ], [ 587208.044, 2567764.728500000201166 ], [ 587198.044, 2567880.728500000201166 ], [ 587168.044, 2568057.728500000201166 ], [ 587128.044, 2568236.728500000201166 ], [ 587072.044, 2568460.728500000201166 ], [ 587038.044, 2568596.728500000201166 ], [ 586988.044, 2568753.728500000201166 ], [ 586928.044, 2568864.728500000201166 ], [ 586878.044, 2568892.728500000201166 ], [ 586844.40763636387419, 2568882.63759090937674 ], [ 586788.044, 2568865.728500000201166 ], [ 586750.39694117649924, 2568849.728500000201166 ], [ 586709.191898319870234, 2568834.896893238648772 ], [ 586679.70671569602564, 2568822.383337429724634 ], [ 586653.322715182439424, 2568811.889769326429814 ], [ 586606.785431187483482, 2568887.89820523140952 ], [ 586559.70908529299777, 2569196.779848438221961 ], [ 586568.781196299591102, 2569543.079162913374603 ], [ 586568.781471518799663, 2569543.079431020654738 ], [ 586598.044, 2569525.728500000201166 ], [ 586643.044, 2569507.728500000201166 ], [ 586668.044, 2569508.728500000201166 ], [ 586698.044, 2569529.728500000201166 ], [ 586723.044, 2569563.728500000201166 ], [ 586768.044, 2569644.728500000201166 ], [ 586792.044, 2569729.728500000201166 ], [ 586811.929860306670889, 2569857.881821976508945 ], [ 586819.044, 2569903.728500000201166 ], [ 586840.044, 2570108.728500000201166 ], [ 586861.189846958848648, 2570367.765125245321542 ], [ 586876.044, 2570549.728500000201166 ], [ 586876.653945393394679, 2570606.757384100928903 ], [ 586943.880900745629333, 2570566.123520312365144 ], [ 587106.55597951146774, 2570452.401142531540245 ], [ 587238.685145180323161, 2570367.550821585115045 ], [ 587419.044, 2570251.728500000201166 ], [ 587559.044, 2570171.728500000201166 ], [ 587682.044, 2570111.728500000201166 ], [ 587747.044, 2570091.728500000201166 ], [ 587819.044, 2570091.728500000201166 ], [ 587865.044, 2570099.728500000201166 ], [ 587931.044, 2570123.728500000201166 ], [ 587995.044, 2570155.728500000201166 ], [ 588121.044, 2570227.728500000201166 ], [ 588183.044, 2570257.728500000201166 ], [ 588243.044, 2570275.728500000201166 ], [ 588281.044, 2570275.728500000201166 ], [ 588335.044, 2570257.728500000201166 ], [ 588367.044, 2570237.728500000201166 ], [ 588409.044, 2570195.728500000201166 ], [ 588447.044, 2570145.728500000201166 ], [ 588519.044, 2570037.728500000201166 ], [ 588561.044, 2569991.728500000201166 ], [ 588615.044, 2569961.728500000201166 ], [ 588663.044, 2569957.728500000201166 ], [ 588753.044, 2569975.728500000201166 ], [ 588803.044, 2569977.728500000201166 ], [ 588863.044, 2569965.728500000201166 ], [ 588913.044, 2569943.728500000201166 ], [ 589003.044, 2569889.728500000201166 ], [ 589059.044, 2569875.728500000201166 ], [ 589137.044, 2569887.728500000201166 ], [ 589211.044, 2569921.728500000201166 ], [ 589355.044, 2570011.728500000201166 ], [ 589432.044, 2570053.728500000201166 ], [ 589519.044, 2570089.728500000201166 ], [ 589587.044, 2570107.728500000201166 ], [ 589708.345157113741152, 2570139.163003551773727 ], [ 589746.924321555881761, 2570138.447323574218899 ], [ 589772.886729636578821, 2570131.958592436276376 ], [ 589791.883366455323994, 2570120.40263497363776 ], [ 589803.973862194805406, 2570102.734628347679973 ], [ 589807.914749027462676, 2570092.42796972207725 ], [ 589808.020551656954922, 2570054.20074049429968 ], [ 589808.044, 2570011.728500000201166 ], [ 589808.044, 2569937.728500000201166 ], [ 589808.044, 2569921.728500000201166 ], [ 589808.429370154044591, 2569877.357195785734802 ], [ 589807.630120805930346, 2569843.72042478621006 ], [ 589626.044, 2569740.728500000201166 ], [ 589140.044, 2569542.728500000201166 ], [ 588922.044, 2569444.728500000201166 ], [ 588754.044, 2569348.728500000201166 ], [ 588709.044, 2569303.728500000201166 ], [ 588692.044, 2569286.728500000201166 ], [ 588674.044, 2569196.728500000201166 ], [ 588671.044, 2569145.728500000201166 ], [ 588671.505538461497054, 2569142.497730769217014 ], [ 588669.044, 2569095.728500000201166 ], [ 588674.044, 2569052.728500000201166 ], [ 588692.044, 2568980.728500000201166 ], [ 588705.044, 2568945.728500000201166 ], [ 588726.044, 2568912.728500000201166 ], [ 588748.044, 2568892.728500000201166 ], [ 588793.044, 2568865.728500000201166 ], [ 588856.044, 2568869.728500000201166 ], [ 588983.848400978022255, 2568904.342191931791604 ], [ 588991.044, 2568905.728500000201166 ], [ 589225.044, 2568977.728500000201166 ], [ 589343.044, 2569017.728500000201166 ], [ 589463.044, 2569065.728500000201166 ], [ 589545.044, 2569105.728500000201166 ], [ 589549.710666667320766, 2569108.395166667178273 ], [ 589671.044, 2569177.728500000201166 ], [ 589741.044, 2569211.728500000201166 ], [ 589825.044, 2569241.728500000201166 ], [ 589895.044, 2569257.728500000201166 ], [ 589918.718497214722447, 2569110.484675858635455 ], [ 589930.869255121331662, 2568946.503235244192183 ], [ 589938.038785830955021, 2568753.716366591397673 ], [ 589976.044, 2568204.728500000201166 ], [ 590000.044, 2567944.728500000201166 ], [ 590036.044, 2567713.728500000201166 ], [ 590072.044, 2567588.728500000201166 ], [ 590144.044, 2567444.728500000201166 ], [ 590172.044, 2567364.728500000201166 ], [ 590184.044, 2567268.728500000201166 ], [ 590176.044, 2567188.728500000201166 ], [ 590140.044, 2567044.728500000201166 ], [ 590128.044, 2566968.728500000201166 ], [ 590128.044, 2566884.728500000201166 ], [ 590140.044, 2566820.728500000201166 ], [ 590176.044, 2566712.728500000201166 ], [ 590205.044, 2566655.728500000201166 ], [ 590256.044, 2566592.728500000201166 ], [ 590312.044, 2566544.728500000201166 ], [ 590429.044, 2566463.728500000201166 ], [ 590494.044, 2566412.728500000201166 ], [ 590572.044, 2566340.728500000201166 ], [ 590637.044, 2566271.728500000201166 ], [ 590754.044, 2566136.728500000201166 ], [ 590804.044, 2566050.728500000201166 ], [ 590837.044, 2565927.728500000201166 ], [ 590842.044, 2565808.728500000201166 ], [ 590824.044, 2565574.728500000201166 ], [ 590822.044, 2565458.728500000201166 ], [ 590834.044, 2565344.728500000201166 ], [ 590856.044, 2565270.728500000201166 ], [ 590910.044, 2565162.728500000201166 ], [ 590934.044, 2565091.728500000201166 ], [ 590952.044, 2564986.728500000201166 ], [ 590958.044, 2564882.728500000201166 ], [ 590958.044, 2564675.728500000201166 ], [ 590962.434690520633012, 2564583.065039709210396 ], [ 590963.233056090772152, 2564512.299242222681642 ], [ 590961.721277137752622, 2564464.680123061873019 ], [ 590807.044, 2564475.728500000201166 ], [ 590761.302485237596557, 2564482.160900513641536 ], [ 590679.044, 2564493.728500000201166 ], [ 590670.84061016945634, 2564495.965788135770708 ], [ 590627.044, 2564501.728500000201166 ], [ 590534.044, 2564531.728500000201166 ], [ 590455.044, 2564571.728500000201166 ], [ 590311.044, 2564661.728500000201166 ], [ 590225.044, 2564703.728500000201166 ], [ 590111.044, 2564739.728500000201166 ], [ 590007.044, 2564757.728500000201166 ], [ 589809.044, 2564775.728500000201166 ], [ 589708.044, 2564774.728500000201166 ], [ 589603.044, 2564753.728500000201166 ], [ 589529.044, 2564719.728500000201166 ], [ 589412.044, 2564638.728500000201166 ], [ 589358.044, 2564593.728500000201166 ], [ 589313.044, 2564539.728500000201166 ], [ 589292.044, 2564494.728500000201166 ], [ 589279.144170357030816, 2564436.679164876230061 ], [ 589267.034777272376232, 2564372.313609409611672 ], [ 589257.1636461566668, 2564330.091062799096107 ], [ 589242.359580407151952, 2564296.918718364089727 ], [ 589226.044, 2564269.728500000201166 ], [ 589191.938358625280671, 2564291.598529484122992 ], [ 589151.230962631758302, 2564299.013053614646196 ], [ 589045.198637214256451, 2564294.266854658722878 ], [ 588912.521788319339976, 2564273.277672923635691 ], [ 588759.649094492429867, 2564235.704118543770164 ], [ 588666.734767791815102, 2564212.758806962054223 ], [ 588579.757984700612724, 2564196.621723769698292 ], [ 588470.50226811459288, 2564184.445446372963488 ], [ 588353.738497020560317, 2564181.111664505209774 ], [ 588263.72519694454968, 2564190.606287440285087 ], [ 588212.604970614542253, 2564203.161918375641108 ], [ 588197.981459167669527, 2564263.962738866917789 ], [ 588175.485860465094447, 2564320.798267442267388 ], [ 588096.044, 2564513.728500000201166 ], [ 587984.044, 2564770.728500000201166 ], [ 587732.044, 2565337.728500000201166 ], [ 587620.044, 2565568.728500000201166 ], [ 587493.938642534078099, 2565838.382319583557546 ], [ 587478.484626629389822, 2566015.780720247421414 ] ] ] ] } },
{ "type": "Feature", "properties": { "vulnerabil": 3.0, "fid": 10.0, "cat": 11 }, "geometry": { "type": "MultiPolygon", "coordinates": [ [ [ [ 587159.790127529413439, 2567503.72876643948257 ], [ 587118.061011978890747, 2567696.917876441497356 ], [ 587078.183572267764248, 2567840.703748743981123 ], [ 586993.707522435113788, 2568135.005745885893703 ], [ 586881.647018060670234, 2568340.876828898210078 ], [ 586740.77210520580411, 2568669.060390688013285 ], [ 586653.322715182439424, 2568811.889769326429814 ], [ 586679.70671569602564, 2568822.383337429724634 ], [ 586709.191898319870234, 2568834.896893238648772 ], [ 586750.39694117649924, 2568849.728500000201166 ], [ 586788.044, 2568865.728500000201166 ], [ 586878.044, 2568892.728500000201166 ], [ 586928.044, 2568864.728500000201166 ], [ 586988.044, 2568753.728500000201166 ], [ 587038.044, 2568596.728500000201166 ], [ 587072.044, 2568460.728500000201166 ], [ 587128.044, 2568236.728500000201166 ], [ 587168.044, 2568057.728500000201166 ], [ 587198.044, 2567880.728500000201166 ], [ 587208.044, 2567764.728500000201166 ], [ 587208.044003055547364, 2567639.517593698576093 ], [ 587205.939023409504443, 2567506.507369965780526 ], [ 587202.760872236802243, 2567374.822242385242134 ], [ 587159.790127529413439, 2567503.72876643948257 ] ] ] ] } },
{ "type": "Feature", "properties": { "vulnerabil": 3.0, "fid": 22.0, "cat": 22 }, "geometry": { "type": "MultiPolygon", "coordinates": [ [ [ [ 591407.26595562917646, 2551123.016576995141804 ], [ 591422.912032072898, 2551096.520395635161549 ], [ 591446.006427336018533, 2551065.298498187679797 ], [ 591483.044, 2551029.228500000201166 ], [ 591510.044, 2551006.728500000201166 ], [ 591536.044, 2550979.728500000201166 ], [ 591560.044, 2550943.728500000201166 ], [ 591574.044, 2550910.728500000201166 ], [ 591591.223751917597838, 2550853.462165538687259 ], [ 591606.12978419882711, 2550818.458682568278164 ], [ 591620.169356069527566, 2550794.201501844450831 ], [ 591463.986585234990343, 2550738.46447174763307 ], [ 591446.728225199272856, 2550803.135737862437963 ], [ 591428.18348265090026, 2550896.148651780094951 ], [ 591412.546457414515316, 2551025.078547531738877 ], [ 591412.167633944889531, 2551087.160236974712461 ], [ 591407.26595562917646, 2551123.016576995141804 ] ] ] ] } },
{ "type": "Feature", "properties": { "vulnerabil": 3.0, "fid": 21.0, "cat": 21 }, "geometry": { "type": "MultiPolygon", "coordinates": [ [ [ [ 590781.629842290305533, 2554275.167200278490782 ], [ 590709.258238104521297, 2554612.179074143059552 ], [ 590668.39938501175493, 2554778.334157445468009 ], [ 590570.193093403824605, 2554995.244965833611786 ], [ 590545.442959947511554, 2555082.308698101434857 ], [ 590425.142085643485188, 2555206.38270973879844 ], [ 590413.429297809256241, 2555217.006257948931307 ], [ 590486.39457210234832, 2555185.284698049537838 ], [ 590539.057462314143777, 2555154.005503091961145 ], [ 590596.036347926245071, 2555107.535386865958571 ], [ 590648.044, 2555060.728500000201166 ], [ 590732.044, 2554980.728500000201166 ], [ 590762.202871985384263, 2554947.995090164244175 ], [ 590814.044, 2554891.728500000201166 ], [ 590840.044, 2554852.728500000201166 ], [ 590876.044, 2554780.728500000201166 ], [ 590892.044, 2554730.728500000201166 ], [ 590904.044, 2554652.728500000201166 ], [ 590908.044, 2554572.728500000201166 ], [ 590908.044, 2554410.728500000201166 ], [ 590904.044, 2554333.728500000201166 ], [ 590892.044, 2554264.728500000201166 ], [ 590876.044, 2554226.728500000201166 ], [ 590839.16438417613972, 2554162.256586779840291 ], [ 590793.765593390678987, 2554104.665917377918959 ], [ 590781.629842290305533, 2554275.167200278490782 ] ] ] ] } },
{ "type": "Feature", "properties": { "vulnerabil": 3.0, "fid": 19.0, "cat": 19 }, "geometry": { "type": "MultiPolygon", "coordinates": [ [ [ [ 590171.448363985400647, 2555812.389099080115557 ], [ 590140.134429430007003, 2555951.995430829934776 ], [ 590096.747526773018762, 2556150.234552678186446 ], [ 590084.538152864202857, 2556231.461667109746486 ], [ 590087.769828679040074, 2556343.401790042407811 ], [ 590079.041307735722512, 2556414.083704045042396 ], [ 590079.380717750755139, 2556414.718488876242191 ], [ 590108.866331707686186, 2556407.775846572592854 ], [ 590143.490353022119962, 2556395.863884144928306 ], [ 590171.320981345139444, 2556382.667618904262781 ], [ 590208.044, 2556355.728500000201166 ], [ 590239.044, 2556319.728500000201166 ], [ 590302.044, 2556238.728500000201166 ], [ 590330.044, 2556190.728500000201166 ], [ 590351.044, 2556127.728500000201166 ], [ 590358.044, 2556070.728500000201166 ], [ 590358.044, 2555962.728500000201166 ], [ 590354.044, 2555907.728500000201166 ], [ 590342.044, 2555850.728500000201166 ], [ 590326.044, 2555810.728500000201166 ], [ 590290.044, 2555747.728500000201166 ], [ 590268.191221536369994, 2555699.466144593898207 ], [ 590253.613578289630823, 2555662.320161031093448 ], [ 590171.448363985400647, 2555812.389099080115557 ] ] ] ] } },
{ "type": "Feature", "properties": { "vulnerabil": 2.0, "fid": 18.0, "cat": 18 }, "geometry": { "type": "MultiPolygon", "coordinates": [ [ [ [ 589756.148267866694368, 2557181.444297221954912 ], [ 589725.703900557360612, 2557437.411798452492803 ], [ 589706.065600109170191, 2557715.406279014889151 ], [ 589656.415804520365782, 2557787.328499202150851 ], [ 589603.826895775273442, 2557828.402590539772063 ], [ 589575.698196252342314, 2557959.371056439355016 ], [ 589546.325496447272599, 2558037.328188758809119 ], [ 589540.274624695070088, 2558134.430677118245512 ], [ 589465.142102609039284, 2558287.501667248550802 ], [ 589461.083489502198063, 2558301.151393642183393 ], [ 589508.967911315266974, 2558258.670935511123389 ], [ 589586.044, 2558187.728500000201166 ], [ 589730.044, 2558070.728500000201166 ], [ 589798.044, 2558010.728500000201166 ], [ 589825.205853165243752, 2557982.246466475073248 ], [ 589860.044, 2557945.728500000201166 ], [ 589890.044, 2557902.728500000201166 ], [ 589926.044, 2557830.728500000201166 ], [ 589942.044, 2557786.728500000201166 ], [ 589954.044, 2557726.728500000201166 ], [ 589958.044, 2557670.728500000201166 ], [ 589958.044, 2557562.728500000201166 ], [ 589950.044, 2557501.728500000201166 ], [ 589926.044, 2557426.728500000201166 ], [ 589894.044, 2557362.728500000201166 ], [ 589822.044, 2557245.728500000201166 ], [ 589790.044, 2557188.728500000201166 ], [ 589757.315840323572047, 2557126.622594684362411 ], [ 589757.315839867456816, 2557126.62259649252519 ], [ 589756.148267866694368, 2557181.444297221954912 ] ] ] ] } },
{ "type": "Feature", "properties": { "vulnerabil": 2.0, "fid": 5.0, "cat": 5 }, "geometry": { "type": "MultiPolygon", "coordinates": [ [ [ [ 591243.044, 2570525.728500000201166 ], [ 591373.044, 2570523.728500000201166 ], [ 591493.044, 2570499.728500000201166 ], [ 591563.044, 2570461.728500000201166 ], [ 591653.044, 2570371.728500000201166 ], [ 591715.044, 2570319.728500000201166 ], [ 591811.044, 2570253.728500000201166 ], [ 591909.044, 2570195.728500000201166 ], [ 592107.044, 2570087.728500000201166 ], [ 592209.044, 2570033.728500000201166 ], [ 592317.044, 2569979.728500000201166 ], [ 592395.044, 2569943.728500000201166 ], [ 592521.044, 2569889.728500000201166 ], [ 592585.044, 2569865.728500000201166 ], [ 592651.044, 2569847.728500000201166 ], [ 592697.044, 2569841.728500000201166 ], [ 592769.044, 2569841.728500000201166 ], [ 592808.044, 2569822.728500000201166 ], [ 592853.044, 2569765.728500000201166 ], [ 592889.044, 2569689.728500000201166 ], [ 592952.044, 2569518.728500000201166 ], [ 592980.044, 2569429.728500000201166 ], [ 593001.044, 2569333.728500000201166 ], [ 593008.044, 2569262.728500000201166 ], [ 593008.044, 2569145.728500000201166 ], [ 592998.481422735727392, 2569085.796678592450917 ], [ 592980.044, 2569028.728500000201166 ], [ 592952.044, 2569041.728500000201166 ], [ 592889.044, 2569041.728500000201166 ], [ 592862.044, 2569036.728500000201166 ], [ 592844.044, 2569021.728500000201166 ], [ 592841.044, 2569001.728500000201166 ], [ 592850.044, 2568956.728500000201166 ], [ 592843.044, 2568929.728500000201166 ], [ 592813.044, 2568893.728500000201166 ], [ 592770.044, 2568860.728500000201166 ], [ 592671.044, 2568797.728500000201166 ], [ 592615.044, 2568775.728500000201166 ], [ 592546.044, 2568772.728500000201166 ], [ 592487.044, 2568789.728500000201166 ], [ 592379.044, 2568843.728500000201166 ], [ 592328.044, 2568873.728500000201166 ], [ 592283.044, 2568909.728500000201166 ], [ 592259.044, 2568939.728500000201166 ], [ 592232.044, 2568993.728500000201166 ], [ 592235.044, 2569015.728500000201166 ], [ 592247.589454545406625, 2569019.910318181850016 ], [ 592297.044, 2569009.728500000201166 ], [ 592384.044, 2569003.728500000201166 ], [ 592461.044, 2569007.728500000201166 ], [ 592462.076258064596914, 2569007.857532258145511 ], [ 592605.044, 2569025.728500000201166 ], [ 592666.044, 2569040.728500000201166 ], [ 592705.044, 2569067.728500000201166 ], [ 592709.044, 2569097.728500000201166 ], [ 592697.015658160438761, 2569125.794630959164351 ], [ 592682.044, 2569160.728500000201166 ], [ 592672.044, 2569200.728500000201166 ], [ 592669.044, 2569257.728500000201166 ], [ 592674.044, 2569312.728500000201166 ], [ 592688.078875797218643, 2569371.258430651389062 ], [ 592692.044, 2569420.728500000201166 ], [ 592685.209463834529743, 2569456.22507334407419 ], [ 592661.044, 2569485.728500000201166 ], [ 592550.044, 2569572.728500000201166 ], [ 592396.044, 2569652.728500000201166 ], [ 592045.044, 2569805.728500000201166 ], [ 591877.044, 2569873.728500000201166 ], [ 591724.044, 2569924.728500000201166 ], [ 591637.044, 2569941.728500000201166 ], [ 591529.044, 2569941.728500000201166 ], [ 591478.044, 2569932.728500000201166 ], [ 591433.044, 2569905.728500000201166 ], [ 591409.044, 2569869.728500000201166 ], [ 591382.044, 2569788.728500000201166 ], [ 591396.044, 2569727.728500000201166 ], [ 591465.044, 2569625.728500000201166 ], [ 591566.044, 2569516.728500000201166 ], [ 591757.747349282260984, 2569332.398356459569186 ], [ 591811.044, 2569275.728500000201166 ], [ 591882.635344835929573, 2569215.791560136713088 ], [ 591976.044, 2569140.728500000201166 ], [ 591992.044, 2569127.728500000201166 ], [ 592004.044, 2569115.728500000201166 ], [ 592011.084803675767034, 2569105.212471496779472 ], [ 592015.062372289481573, 2569095.894319093320519 ], [ 592021.044, 2569075.728500000201166 ], [ 591976.044, 2569087.728500000201166 ], [ 591959.205737757962197, 2569096.147615006193519 ], [ 591937.3101486597443, 2569108.78902948461473 ], [ 591924.044, 2569115.728500000201166 ], [ 591912.044, 2569127.728500000201166 ], [ 591908.044, 2569140.728500000201166 ], [ 591904.738053743029013, 2569161.251951851882041 ], [ 591896.24394570000004, 2569176.11185751343146 ], [ 591873.044, 2569187.728500000201166 ], [ 591836.044, 2569191.728500000201166 ], [ 591755.044, 2569191.728500000201166 ], [ 591695.044, 2569205.728500000201166 ], [ 591596.044, 2569247.728500000201166 ], [ 591581.926352941198274, 2569255.257911765016615 ], [ 591452.044, 2569311.728500000201166 ], [ 591203.044, 2569431.728500000201166 ], [ 590983.044, 2569541.728500000201166 ], [ 590947.044, 2569541.728500000201166 ], [ 590887.044, 2569557.728500000201166 ], [ 590779.044, 2569605.728500000201166 ], [ 590659.044, 2569669.728500000201166 ], [ 590407.044, 2569813.728500000201166 ], [ 590303.263512195087969, 2569868.777280488051474 ], [ 590231.044, 2569899.728500000201166 ], [ 590159.044, 2569917.728500000201166 ], [ 590132.044, 2569890.728500000201166 ], [ 590124.044, 2569874.728500000201166 ], [ 590127.044, 2569853.728500000201166 ], [ 590140.044, 2569834.728500000201166 ], [ 590176.044, 2569798.728500000201166 ], [ 590192.044, 2569766.728500000201166 ], [ 590204.044, 2569706.728500000201166 ], [ 590208.044, 2569638.728500000201166 ], [ 590208.044, 2569494.728500000201166 ], [ 590205.044, 2569427.728500000201166 ], [ 590196.044, 2569370.728500000201166 ], [ 590184.044, 2569342.728500000201166 ], [ 590157.044, 2569315.728500000201166 ], [ 590131.044, 2569301.728500000201166 ], [ 590080.044, 2569286.728500000201166 ], [ 590021.044, 2569275.728500000201166 ], [ 589999.080328871845268, 2569272.590832696296275 ], [ 589895.044, 2569257.728500000201166 ], [ 589825.044, 2569241.728500000201166 ], [ 589741.044, 2569211.728500000201166 ], [ 589671.044, 2569177.728500000201166 ], [ 589549.710666667320766, 2569108.395166667178273 ], [ 589545.044, 2569105.728500000201166 ], [ 589463.044, 2569065.728500000201166 ], [ 589343.044, 2569017.728500000201166 ], [ 589225.044, 2568977.728500000201166 ], [ 588991.044, 2568905.728500000201166 ], [ 588983.848400978022255, 2568904.342191931791604 ], [ 588856.044, 2568869.728500000201166 ], [ 588793.044, 2568865.728500000201166 ], [ 588748.044, 2568892.728500000201166 ], [ 588726.044, 2568912.728500000201166 ], [ 588705.044, 2568945.728500000201166 ], [ 588692.044, 2568980.728500000201166 ], [ 588674.044, 2569052.728500000201166 ], [ 588669.044, 2569095.728500000201166 ], [ 588671.505538461497054, 2569142.497730769217014 ], [ 588671.044, 2569145.728500000201166 ], [ 588674.044, 2569196.728500000201166 ], [ 588692.044, 2569286.728500000201166 ], [ 588709.044, 2569303.728500000201166 ], [ 588754.044, 2569348.728500000201166 ], [ 588922.044, 2569444.728500000201166 ], [ 589140.044, 2569542.728500000201166 ], [ 589626.044, 2569740.728500000201166 ], [ 589807.630120805930346, 2569843.72042478621006 ], [ 589826.389222787460312, 2569846.233339842408895 ], [ 589861.900555778527632, 2569852.600147682242095 ], [ 589880.044, 2569857.728500000201166 ], [ 589961.044, 2569875.728500000201166 ], [ 589998.044, 2569886.728500000201166 ], [ 590028.044, 2569901.728500000201166 ], [ 590041.044, 2569915.728500000201166 ], [ 590050.044, 2569942.728500000201166 ], [ 590044.044, 2569959.728500000201166 ], [ 590017.044, 2569983.728500000201166 ], [ 589978.044, 2570006.728500000201166 ], [ 589888.044, 2570051.728500000201166 ], [ 589859.062115814187564, 2570064.498464793898165 ], [ 589832.206793927238323, 2570078.638332843314856 ], [ 589807.914749027462676, 2570092.42796972207725 ], [ 589803.973862194805406, 2570102.734628347679973 ], [ 589791.883366455323994, 2570120.40263497363776 ], [ 589772.886729636578821, 2570131.958592436276376 ], [ 589795.536129898042418, 2570151.403388486709446 ], [ 589832.707796593895182, 2570173.139651527162641 ], [ 589849.044, 2570179.728500000201166 ], [ 589912.044, 2570203.728500000201166 ], [ 589993.044, 2570223.728500000201166 ], [ 590173.044, 2570259.728500000201166 ], [ 590262.430666666710749, 2570282.07516666688025 ], [ 590321.044, 2570303.728500000201166 ], [ 590483.044, 2570366.728500000201166 ], [ 590605.044, 2570427.728500000201166 ], [ 590699.044, 2570461.728500000201166 ], [ 590825.544, 2570489.228500000201166 ], [ 590837.044, 2570491.728500000201166 ], [ 590973.044, 2570507.728500000201166 ], [ 591243.044, 2570525.728500000201166 ] ] ] ] } },
{ "type": "Feature", "properties": { "vulnerabil": 3.0, "fid": 2.0, "cat": 3 }, "geometry": { "type": "MultiPolygon", "coordinates": [ [ [ [ 586575.03547313855961, 2569781.816517464350909 ], [ 586568.32915058627259, 2570128.944972173310816 ], [ 586533.04395815404132, 2570680.178320092149079 ], [ 586904.583721022238024, 2570962.511151329614222 ], [ 586905.465840830467641, 2570962.818960425443947 ], [ 586898.642916459590197, 2570884.035352679900825 ], [ 586892.044, 2570829.728500000201166 ], [ 586880.402229550876655, 2570748.235820304136723 ], [ 586877.576214626082219, 2570692.990567537024617 ], [ 586876.653945393394679, 2570606.757384100928903 ], [ 586876.044, 2570549.728500000201166 ], [ 586861.189846958848648, 2570367.765125245321542 ], [ 586840.044, 2570108.728500000201166 ], [ 586819.044, 2569903.728500000201166 ], [ 586811.929860306670889, 2569857.881821976508945 ], [ 586792.044, 2569729.728500000201166 ], [ 586768.044, 2569644.728500000201166 ], [ 586723.044, 2569563.728500000201166 ], [ 586698.044, 2569529.728500000201166 ], [ 586668.044, 2569508.728500000201166 ], [ 586643.044, 2569507.728500000201166 ], [ 586598.044, 2569525.728500000201166 ], [ 586568.781471518799663, 2569543.079431020654738 ], [ 586569.389436668716371, 2569566.286964963655919 ], [ 586569.38919100118801, 2569566.28744908189401 ], [ 586575.03547313855961, 2569781.816517464350909 ] ] ] ] } },
{ "type": "Feature", "properties": { "vulnerabil": 2.0, "fid": 1.0, "cat": 2 }, "geometry": { "type": "MultiPolygon", "coordinates": [ [ [ [ 587138.009427865617909, 2571139.891198589932173 ], [ 587140.195375597220846, 2571140.971858979668468 ], [ 587233.740964149590582, 2571133.513276906684041 ], [ 587332.401550811249763, 2571123.603051042184234 ], [ 587406.472597925690934, 2571111.774156612809747 ], [ 587609.044, 2571073.728500000201166 ], [ 587747.044, 2571045.728500000201166 ], [ 587909.044, 2570997.728500000201166 ], [ 588041.044, 2570945.728500000201166 ], [ 588275.044, 2570837.728500000201166 ], [ 588381.044, 2570791.728500000201166 ], [ 588465.044, 2570761.728500000201166 ], [ 588499.044, 2570757.728500000201166 ], [ 588517.044, 2570775.728500000201166 ], [ 588553.044, 2570767.728500000201166 ], [ 588643.044, 2570725.728500000201166 ], [ 588757.044, 2570663.728500000201166 ], [ 589009.044, 2570519.728500000201166 ], [ 589127.044, 2570455.728500000201166 ], [ 589229.044, 2570407.728500000201166 ], [ 589281.044, 2570391.728500000201166 ], [ 589335.044, 2570391.728500000201166 ], [ 589372.044, 2570381.728500000201166 ], [ 589429.044, 2570351.728500000201166 ], [ 589487.044, 2570311.728500000201166 ], [ 589604.044, 2570221.728500000201166 ], [ 589669.425500113051385, 2570176.401076038833708 ], [ 589708.345157113741152, 2570139.163003551773727 ], [ 589587.044, 2570107.728500000201166 ], [ 589519.044, 2570089.728500000201166 ], [ 589432.044, 2570053.728500000201166 ], [ 589355.044, 2570011.728500000201166 ], [ 589211.044, 2569921.728500000201166 ], [ 589137.044, 2569887.728500000201166 ], [ 589059.044, 2569875.728500000201166 ], [ 589003.044, 2569889.728500000201166 ], [ 588913.044, 2569943.728500000201166 ], [ 588863.044, 2569965.728500000201166 ], [ 588803.044, 2569977.728500000201166 ], [ 588753.044, 2569975.728500000201166 ], [ 588663.044, 2569957.728500000201166 ], [ 588615.044, 2569961.728500000201166 ], [ 588561.044, 2569991.728500000201166 ], [ 588519.044, 2570037.728500000201166 ], [ 588447.044, 2570145.728500000201166 ], [ 588409.044, 2570195.728500000201166 ], [ 588367.044, 2570237.728500000201166 ], [ 588335.044, 2570257.728500000201166 ], [ 588281.044, 2570275.728500000201166 ], [ 588243.044, 2570275.728500000201166 ], [ 588183.044, 2570257.728500000201166 ], [ 588121.044, 2570227.728500000201166 ], [ 587995.044, 2570155.728500000201166 ], [ 587931.044, 2570123.728500000201166 ], [ 587865.044, 2570099.728500000201166 ], [ 587819.044, 2570091.728500000201166 ], [ 587747.044, 2570091.728500000201166 ], [ 587682.044, 2570111.728500000201166 ], [ 587559.044, 2570171.728500000201166 ], [ 587419.044, 2570251.728500000201166 ], [ 587238.685145180323161, 2570367.550821585115045 ], [ 587106.55597951146774, 2570452.401142531540245 ], [ 586943.880900745629333, 2570566.123520312365144 ], [ 586876.653945393394679, 2570606.757384100928903 ], [ 586877.576214626082219, 2570692.990567537024617 ], [ 586880.402229550876655, 2570748.235820304136723 ], [ 586892.044, 2570829.728500000201166 ], [ 586898.642916459590197, 2570884.035352679900825 ], [ 586905.465840830467641, 2570962.818960425443947 ], [ 586905.619687612052076, 2570963.298381687141955 ], [ 587138.009427865617909, 2571139.891198589932173 ] ] ] ] } },
{ "type": "Feature", "properties": { "vulnerabil": 3.0, "fid": 6.0, "cat": 6 }, "geometry": { "type": "MultiPolygon", "coordinates": [ [ [ [ 589808.044, 2569937.728500000201166 ], [ 589808.044, 2570011.728500000201166 ], [ 589808.020551656954922, 2570054.20074049429968 ], [ 589807.914749027462676, 2570092.42796972207725 ], [ 589832.206793927238323, 2570078.638332843314856 ], [ 589859.062115814187564, 2570064.498464793898165 ], [ 589888.044, 2570051.728500000201166 ], [ 589978.044, 2570006.728500000201166 ], [ 590017.044, 2569983.728500000201166 ], [ 590044.044, 2569959.728500000201166 ], [ 590050.044, 2569942.728500000201166 ], [ 590041.044, 2569915.728500000201166 ], [ 590028.044, 2569901.728500000201166 ], [ 589998.044, 2569886.728500000201166 ], [ 589961.044, 2569875.728500000201166 ], [ 589880.044, 2569857.728500000201166 ], [ 589861.900555778527632, 2569852.600147682242095 ], [ 589826.389222787460312, 2569846.233339842408895 ], [ 589807.630120805930346, 2569843.72042478621006 ], [ 589808.429370154044591, 2569877.357195785734802 ], [ 589808.044, 2569921.728500000201166 ], [ 589808.044, 2569937.728500000201166 ] ] ] ] } },
{ "type": "Feature", "properties": { "vulnerabil": 1.0, "fid": 9.0, "cat": 8 }, "geometry": { "type": "MultiPolygon", "coordinates": [ [ [ [ 591382.044, 2569788.728500000201166 ], [ 591409.044, 2569869.728500000201166 ], [ 591433.044, 2569905.728500000201166 ], [ 591478.044, 2569932.728500000201166 ], [ 591529.044, 2569941.728500000201166 ], [ 591637.044, 2569941.728500000201166 ], [ 591724.044, 2569924.728500000201166 ], [ 591877.044, 2569873.728500000201166 ], [ 592045.044, 2569805.728500000201166 ], [ 592396.044, 2569652.728500000201166 ], [ 592550.044, 2569572.728500000201166 ], [ 592661.044, 2569485.728500000201166 ], [ 592685.209463834529743, 2569456.22507334407419 ], [ 592692.044, 2569420.728500000201166 ], [ 592688.078875797218643, 2569371.258430651389062 ], [ 592674.044, 2569312.728500000201166 ], [ 592669.044, 2569257.728500000201166 ], [ 592672.044, 2569200.728500000201166 ], [ 592682.044, 2569160.728500000201166 ], [ 592697.015658160438761, 2569125.794630959164351 ], [ 592709.044, 2569097.728500000201166 ], [ 592705.044, 2569067.728500000201166 ], [ 592666.044, 2569040.728500000201166 ], [ 592605.044, 2569025.728500000201166 ], [ 592461.044, 2569007.728500000201166 ], [ 592384.044, 2569003.728500000201166 ], [ 592297.044, 2569009.728500000201166 ], [ 592229.044, 2569023.728500000201166 ], [ 592116.377333333366551, 2569058.395166666712612 ], [ 592021.044, 2569075.728500000201166 ], [ 592015.062372289481573, 2569095.894319093320519 ], [ 592011.084803675767034, 2569105.212471496779472 ], [ 592004.044, 2569115.728500000201166 ], [ 591992.044, 2569127.728500000201166 ], [ 591976.044, 2569140.728500000201166 ], [ 591882.635344835929573, 2569215.791560136713088 ], [ 591811.044, 2569275.728500000201166 ], [ 591757.747349282260984, 2569332.398356459569186 ], [ 591566.044, 2569516.728500000201166 ], [ 591465.044, 2569625.728500000201166 ], [ 591396.044, 2569727.728500000201166 ], [ 591382.044, 2569788.728500000201166 ] ] ] ] } }
]
}
