{
"type": "FeatureCollection",
"name": "1226",
"crs": { "type": "name", "properties": { "name": "urn:ogc:def:crs:OGC:1.3:CRS84" } },
"features": [
{ "type": "Feature", "properties": { "fid": 4.0, "vulnerabil": 1, "cat": 1, "NOM_ACUIF": "BAHIA DE ACAPULCO", "CLAVE_ACUI": 1226 }, "geometry": { "type": "MultiPolygon", "coordinates": [ [ [ [ -99.846436359033959, 16.855967120892021 ], [ -99.845938705514016, 16.856195144519489 ], [ -99.845293884201354, 16.856310787690806 ], [ -99.84450189589289, 16.856314048982512 ], [ -99.843562741901636, 16.856204926627328 ], [ -99.842828168201009, 16.855925481102137 ], [ -99.842298176005755, 16.855475714542585 ], [ -99.841972765423847, 16.854855628513388 ], [ -99.841851935456774, 16.85406522400821 ], [ -99.841819603842609, 16.853387442078422 ], [ -99.841875769521764, 16.852822282833021 ], [ -99.842020431753213, 16.852369746248701 ], [ -99.842253590114368, 16.852029832169855 ], [ -99.8426043266021, 16.851745928026435 ], [ -99.843072640958468, 16.851518033229905 ], [ -99.843658533125648, 16.85134614697937 ], [ -99.844362003246005, 16.851230268261599 ], [ -99.844977852325599, 16.851199487215268 ], [ -99.845506081269477, 16.851253804590819 ], [ -99.845946690747795, 16.851393221034925 ], [ -99.846299681195632, 16.851617737090542 ], [ -99.846594636333634, 16.851983723993847 ], [ -99.846831556536785, 16.852491181965522 ], [ -99.84701044193433, 16.853140111182949 ], [ -99.847131292409543, 16.853930511780195 ], [ -99.847134310471532, 16.854608413078083 ], [ -99.847019494796982, 16.855173815161056 ], [ -99.846786844480334, 16.855626717887962 ], [ -99.846436359033959, 16.855967120892021 ] ] ] ] } },
{ "type": "Feature", "properties": { "fid": 5.0, "vulnerabil": 2, "cat": 2, "NOM_ACUIF": "BAHIA DE ACAPULCO", "CLAVE_ACUI": 1226 }, "geometry": { "type": "MultiPolygon", "coordinates": [ [ [ [ -99.887496593553777, 16.894587402134174 ], [ -99.877771371453605, 16.889111574915557 ], [ -99.876906959690061, 16.888612913886984 ], [ -99.877897881709643, 16.889139121205897 ], [ -99.877946968195943, 16.889165187298069 ], [ -99.879076241300851, 16.889678526559106 ], [ -99.879219878047834, 16.889743819565886 ], [ -99.879916783611222, 16.890060610059997 ], [ -99.880268313786942, 16.889946115127355 ], [ -99.880268313786942, 16.889946115127355 ], [ -99.880560643892508, 16.889718889717582 ], [ -99.880793773653011, 16.889378934091255 ], [ -99.88083593841796, 16.88926919212798 ], [ -99.880857020783196, 16.889214321143506 ], [ -99.880967703012089, 16.888926248444054 ], [ -99.881021243342843, 16.888662387867814 ], [ -99.881062315288617, 16.888459974265789 ], [ -99.88108243213189, 16.888360832906748 ], [ -99.881343848035044, 16.887794786225573 ], [ -99.881742880486016, 16.887240700760106 ], [ -99.881751949378796, 16.887228107900508 ], [ -99.882306734801489, 16.886660797116605 ], [ -99.882984820720168, 16.886111784259118 ], [ -99.883007632625123, 16.88609331448831 ], [ -99.883008202922696, 16.886092852744014 ], [ -99.883322376915686, 16.885954613388193 ], [ -99.883879183424568, 16.885709611912972 ], [ -99.883915815379211, 16.885693493343972 ], [ -99.884452069468622, 16.885582379136164 ], [ -99.885029573094556, 16.885462716143312 ], [ -99.885464425655826, 16.885442225338618 ], [ -99.885568283878783, 16.88543733127041 ], [ -99.886349478081073, 16.88540051768641 ], [ -99.887875533439725, 16.885506893834886 ], [ -99.889701141557708, 16.885365767773308 ], [ -99.889811117837297, 16.88535726568778 ], [ -99.892156221912288, 16.884951622042024 ], [ -99.892636193520602, 16.884836333195409 ], [ -99.894910832914761, 16.884289949379589 ], [ -99.897149944970764, 16.883640516309718 ], [ -99.898074934705747, 16.883372231870098 ], [ -99.898303586720147, 16.883319094515656 ], [ -99.8987011290928, 16.883226707385315 ], [ -99.900800295777429, 16.882738855981334 ], [ -99.901753062680044, 16.882593435077219 ], [ -99.903086933516008, 16.882389838481785 ], [ -99.904893643593113, 16.882326635559018 ], [ -99.904934861289803, 16.882325193482021 ], [ -99.905639474869133, 16.882435062959789 ], [ -99.906344088448449, 16.882544932437561 ], [ -99.90724619693151, 16.882762872504781 ], [ -99.90760704085011, 16.88285004739009 ], [ -99.908475568436671, 16.883153765179983 ], [ -99.908662809790968, 16.883219241500957 ], [ -99.908723719655285, 16.883240540988727 ], [ -99.909694125619978, 16.883716415586221 ], [ -99.910024981549924, 16.883941738431972 ], [ -99.910518259095682, 16.884277673239055 ], [ -99.910704868509967, 16.884372060528356 ], [ -99.910943819850658, 16.884492922038632 ], [ -99.911459337784962, 16.884753669331577 ], [ -99.9117248039543, 16.884851707897411 ], [ -99.912075072212559, 16.884981063790217 ], [ -99.9125173611816, 16.885144402282229 ], [ -99.913692328459476, 16.885449870322418 ], [ -99.913934561390278, 16.885491158674693 ], [ -99.91498423847257, 16.885670071496467 ], [ -99.915531670515776, 16.885813846666355 ], [ -99.916041728362487, 16.885947804505943 ], [ -99.916635465961136, 16.886189657448487 ], [ -99.916745594867379, 16.886234517070505 ], [ -99.916864798265919, 16.886283072980067 ], [ -99.917453447854214, 16.886675879763157 ], [ -99.917689599983987, 16.886976111276866 ], [ -99.917807676332956, 16.887126226914674 ], [ -99.917974233587358, 16.887443246603354 ], [ -99.918029752800393, 16.887548919794618 ], [ -99.918103778517505, 16.887689817353191 ], [ -99.918341754486676, 16.888366651311767 ], [ -99.918643327094429, 16.890060050506193 ], [ -99.918643327094429, 16.890060050506225 ], [ -99.919117787154676, 16.89110301838695 ], [ -99.919510177483915, 16.891664001216721 ], [ -99.919597139985456, 16.891788327019892 ], [ -99.919944991154452, 16.892285629792578 ], [ -99.920731239702278, 16.893166696977506 ], [ -99.920980189165817, 16.893445666378231 ], [ -99.921124947426279, 16.893607879987286 ], [ -99.922657665781031, 16.89506976232844 ], [ -99.923695679616429, 16.895756267835043 ], [ -99.925449819152774, 16.897733952484046 ], [ -99.897292027834624, 16.911621637241261 ], [ -99.887496593553777, 16.894587402134174 ] ] ] ] } },
{ "type": "Feature", "properties": { "fid": 3.0, "vulnerabil": 2, "cat": 3, "NOM_ACUIF": "BAHIA DE ACAPULCO", "CLAVE_ACUI": 1226 }, "geometry": { "type": "MultiPolygon", "coordinates": [ [ [ [ -99.830901911435433, 16.863202268183453 ], [ -99.831080654704834, 16.862351500116258 ], [ -99.831150750248057, 16.862017864897254 ], [ -99.83153116496274, 16.861423595650031 ], [ -99.831966538830955, 16.860743466095201 ], [ -99.832197500783337, 16.859895134819748 ], [ -99.832310509233537, 16.858906049461073 ], [ -99.832305565885463, 16.857776210103317 ], [ -99.832361698700765, 16.85719692937079 ], [ -99.832417831516082, 16.856617648638274 ], [ -99.832647303949017, 16.855430364961396 ], [ -99.832993980893022, 16.854214358771795 ], [ -99.833457859942101, 16.85296962957236 ], [ -99.834069013610232, 16.851865533398801 ], [ -99.834827440508633, 16.850902069034206 ], [ -99.835733139901123, 16.850079234909952 ], [ -99.836786111703958, 16.84939702910572 ], [ -99.837957149030601, 16.848883815065598 ], [ -99.839246253881754, 16.848539590697239 ], [ -99.840653428898378, 16.848364353667886 ], [ -99.842178677361773, 16.848358101404099 ], [ -99.843469647195207, 16.848437539968241 ], [ -99.844409202090432, 16.8486455230933 ], [ -99.845348756985658, 16.848853506218365 ], [ -99.84593689828499, 16.849190040283602 ], [ -99.846555001602397, 16.849667681104826 ], [ -99.847203068577073, 16.85028642831935 ], [ -99.848235100896005, 16.851496760945817 ], [ -99.848589100795706, 16.851947240352221 ], [ -99.849121743572852, 16.852990154006953 ], [ -99.84947902781785, 16.854175023902904 ], [ -99.849660951229211, 16.855501851019802 ], [ -99.849667510713545, 16.856970635917705 ], [ -99.849439405311301, 16.858440392358613 ], [ -99.848976629541568, 16.859911119806114 ], [ -99.848279177875852, 16.861382816918319 ], [ -99.8473470447381, 16.862855481547474 ], [ -99.846648815945471, 16.864157698578897 ], [ -99.846184498126163, 16.865289470163177 ], [ -99.845954096634713, 16.866250797699614 ], [ -99.845957615551484, 16.867041681835765 ], [ -99.846727359659042, 16.868620301380542 ], [ -99.847111353781685, 16.869211889484809 ], [ -99.84826158977269, 16.87059120566823 ], [ -99.849027837530599, 16.871378930221731 ], [ -99.849794085288522, 16.872166654775238 ], [ -99.85065196066688, 16.872816566189456 ], [ -99.850596418207516, 16.873434913939729 ], [ -99.849925492719251, 16.873412173387848 ], [ -99.83517987139254, 16.872912380828652 ], [ -99.830901911435433, 16.863202268183453 ] ], [ [ -99.847019494796982, 16.855173815161056 ], [ -99.847134310471532, 16.854608413078083 ], [ -99.847131292409543, 16.853930511780195 ], [ -99.84701044193433, 16.853140111182949 ], [ -99.846831556536785, 16.852491181965522 ], [ -99.846594636333634, 16.851983723993847 ], [ -99.846299681195632, 16.851617737090542 ], [ -99.845946690747795, 16.851393221034925 ], [ -99.845506081269477, 16.851253804590819 ], [ -99.844977852325599, 16.851199487215268 ], [ -99.844362003246005, 16.851230268261599 ], [ -99.843658533125648, 16.85134614697937 ], [ -99.843072640958468, 16.851518033229905 ], [ -99.8426043266021, 16.851745928026435 ], [ -99.842253590114368, 16.852029832169855 ], [ -99.842020431753213, 16.852369746248701 ], [ -99.841875769521764, 16.852822282833021 ], [ -99.841819603842609, 16.853387442078422 ], [ -99.841851935456774, 16.85406522400821 ], [ -99.841972765423847, 16.854855628513388 ], [ -99.842298176005755, 16.855475714542585 ], [ -99.842828168201009, 16.855925481102137 ], [ -99.843562741901636, 16.856204926627328 ], [ -99.84450189589289, 16.856314048982512 ], [ -99.845293884201354, 16.856310787690806 ], [ -99.845938705514016, 16.856195144519489 ], [ -99.846436359033959, 16.855967120892021 ], [ -99.846786844480334, 16.855626717887962 ], [ -99.847019494796982, 16.855173815161056 ] ] ] ] } },
{ "type": "Feature", "properties": { "fid": 2.0, "vulnerabil": 3, "cat": 4, "NOM_ACUIF": "BAHIA DE ACAPULCO", "CLAVE_ACUI": 1226 }, "geometry": { "type": "MultiPolygon", "coordinates": [ [ [ [ -99.919510177483915, 16.891664001216718 ], [ -99.918643327094429, 16.890060050506225 ], [ -99.918643327094429, 16.890060050506193 ], [ -99.918341754486676, 16.888366651311767 ], [ -99.918103778517505, 16.887689817353191 ], [ -99.918029752800393, 16.887548919794618 ], [ -99.917974233587358, 16.887443246603354 ], [ -99.917807676332956, 16.887126226914674 ], [ -99.917689599983987, 16.886976111276866 ], [ -99.917453447854214, 16.886675879763157 ], [ -99.916864798265919, 16.886283072980067 ], [ -99.916745594867379, 16.886234517070505 ], [ -99.916635465961136, 16.886189657448487 ], [ -99.916041728362487, 16.885947804505939 ], [ -99.915531670515776, 16.885813846666355 ], [ -99.91498423847257, 16.885670071496467 ], [ -99.913934561390278, 16.885491158674689 ], [ -99.913692328459476, 16.885449870322415 ], [ -99.9125173611816, 16.885144402282226 ], [ -99.912075072212559, 16.88498106379021 ], [ -99.9117248039543, 16.884851707897411 ], [ -99.911459337784962, 16.884753669331577 ], [ -99.910943819850658, 16.884492922038632 ], [ -99.910704868509967, 16.884372060528356 ], [ -99.910518259095682, 16.884277673239055 ], [ -99.910024981549924, 16.883941738431968 ], [ -99.909694125619978, 16.883716415586221 ], [ -99.908723719655285, 16.883240540988727 ], [ -99.908662809790968, 16.883219241500957 ], [ -99.908475568436671, 16.883153765179983 ], [ -99.90760704085011, 16.88285004739009 ], [ -99.90724619693151, 16.882762872504781 ], [ -99.906344088448449, 16.882544932437561 ], [ -99.905639474869133, 16.882435062959786 ], [ -99.904934861289803, 16.882325193482021 ], [ -99.904934861289803, 16.882325193482021 ], [ -99.904934861289803, 16.882325193482021 ], [ -99.904893643593113, 16.882326635559018 ], [ -99.903086933516008, 16.882389838481785 ], [ -99.901753062680044, 16.882593435077215 ], [ -99.900800295777429, 16.882738855981334 ], [ -99.8987011290928, 16.883226707385315 ], [ -99.898303586720147, 16.883319094515656 ], [ -99.898074934705747, 16.883372231870098 ], [ -99.897149944970764, 16.883640516309718 ], [ -99.894910832914761, 16.884289949379589 ], [ -99.892636193520602, 16.884836333195405 ], [ -99.892156221912288, 16.884951622042024 ], [ -99.889811117837297, 16.88535726568778 ], [ -99.889701141557708, 16.885365767773308 ], [ -99.887875533439725, 16.885506893834886 ], [ -99.886349478081073, 16.885400517686403 ], [ -99.885568283878783, 16.88543733127041 ], [ -99.885464425655826, 16.885442225338618 ], [ -99.885029573094556, 16.885462716143312 ], [ -99.884452069468622, 16.88558237913616 ], [ -99.883915815379211, 16.885693493343968 ], [ -99.883915815379211, 16.885693493343972 ], [ -99.883915815379211, 16.885693493343972 ], [ -99.883879183424568, 16.885709611912972 ], [ -99.883322376915686, 16.885954613388186 ], [ -99.883008202922696, 16.886092852744014 ], [ -99.883008202922696, 16.886092852744014 ], [ -99.883007632625123, 16.88609331448831 ], [ -99.882984820720168, 16.886111784259118 ], [ -99.882306734801489, 16.886660797116605 ], [ -99.881751949378796, 16.887228107900508 ], [ -99.881742880486016, 16.887240700760106 ], [ -99.881343848035044, 16.887794786225573 ], [ -99.88108243213189, 16.888360832906748 ], [ -99.881062315288617, 16.888459974265789 ], [ -99.881021243342843, 16.888662387867814 ], [ -99.880967703012089, 16.888926248444054 ], [ -99.880857020783196, 16.889214321143506 ], [ -99.88083593841796, 16.88926919212798 ], [ -99.880793773653011, 16.889378934091255 ], [ -99.880560643892508, 16.889718889717582 ], [ -99.880268313786942, 16.889946115127355 ], [ -99.879916783611222, 16.890060610059997 ], [ -99.879219878047834, 16.889743819565886 ], [ -99.879076241300851, 16.889678526559106 ], [ -99.877946968195943, 16.889165187298069 ], [ -99.877897881709643, 16.889139121205897 ], [ -99.876906959690061, 16.888612913886984 ], [ -99.877771371431564, 16.889111574902838 ], [ -99.850596418207516, 16.873434913939729 ], [ -99.85065196066688, 16.872816566189456 ], [ -99.849794085288522, 16.872166654775238 ], [ -99.849027837530599, 16.871378930221724 ], [ -99.84826158977269, 16.87059120566823 ], [ -99.847111353781685, 16.869211889484809 ], [ -99.846727359659042, 16.868620301380542 ], [ -99.845957615551484, 16.867041681835765 ], [ -99.845954096634713, 16.866250797699614 ], [ -99.846184498126163, 16.865289470163177 ], [ -99.846648815945471, 16.864157698578897 ], [ -99.8473470447381, 16.862855481547474 ], [ -99.848279177875852, 16.861382816918319 ], [ -99.848976629541568, 16.859911119806114 ], [ -99.849439405311301, 16.858440392358613 ], [ -99.849667510713545, 16.856970635917705 ], [ -99.849660951229211, 16.855501851019799 ], [ -99.84947902781785, 16.854175023902904 ], [ -99.849121743572852, 16.852990154006953 ], [ -99.848589100795706, 16.851947240352221 ], [ -99.848235100896005, 16.851496760945817 ], [ -99.847203068577073, 16.85028642831935 ], [ -99.846555001602397, 16.849667681104826 ], [ -99.84593689828499, 16.849190040283602 ], [ -99.845348756985658, 16.848853506218365 ], [ -99.844409202090432, 16.8486455230933 ], [ -99.843469647195207, 16.848437539968241 ], [ -99.842178677361773, 16.848358101404099 ], [ -99.840653428898378, 16.848364353667886 ], [ -99.839246253881754, 16.848539590697236 ], [ -99.837957149030601, 16.848883815065598 ], [ -99.836786111703958, 16.84939702910572 ], [ -99.835733139901123, 16.850079234909952 ], [ -99.834827440508633, 16.850902069034206 ], [ -99.834069013610232, 16.851865533398801 ], [ -99.833457859942101, 16.852969629572353 ], [ -99.832993980893022, 16.854214358771795 ], [ -99.832647303949017, 16.855430364961396 ], [ -99.832417831516082, 16.856617648638274 ], [ -99.832361698700765, 16.857196929370787 ], [ -99.832305565885463, 16.857776210103317 ], [ -99.832310509233537, 16.858906049461069 ], [ -99.832197500783337, 16.859895134819748 ], [ -99.831966538830955, 16.860743466095201 ], [ -99.83153116496274, 16.861423595650031 ], [ -99.831150750248057, 16.862017864897254 ], [ -99.831080654704834, 16.862351500116258 ], [ -99.830901911458142, 16.863202268075376 ], [ -99.827910362146767, 16.856412049942023 ], [ -99.832311380767024, 16.829643264445828 ], [ -99.826671457976659, 16.809421748029376 ], [ -99.83876684511759, 16.784657949474884 ], [ -99.840239349876839, 16.785212957332465 ], [ -99.84158978128977, 16.785497135178765 ], [ -99.842886804874269, 16.785489503717251 ], [ -99.843817608652316, 16.784808614296175 ], [ -99.845160409718773, 16.784350873069755 ], [ -99.845465592835509, 16.785417024436118 ], [ -99.844199088752816, 16.786189462387085 ], [ -99.845114637671543, 16.787514998833689 ], [ -99.84491627190971, 16.78912471784939 ], [ -99.846228559704741, 16.792166778405971 ], [ -99.84719751383858, 16.792758024237582 ], [ -99.848250392579857, 16.793314939210759 ], [ -99.849364307544619, 16.79320050292004 ], [ -99.850066224361981, 16.792349868469383 ], [ -99.851294582485821, 16.792397547930186 ], [ -99.853171453071653, 16.792841933524866 ], [ -99.855582392289762, 16.793120388535005 ], [ -99.857520300167806, 16.794070195447745 ], [ -99.859168285970512, 16.795645580875014 ], [ -99.858885994029265, 16.796885293267167 ], [ -99.857825486508105, 16.797060761482939 ], [ -99.856948088617997, 16.797409789519659 ], [ -99.855368771718432, 16.797299172135201 ], [ -99.854727889875036, 16.797806501009152 ], [ -99.854079379413719, 16.798605639288425 ], [ -99.85314094468032, 16.798718168844836 ], [ -99.852797616159819, 16.79934184008178 ], [ -99.851737108548306, 16.799463904842284 ], [ -99.848868396355115, 16.799412414102857 ], [ -99.847571371738809, 16.79880400341381 ], [ -99.846281976120252, 16.798130746880506 ], [ -99.843871034592553, 16.795935506652615 ], [ -99.842932599963561, 16.796110974677397 ], [ -99.84215438394132, 16.795319467164632 ], [ -99.841338020602265, 16.79453558916175 ], [ -99.84074291539126, 16.794085479488064 ], [ -99.839873146120823, 16.794144605480856 ], [ -99.838759233287917, 16.794997147934613 ], [ -99.837645320208992, 16.796240676342869 ], [ -99.836889996900126, 16.797600546121515 ], [ -99.836371191025634, 16.799410526133872 ], [ -99.836081270925149, 16.801218598431397 ], [ -99.836157569596523, 16.803080073619125 ], [ -99.836585173163186, 16.804482502308424 ], [ -99.836981565261837, 16.805788366295541 ], [ -99.837515635031806, 16.806301415437719 ], [ -99.838339626253955, 16.806352910251945 ], [ -99.839514579167997, 16.807134880342947 ], [ -99.840933678873256, 16.809053570736427 ], [ -99.842047593308294, 16.809158468555985 ], [ -99.842047592928466, 16.808931505892144 ], [ -99.842749512066376, 16.808929597439658 ], [ -99.843748984851274, 16.809774507173433 ], [ -99.846213332123895, 16.811012307953458 ], [ -99.847746871818501, 16.81066137153045 ], [ -99.849669517854011, 16.809976665826699 ], [ -99.850546914053083, 16.808616795844099 ], [ -99.850722391587453, 16.807541106898523 ], [ -99.850356170076452, 16.805851284900722 ], [ -99.852294076266588, 16.805790249883785 ], [ -99.855109381480972, 16.806057260989615 ], [ -99.857634764622773, 16.806951756179348 ], [ -99.859694745216814, 16.807792850435053 ], [ -99.860343258524125, 16.808693070629751 ], [ -99.860823921986054, 16.809822162011354 ], [ -99.861823394285182, 16.810377169709163 ], [ -99.86322723194364, 16.810543098183086 ], [ -99.864982028973614, 16.810590776822281 ], [ -99.86575261281277, 16.810081540377631 ], [ -99.866042535085256, 16.809574211144042 ], [ -99.865912832417095, 16.809175595938029 ], [ -99.865271949261, 16.808899046440114 ], [ -99.865325355556436, 16.808275375648893 ], [ -99.866210383130877, 16.808271559547507 ], [ -99.867263262300327, 16.808546201941159 ], [ -99.868087253140033, 16.808370734089575 ], [ -99.870032791659767, 16.810234112838675 ], [ -99.871795220968124, 16.811637846257693 ], [ -99.87314565350222, 16.812589561454246 ], [ -99.874084089082572, 16.812982453314628 ], [ -99.87596858953502, 16.813878856861905 ], [ -99.876441623512036, 16.814780985593483 ], [ -99.876334810958838, 16.815513368946643 ], [ -99.875327710167483, 16.815860489830524 ], [ -99.873633951287502, 16.816827468669075 ], [ -99.872588703437955, 16.817336705544783 ], [ -99.871352716965234, 16.817741044067393 ], [ -99.86983443764683, 16.818307499861049 ], [ -99.869430073679794, 16.820062169804476 ], [ -99.870254066177822, 16.82033871901902 ], [ -99.870315103959243, 16.821134042384141 ], [ -99.869964145150874, 16.8215879682616 ], [ -99.869491112872396, 16.821698589736446 ], [ -99.869437707567087, 16.822375663091471 ], [ -99.869796297485266, 16.82311567517587 ], [ -99.869155416404993, 16.824076929394781 ], [ -99.868278019635028, 16.825093494801724 ], [ -99.867934691027273, 16.825663762596552 ], [ -99.867667658388044, 16.826478159203372 ], [ -99.867675291287625, 16.828738249046662 ], [ -99.865798422970613, 16.829649917362808 ], [ -99.865493242531059, 16.830183947907901 ], [ -99.864951544257224, 16.830567305264779 ], [ -99.865340654070593, 16.831766964730157 ], [ -99.864402219655631, 16.832070218869156 ], [ -99.864173333993946, 16.832674817218852 ], [ -99.864104669318209, 16.833733340655403 ], [ -99.86332645704114, 16.834641192539909 ], [ -99.862700834342064, 16.835167594135658 ], [ -99.861686103743324, 16.835098935155958 ], [ -99.861129146238497, 16.834875787180724 ], [ -99.860045750710526, 16.835179041546169 ], [ -99.859107315670414, 16.835110382447361 ], [ -99.858786873429906, 16.834578260236359 ], [ -99.857535625790106, 16.833760052160542 ], [ -99.854254919818942, 16.835049357991558 ], [ -99.853079968240181, 16.834530587749256 ], [ -99.852301755698846, 16.83528204578748 ], [ -99.851287027377211, 16.836571347194525 ], [ -99.850821627310424, 16.83853390810382 ], [ -99.850760594399532, 16.840641418058709 ], [ -99.850928447538848, 16.842375107956574 ], [ -99.851637999440868, 16.844551278178198 ], [ -99.852423846412805, 16.846435638879669 ], [ -99.853842947218666, 16.848464950068625 ], [ -99.856360703786294, 16.851392574320876 ], [ -99.858397797907216, 16.853263582442242 ], [ -99.861380954912519, 16.85498582379298 ], [ -99.863334121315631, 16.855575160751066 ], [ -99.866469867420477, 16.855561805222443 ], [ -99.867797410893445, 16.85654022176503 ], [ -99.869605616565451, 16.857356521620595 ], [ -99.871177304929233, 16.857800908599767 ], [ -99.871795297743873, 16.857346982290785 ], [ -99.872581141545425, 16.857343166339437 ], [ -99.874305422169357, 16.858466533734873 ], [ -99.875243857345581, 16.858615297568694 ], [ -99.877052061749012, 16.859212264201592 ], [ -99.880882097867428, 16.859721493490081 ], [ -99.882995484262366, 16.859639478090788 ], [ -99.884399321377543, 16.859479267323795 ], [ -99.886115969073131, 16.858867037186652 ], [ -99.887046773118769, 16.857814234471338 ], [ -99.888542164524679, 16.857428967352629 ], [ -99.891967831060498, 16.856355180651875 ], [ -99.896034380439175, 16.854837004420837 ], [ -99.900093297753415, 16.852632218101938 ], [ -99.900161961799284, 16.85120368787274 ], [ -99.900078032810157, 16.849170559883561 ], [ -99.900230622266747, 16.848184512490004 ], [ -99.905075388461285, 16.848461055424014 ], [ -99.906952258430579, 16.848535435139418 ], [ -99.907417660245954, 16.848153985256907 ], [ -99.907570249836709, 16.847248040802402 ], [ -99.90757024781216, 16.846046474256731 ], [ -99.906936993348239, 16.844991766634916 ], [ -99.906624180866871, 16.844314692941801 ], [ -99.907631280329284, 16.843713908096895 ], [ -99.909271633602543, 16.843246629556486 ], [ -99.910843321075319, 16.843166522364744 ], [ -99.910835689929058, 16.842489449095382 ], [ -99.910286360663449, 16.84121731459145 ], [ -99.909424220912385, 16.84098653854452 ], [ -99.908714671269962, 16.840690916424716 ], [ -99.908874891249027, 16.840011935531816 ], [ -99.908783335178128, 16.839180375012003 ], [ -99.907608382840579, 16.838209586803764 ], [ -99.906593651866586, 16.837915871624368 ], [ -99.905494995071621, 16.837469577454719 ], [ -99.90470915000914, 16.836721936582009 ], [ -99.903930936339378, 16.836798227807279 ], [ -99.903534200320834, 16.837324629946696 ], [ -99.903381609964569, 16.837776648158311 ], [ -99.902839912590295, 16.838158098156086 ], [ -99.902137993958362, 16.838459444567818 ], [ -99.900970674653507, 16.839821222400463 ], [ -99.89979572471708, 16.840277056934699 ], [ -99.899093806845642, 16.841030422220975 ], [ -99.896751534562782, 16.841041869154317 ], [ -99.896118281133937, 16.840601295444664 ], [ -99.894241409646369, 16.839624786240286 ], [ -99.891807579647363, 16.837826254055251 ], [ -99.891799947881566, 16.836245144840785 ], [ -99.892738382036811, 16.835789310678177 ], [ -99.893280079408783, 16.835405952419542 ], [ -99.893905701208126, 16.834881458185805 ], [ -99.89374547972065, 16.834130002510776 ], [ -99.893898068300544, 16.832621367436925 ], [ -99.894912798770989, 16.83261564466526 ], [ -99.895233240874248, 16.83306575477458 ], [ -99.895851234446198, 16.83306384644774 ], [ -99.89585123356396, 16.832539353191233 ], [ -99.896003823920893, 16.832087334981473 ], [ -99.896629445578753, 16.831478921288841 ], [ -99.897247438008449, 16.830798032323951 ], [ -99.898506314647577, 16.831019270938711 ], [ -99.899444749180233, 16.830788492981597 ], [ -99.900612070648279, 16.830712201150273 ], [ -99.900764660363265, 16.829878732892563 ], [ -99.901626799718827, 16.829874916821968 ], [ -99.902023537759163, 16.830550082114765 ], [ -99.902809382576635, 16.831152772415425 ], [ -99.903198490098191, 16.831522777681364 ], [ -99.903511301191429, 16.831375919261383 ], [ -99.90390040810712, 16.830851424499389 ], [ -99.903579965865845, 16.830319303193029 ], [ -99.903740185585292, 16.830019864092652 ], [ -99.904518400776539, 16.830313579640407 ], [ -99.904838842639094, 16.830620646541934 ], [ -99.90515165409812, 16.830691213975456 ], [ -99.905456835690345, 16.830309763450309 ], [ -99.905609425667976, 16.829632689937846 ], [ -99.906784375734262, 16.829255052780763 ], [ -99.907089557451485, 16.828947984903056 ], [ -99.907791474679286, 16.828347200543671 ], [ -99.909523383015582, 16.828114513085943 ], [ -99.911545213693088, 16.827952393996362 ], [ -99.913582305276989, 16.828322397586732 ], [ -99.913895116613773, 16.828320489735653 ], [ -99.914207927054633, 16.827786459180366 ], [ -99.915382878522877, 16.82770825997336 ], [ -99.915535470782871, 16.828387240370226 ], [ -99.914993772751387, 16.828911735369271 ], [ -99.914528370557889, 16.829068129941358 ], [ -99.914223189088375, 16.829522055750367 ], [ -99.914841183294797, 16.829897782745487 ], [ -99.915466807111713, 16.83003891851104 ], [ -99.916168725863997, 16.829810047385724 ], [ -99.916573093152365, 16.830569132125444 ], [ -99.91648916872866, 16.831246205530679 ], [ -99.916725686549796, 16.831923279335001 ], [ -99.917671751953407, 16.832741487874774 ], [ -99.918373671846155, 16.833189690023854 ], [ -99.919792772132183, 16.835444056475058 ], [ -99.919174779583471, 16.83605247015819 ], [ -99.91862545207016, 16.836353816331503 ], [ -99.918396566673806, 16.837112902064582 ], [ -99.917778573986709, 16.837639303650501 ], [ -99.917076656393832, 16.838022661261572 ], [ -99.917313173438544, 16.838772210354421 ], [ -99.918091389012659, 16.839292887671068 ], [ -99.919029824443655, 16.839596138882513 ], [ -99.919670707997341, 16.840641310571939 ], [ -99.918884864718379, 16.84095219392972 ], [ -99.917633618467661, 16.84095791707432 ], [ -99.916695183418938, 16.840881628530784 ], [ -99.915215052533284, 16.842098456285139 ], [ -99.916237412992729, 16.842617226758236 ], [ -99.917488661028102, 16.84367002604775 ], [ -99.916245045926885, 16.844354730724152 ], [ -99.915230315955569, 16.844656077627423 ], [ -99.914604692638889, 16.844812473351922 ], [ -99.914604694667389, 16.846015947258323 ], [ -99.916802007864732, 16.847207974453667 ], [ -99.918366065331412, 16.847127867271944 ], [ -99.918999320438431, 16.848029995771384 ], [ -99.920410786530439, 16.847797308806257 ], [ -99.920952485562964, 16.848399998594541 ], [ -99.92103641265183, 16.849304035316468 ], [ -99.921662035585413, 16.848920676920958 ], [ -99.922440249637475, 16.849071348362568 ], [ -99.923775422076901, 16.849435630963242 ], [ -99.924011938878721, 16.850040228592082 ], [ -99.923706757149745, 16.850339667025093 ], [ -99.922684397574045, 16.850345390712597 ], [ -99.923081135498592, 16.850949988091354 ], [ -99.923783054873937, 16.851623245553071 ], [ -99.923714390588799, 16.852374702493822 ], [ -99.923088767652146, 16.852756152628732 ], [ -99.922844622032031, 16.852855330474746 ], [ -99.922074037944967, 16.853213894282959 ], [ -99.921761227367114, 16.853665912751062 ], [ -99.922310556270759, 16.854188498692707 ], [ -99.923561803163139, 16.854562317339813 ], [ -99.924347647723323, 16.855010519363677 ], [ -99.924820682211418, 16.856210178712871 ], [ -99.924355281923482, 16.85749566545763 ], [ -99.923973804255937, 16.857570048703405 ], [ -99.923897510223341, 16.858474084783431 ], [ -99.923355813613739, 16.859307553669314 ], [ -99.922730190663998, 16.85968137615459 ], [ -99.923729663474916, 16.860535821820005 ], [ -99.924607061395733, 16.860207773846408 ], [ -99.925232684206819, 16.859751940160574 ], [ -99.926102452926898, 16.859900704096471 ], [ -99.926644151948167, 16.860495765338193 ], [ -99.927429996386692, 16.860871492077358 ], [ -99.927895400246385, 16.861169021944097 ], [ -99.928986423343289, 16.859959824227261 ], [ -99.930085079258149, 16.859883532495282 ], [ -99.931176105792247, 16.860177247555598 ], [ -99.932282391695807, 16.860623541715711 ], [ -99.932595204821254, 16.861680157211122 ], [ -99.932526540521266, 16.862954200063054 ], [ -99.932526542432171, 16.864085198699545 ], [ -99.932999576294193, 16.864912944810811 ], [ -99.933632829741541, 16.865363054438557 ], [ -99.935120594583182, 16.866486422194249 ], [ -99.935746217135332, 16.86587800848174 ], [ -99.936295545399105, 16.866553173551193 ], [ -99.936844875706853, 16.867905412813947 ], [ -99.937089022639057, 16.868582485725437 ], [ -99.937714646339259, 16.869185175389891 ], [ -99.93857678519224, 16.868883828715749 ], [ -99.940369730356466, 16.868876197353138 ], [ -99.940774098396119, 16.870075855921666 ], [ -99.939911959682007, 16.870459214696599 ], [ -99.938668344187505, 16.871441449990687 ], [ -99.939850927822221, 16.873171323601174 ], [ -99.941186101287371, 16.874140204213607 ], [ -99.942277126935494, 16.873909425102713 ], [ -99.943062969464862, 16.873156060560941 ], [ -99.943764888327394, 16.873524157982178 ], [ -99.943917480971024, 16.874426287250557 ], [ -99.945260284199833, 16.875252123740623 ], [ -99.944718586436366, 16.875933012613817 ], [ -99.928807655034475, 16.896077833929731 ], [ -99.925449817694954, 16.897733950840447 ], [ -99.923695679616429, 16.895756267835043 ], [ -99.922657665781031, 16.89506976232844 ], [ -99.921124947426279, 16.893607879987282 ], [ -99.920980189165817, 16.893445666378231 ], [ -99.920731239702278, 16.893166696977506 ], [ -99.919944991154452, 16.892285629792578 ], [ -99.919597139985456, 16.891788327019892 ], [ -99.919510177483915, 16.891664001216718 ] ], [ [ -99.915736787198725, 16.859193761677091 ], [ -99.91541470164745, 16.859314701298047 ], [ -99.914988749419052, 16.859545061565925 ], [ -99.914624753035483, 16.85974191422072 ], [ -99.914073083835561, 16.86012507962548 ], [ -99.913806146314414, 16.86031048174188 ], [ -99.913590949900637, 16.86051053320374 ], [ -99.913134471157818, 16.86093488410242 ], [ -99.912609728526093, 16.861615122693898 ], [ -99.912472343796253, 16.861882786722084 ], [ -99.912328089429764, 16.862163833865495 ], [ -99.912231919624389, 16.862351198578715 ], [ -99.912210560541794, 16.862424462072447 ], [ -99.912123789113551, 16.862722094995778 ], [ -99.912001045902741, 16.863143112490057 ], [ -99.911997288840126, 16.863269116183179 ], [ -99.911991569754775, 16.863460921802336 ], [ -99.911975776166344, 16.863990603970336 ], [ -99.912139718831142, 16.864811575782536 ], [ -99.912156113185347, 16.864893672949194 ], [ -99.912542060060971, 16.865852318719334 ], [ -99.912802835781278, 16.866299416498499 ], [ -99.913133620225551, 16.866866539936318 ], [ -99.913753228401703, 16.86761168353792 ], [ -99.913799125499068, 16.867666879274232 ], [ -99.913812238960404, 16.867682649482429 ], [ -99.914577915085829, 16.868300646588313 ], [ -99.915430646904042, 16.868720530389009 ], [ -99.916370432199272, 16.868942299924022 ], [ -99.917251005705268, 16.869051346259109 ], [ -99.918072365783317, 16.869047670242349 ], [ -99.918834511013316, 16.868931272656713 ], [ -99.919537440193807, 16.868702154220017 ], [ -99.919890926117944, 16.868529985563239 ], [ -99.920067668830868, 16.86844390101701 ], [ -99.920181289058618, 16.868388560874894 ], [ -99.920766057093289, 16.867990493198185 ], [ -99.921291743944309, 16.867507951705925 ], [ -99.921369511714417, 16.867413449296858 ], [ -99.921758349419036, 16.866940936853247 ], [ -99.921903649472938, 16.866657824712373 ], [ -99.921988407645671, 16.866492675922256 ], [ -99.922107068849755, 16.866261467564993 ], [ -99.922201374485326, 16.865937933760662 ], [ -99.922213742415707, 16.865895503095004 ], [ -99.922337902977674, 16.865469544388969 ], [ -99.922450852962257, 16.864565167645324 ], [ -99.922450404531673, 16.864472728538747 ], [ -99.922445920380966, 16.863548337426607 ], [ -99.922382484775738, 16.86329406929049 ], [ -99.922206596119437, 16.862589052916082 ], [ -99.921803062783326, 16.861820904310282 ], [ -99.921732883418002, 16.861687313145183 ], [ -99.921536188961213, 16.861452813804174 ], [ -99.921378834234559, 16.86126521475353 ], [ -99.921024785051117, 16.86084311636187 ], [ -99.920764097842621, 16.860625531045756 ], [ -99.92008230332776, 16.860056460030847 ], [ -99.919729006246484, 16.859820673315248 ], [ -99.91919945033267, 16.859467253328901 ], [ -99.918376222705348, 16.859075497222118 ], [ -99.917612617486768, 16.858881192594758 ], [ -99.916908632119174, 16.858884340249382 ], [ -99.916908632119174, 16.858884340249382 ], [ -99.916175994072063, 16.85902884322709 ], [ -99.915829251870434, 16.85915904207868 ], [ -99.915736787198725, 16.859193761677091 ] ] ] ] } },
{ "type": "Feature", "properties": { "fid": 1.0, "vulnerabil": 2, "cat": 5, "NOM_ACUIF": "BAHIA DE ACAPULCO", "CLAVE_ACUI": 1226 }, "geometry": { "type": "MultiPolygon", "coordinates": [ [ [ [ -99.917251005705268, 16.869051346259109 ], [ -99.916370432199272, 16.868942299924015 ], [ -99.915430646904042, 16.868720530389009 ], [ -99.914577915085829, 16.868300646588313 ], [ -99.913812238960404, 16.867682649482429 ], [ -99.913799125499068, 16.867666879274232 ], [ -99.913753228401703, 16.86761168353792 ], [ -99.913133620225551, 16.866866539936318 ], [ -99.912802835781278, 16.866299416498499 ], [ -99.912542060060971, 16.865852318719334 ], [ -99.912156113185347, 16.864893672949194 ], [ -99.912139718831142, 16.864811575782536 ], [ -99.911975776166344, 16.863990603970336 ], [ -99.911991569754775, 16.863460921802336 ], [ -99.911997288840126, 16.863269116183179 ], [ -99.912001045902741, 16.863143112490057 ], [ -99.912123789113551, 16.862722094995778 ], [ -99.912210560541794, 16.862424462072447 ], [ -99.912231919624389, 16.862351198578718 ], [ -99.912328089429764, 16.862163833865495 ], [ -99.912472343796253, 16.861882786722084 ], [ -99.912609728526093, 16.861615122693898 ], [ -99.913134471157818, 16.86093488410242 ], [ -99.913590949900637, 16.86051053320374 ], [ -99.913806146314414, 16.86031048174188 ], [ -99.914073083835561, 16.86012507962548 ], [ -99.914624753035483, 16.85974191422072 ], [ -99.914988749419052, 16.859545061565925 ], [ -99.91541470164745, 16.859314701298047 ], [ -99.915829251870434, 16.85915904207868 ], [ -99.916175994072063, 16.85902884322709 ], [ -99.916908632119174, 16.858884340249382 ], [ -99.916908632119174, 16.858884340249382 ], [ -99.917612617486768, 16.858881192594758 ], [ -99.918376222705348, 16.859075497222118 ], [ -99.91919945033267, 16.859467253328901 ], [ -99.919729006246484, 16.859820673315248 ], [ -99.92008230332776, 16.860056460030847 ], [ -99.920764097842621, 16.860625531045756 ], [ -99.921024785051117, 16.86084311636187 ], [ -99.921378834234559, 16.86126521475353 ], [ -99.921536188961213, 16.861452813804174 ], [ -99.921732883418002, 16.861687313145183 ], [ -99.921803062783326, 16.861820904310282 ], [ -99.922206596119437, 16.862589052916082 ], [ -99.922382484775738, 16.86329406929049 ], [ -99.922445920380966, 16.863548337426607 ], [ -99.922450404531673, 16.864472728538747 ], [ -99.922450852962257, 16.864565167645324 ], [ -99.922337902977674, 16.865469544388969 ], [ -99.922213742415707, 16.865895503095004 ], [ -99.922201374485326, 16.865937933760662 ], [ -99.922107068849755, 16.866261467564993 ], [ -99.921988407645671, 16.866492675922256 ], [ -99.921903649472938, 16.866657824712373 ], [ -99.921758349419036, 16.866940936853247 ], [ -99.921369511714417, 16.867413449296858 ], [ -99.921291743944309, 16.867507951705925 ], [ -99.920766057093289, 16.867990493198185 ], [ -99.920181289058618, 16.868388560874894 ], [ -99.920067668830868, 16.86844390101701 ], [ -99.919890926117944, 16.868529985563239 ], [ -99.919537440193807, 16.868702154220017 ], [ -99.918834511013316, 16.86893127265671 ], [ -99.918072365783317, 16.869047670242349 ], [ -99.917251005705268, 16.869051346259109 ] ] ] ] } }
]
}
